{"type":"FeatureCollection","features":[{"type":"Feature","properties":{"name":"Williamsburg","url":"#williamsburg","source":"NYC Dept of City Planning 2020 Neighborhood Tabulation Areas (NTA2020) via NYC Open Data (dataset 9nt8-h7nd) — BK0102 (Williamsburg) + BK0103 (South Williamsburg), so the Broadway corridor (Peter Luger, Baby's All Right) falls correctly inside. McCarren Park's pool block PIP-tests into this shape, not Greenpoint's. OSM maps this neighborhood as a place node, not a boundary relation (checked via Overpass this build), so the official city polygon is used as the documented fallback."},"geometry":{"type":"Polygon","coordinates":[[[-73.97006904814343,40.71044775547741],[-73.96960541242258,40.710270844377234],[-73.96994196544557,40.709302053353746],[-73.96984864757465,40.70800304219027],[-73.96929296282453,40.707093331095564],[-73.96838331338861,40.70682937339333],[-73.96341999433024,40.707705158256886],[-73.96838331338871,40.7068293733933],[-73.96720961954568,40.704255709153244],[-73.9621797802308,40.70022071110671],[-73.96283963628261,40.69803866900987],[-73.95701993123406,40.69897391434975],[-73.94193078816194,40.70072523469566],[-73.95191055633244,40.70636007892371],[-73.9579043073855,40.708427173470206],[-73.95191055633244,40.70636007892376],[-73.95023693669857,40.705473246654364],[-73.95087492513105,40.70951311519786],[-73.94865533445751,40.709724983182085],[-73.94937231784627,40.714066878309616],[-73.95348472098757,40.71407020807855],[-73.95114433611649,40.716034521288385],[-73.947213417447,40.7185609861182],[-73.9484163847295,40.71845553312268],[-73.94907816684606,40.722540287202506],[-73.95064594201132,40.72170569378428],[-73.95164632164274,40.723485857483844],[-73.9547766281533,40.7224595046678],[-73.95771989051015,40.72428495735922],[-73.96043230240606,40.72511410866073],[-73.96116366236231,40.72526460683582],[-73.96153679314662,40.725108918600874],[-73.96190239555042,40.725320500811],[-73.96211461478755,40.72514806339883],[-73.96165984235257,40.72486045496563],[-73.9618942664612,40.724106702101025],[-73.96296566336947,40.72203447712286],[-73.96439735573543,40.720441834929],[-73.96447946223105,40.720036188255804],[-73.96503278262037,40.72037706947495],[-73.96517593214978,40.72025559927801],[-73.96540530237732,40.71965282638826],[-73.9651195032813,40.719226894499926],[-73.9663133012496,40.718316541409905],[-73.96725113674303,40.71698666660909],[-73.96710503918193,40.716908393254386],[-73.96724034396114,40.71658788605862],[-73.96884924750051,40.71321254596024],[-73.96850672487408,40.71310547239188],[-73.96846973258967,40.712824709346094],[-73.96866605645896,40.712857193491466],[-73.96887248369427,40.71257874393876],[-73.96881612013829,40.712251947706584],[-73.96931038443972,40.71110785338401],[-73.96990773027578,40.71126812183884],[-73.96937429888523,40.711020666565425],[-73.96977143539952,40.71078396569379],[-73.96966186412774,40.71049972413709],[-73.97006904814343,40.71044775547741]],[[-73.96327873711002,40.70772929902124],[-73.96274332977772,40.70768508175957],[-73.96213128824103,40.70762269280009],[-73.96274332977777,40.70768508175957],[-73.96327873711002,40.70772929902124]],[[-73.96213128824103,40.70762269280009],[-73.96186019766441,40.70759505799123],[-73.96114422874838,40.70752359573732],[-73.9618601976645,40.70759505799123],[-73.96213128824103,40.70762269280009]],[[-73.96114422874838,40.70752359573732],[-73.95939542447749,40.70735240834252],[-73.95845576706587,40.707251847445455],[-73.95939542447749,40.70735240834248],[-73.96114422874838,40.70752359573732]]]}},{"type":"Feature","properties":{"name":"Greenpoint","url":"#greenpoint","source":"NYC Dept of City Planning 2020 Neighborhood Tabulation Areas (NTA2020) via NYC Open Data (dataset 9nt8-h7nd) — BK0101 (Greenpoint). Brooklyn Brewery's new 1 Wythe Ave home PIP-tests inside this shape (the Greenpoint-Williamsburg Industrial Business Zone), not Williamsburg's. OSM maps this neighborhood as a place node, not a boundary relation (checked via Overpass this build), so the official city polygon is used as the documented fallback."},"geometry":{"type":"Polygon","coordinates":[[[-73.9321339742769,40.72815960343333],[-73.93739261341217,40.72433235569545],[-73.94022123583078,40.722891505769304],[-73.94195633562913,40.72165231973291],[-73.94721341744695,40.7185609861182],[-73.9484163847295,40.71845553312268],[-73.949078166846,40.722540287202506],[-73.95064594201138,40.72170569378428],[-73.95164632164285,40.7234858574838],[-73.95477662815335,40.722459504667775],[-73.95814292286852,40.724404284904594],[-73.95794183489497,40.72464920270007],[-73.95795096213239,40.725036439168576],[-73.95842611843923,40.72540053583232],[-73.96012497133214,40.72531963713966],[-73.9602854494424,40.72594812191056],[-73.96161518769874,40.725865563073995],[-73.96161716897699,40.72666142199097],[-73.96101688070596,40.7287044401017],[-73.96142843631839,40.73094639311274],[-73.96226340357227,40.73291555162347],[-73.96228520236957,40.734047695374265],[-73.96157494306718,40.73517961543138],[-73.9598293114781,40.73706090113593],[-73.95763409606995,40.73853811826415],[-73.95693002865116,40.7388870730717],[-73.95476314020421,40.739123535053864],[-73.95292355724182,40.738934942395375],[-73.9504645828052,40.738309580795224],[-73.94652352854825,40.73692685345575],[-73.94644229140823,40.7367806267659],[-73.94719983367118,40.73535517811432],[-73.94706532915387,40.734401992819414],[-73.94659806707352,40.734442224347475],[-73.94673908072924,40.73528269434377],[-73.9462474829688,40.73616616572973],[-73.9458731056285,40.73610183176089],[-73.94557048457176,40.73661230441316],[-73.94499908889487,40.73643669371279],[-73.94525492279523,40.73589278950653],[-73.94518507181276,40.73547915318058],[-73.94503299031923,40.73542861568352],[-73.94451542117442,40.736284390390374],[-73.94239443542429,40.7354257499477],[-73.94173819523785,40.73495071791742],[-73.94114746701952,40.73415292753774],[-73.94099746533847,40.73379048555564],[-73.94115615809413,40.73374890961004],[-73.94056868930251,40.73305849425783],[-73.94068491601382,40.73301707662212],[-73.94036658952952,40.73221258691498],[-73.93981322625451,40.73115268891224],[-73.93810334960666,40.729728519521515],[-73.93693124799917,40.72910809076316],[-73.93492926391922,40.728543915250576],[-73.9321339742769,40.72815960343333]]]}},{"type":"Feature","properties":{"name":"DUMBO","url":"#dumbo","source":"NYC Landmarks Preservation Commission historic district boundaries via NYC Open Data (dataset skyk-mpzq), reprojected from EPSG:2263 — DUMBO Historic District (LP-02279, designated 2007) + Fulton Ferry Historic District (LP-00956, designated 1977). DCP's NTA2020 lumps DUMBO into one tabulation area with Downtown Brooklyn and Boerum Hill (BK0202) and OSM has no DUMBO boundary relation, so these LPC districts are the only official DUMBO outline the city publishes: the between-the-bridges core plus the Old Fulton St ferry landing (Juliana's, Grimaldi's, Jane's Carousel and Empire Stores all PIP-test inside)."},"geometry":{"type":"Polygon","coordinates":[[[-73.9954287412052,40.70328051150094],[-73.99505066827358,40.70313700562688],[-73.99513327626475,40.70298853097389],[-73.9948000898136,40.70285386738477],[-73.99502323407938,40.70248744279779],[-73.99355050728242,40.70202255430959],[-73.99313194127338,40.70250331786146],[-73.99299178045628,40.702536840870046],[-73.99314768850054,40.70286793331708],[-73.99336417451136,40.70279575737666],[-73.99365740532026,40.70334676101669],[-73.991654352877,40.70328495891375],[-73.99166306571959,40.702956744685714],[-73.99137350567936,40.70293727859834],[-73.99137545141984,40.702860658701574],[-73.99063992004177,40.70282993431047],[-73.99062660316434,40.7025970743891],[-73.99011450657262,40.70257667007485],[-73.99017144114319,40.701745191844715],[-73.99024388434853,40.701744896336415],[-73.99024785168098,40.70168894066469],[-73.98917447318425,40.7016508314063],[-73.98914712231273,40.70208777790473],[-73.98959190492043,40.7021039120312],[-73.98956407248326,40.70255700833792],[-73.9888633999304,40.702530453222366],[-73.9888790461232,40.70228974792733],[-73.98863883359287,40.70227949465324],[-73.98862375712844,40.702532536983995],[-73.98821568634668,40.702515186290555],[-73.98822152151249,40.70240518126576],[-73.98777663468763,40.70159951895764],[-73.987369810458,40.70158534960503],[-73.98745691165436,40.70187373995959],[-73.9872049374607,40.701885594479116],[-73.98719347911934,40.702087535692094],[-73.98728627483014,40.702092639274504],[-73.98726236811873,40.70247789720469],[-73.98675238346152,40.702468201459965],[-73.98671781815091,40.70291312864236],[-73.9861638583791,40.70289409680674],[-73.98617184188969,40.70275718845927],[-73.98558684234726,40.70273555213629],[-73.98560471520325,40.70242490841976],[-73.9846446955346,40.70239206695492],[-73.98459104139246,40.70328981238683],[-73.98418288346186,40.703275541544635],[-73.98415804631252,40.703699660226874],[-73.98456335196012,40.70372759063505],[-73.98452644995393,40.70437563887428],[-73.98647473107005,40.70443507491967],[-73.98648857703003,40.704661683978294],[-73.98720260962773,40.704747640161266],[-73.98720024182903,40.70479701134371],[-73.98758581968345,40.70481555818576],[-73.98760389944208,40.70450966446427],[-73.98845688629353,40.7045015837241],[-73.98859643149682,40.70385706815673],[-73.99080457327757,40.7039676396513],[-73.99078400149719,40.70430385302097],[-73.99091888591292,40.70403720784678],[-73.99150635712614,40.70403374430266],[-73.99185268638253,40.704152590044025],[-73.99217138719126,40.70462239554455],[-73.99321744497814,40.704631003288526],[-73.9937743331076,40.70447461950009],[-73.99380475277599,40.70451831486309],[-73.99448639778859,40.70419315498916],[-73.99453045697086,40.70424454478552],[-73.99470525937987,40.70416277569971],[-73.99479721945993,40.70407871083081],[-73.9947663838779,40.70397637619293],[-73.99487973956066,40.7040186630135],[-73.99502229602254,40.70379915064524],[-73.99492350543503,40.70375980477769],[-73.99499200302178,40.703653943627906],[-73.99467100294586,40.70343956421063],[-73.99480515753969,40.703296899573864],[-73.99529711611365,40.703548093247235],[-73.9954287412052,40.70328051150094]],[[-73.99116375199704,40.70329765917726],[-73.9911520597996,40.70349491177432],[-73.99077217500188,40.70348505565105],[-73.99079869793104,40.70329273450192],[-73.99116375199704,40.70329765917726]]]}},{"type":"Feature","properties":{"name":"Brooklyn Heights","url":"#brooklyn-heights","source":"NYC Dept of City Planning 2020 Neighborhood Tabulation Areas (NTA2020) via NYC Open Data (dataset 9nt8-h7nd) — BK0201 (Brooklyn Heights), minus its small overlap with the Fulton Ferry Historic District, which is drawn as part of DUMBO. The NTA runs east to Schermerhorn St, which is why the New York Transit Museum PIP-tests here rather than in Downtown Brooklyn. OSM maps this neighborhood as a place node, not a boundary relation (checked via Overpass this build), so the official city polygon is used as the documented fallback."},"geometry":{"type":"Polygon","coordinates":[[[-74.00174362045013,40.69240674970571],[-74.00161727401692,40.692549071104274],[-73.99991517234571,40.69176723001051],[-73.99047488040556,40.68914107450508],[-73.98922003518615,40.69096597169854],[-73.98893356245586,40.69208664198901],[-73.99097186833538,40.69254880139072],[-73.99044474028206,40.693828251433736],[-73.99128413621706,40.69658821028391],[-73.99142289692212,40.69778099282289],[-73.99136054045563,40.69896581504354],[-73.99082271942416,40.70035475430946],[-73.9909320167545,40.70076621604885],[-73.9932165481706,40.7023905720085],[-73.99355050728242,40.70202255430959],[-73.99502323407938,40.70248744279779],[-73.9948000898136,40.70285386738477],[-73.9951304874791,40.70298740400429],[-73.9972446280566,40.70014140989724],[-73.99716054155857,40.69979281264432],[-73.99749898221943,40.6996388693214],[-73.99887207177386,40.69692378457437],[-73.99947406666517,40.69670413446216],[-73.9994130234517,40.69635767695609],[-74.00095868350955,40.6940690835824],[-74.00174362045013,40.69240674970571]]]}},{"type":"Feature","properties":{"name":"Downtown Brooklyn","url":"#downtown-brooklyn","source":"NYC Dept of City Planning 2020 Neighborhood Tabulation Areas (NTA2020) via NYC Open Data (dataset 9nt8-h7nd) — BK0202 (Downtown Brooklyn-DUMBO-Boerum Hill) minus the two LPC historic districts drawn separately as DUMBO. The remaining city shape still takes in Boerum Hill, disclosed in the map caption. Barclays Center's block PIP-tests into BK0602 (Park Slope) and the Brooklyn Paramount's into BK0203 (Fort Greene), so both are listed in those sections. OSM maps this neighborhood as a place node, not a boundary relation (checked via Overpass this build), so the official city polygon is used as the documented fallback."},"geometry":{"type":"Polygon","coordinates":[[[-73.99392929483827,40.68645287164917],[-73.98912840596947,40.68458945307349],[-73.98828293641336,40.685866785622224],[-73.97961680019212,40.68249127021333],[-73.97807729552628,40.684914940390115],[-73.98083375198135,40.68886378450793],[-73.98350982042075,40.689922171752016],[-73.98139773143163,40.689928670434526],[-73.98206215595255,40.69131209107186],[-73.9817890719204,40.69164486838701],[-73.98175888955709,40.692955173542316],[-73.98251747416961,40.69297738830962],[-73.98251091265745,40.693606611302954],[-73.97916718338998,40.69348832322127],[-73.9801380950676,40.69471005572496],[-73.9805092609422,40.69744627554388],[-73.9804048239219,40.700699006737516],[-73.98084440356011,40.70129524060224],[-73.98064907655728,40.701560873256575],[-73.98090402745397,40.7018614298299],[-73.9800263872738,40.70214046144282],[-73.98027442268234,40.703041400444754],[-73.97932762403605,40.704746276833234],[-73.97905049838056,40.705966963591685],[-73.97955918487237,40.70574361525006],[-73.9809086456379,40.70590794431457],[-73.98092510223934,40.70536925520054],[-73.98274161885982,40.7055724415329],[-73.98336819812047,40.70546106507657],[-73.98343806155856,40.705644094847905],[-73.98643429760614,40.70534860741972],[-73.98652972946046,40.70497909917388],[-73.98686935032721,40.70515674921674],[-73.98795676425462,40.705134217412606],[-73.988289991113,40.70507065849526],[-73.9883033220854,40.704540468452656],[-73.99022721196006,40.70493404448727],[-73.99078716480665,40.704252153707074],[-73.99080457327757,40.7039676396513],[-73.98858550955504,40.70385834580064],[-73.98847794573128,40.70448611954785],[-73.98760389944208,40.70450966446427],[-73.98758581968345,40.70481555818576],[-73.98666103093069,40.7047217015749],[-73.98647473107005,40.70443507491967],[-73.98452644995393,40.70437563887428],[-73.98456486577209,40.70373100377725],[-73.98415804631252,40.703699660226874],[-73.98418288346186,40.703275541544635],[-73.98459104139246,40.70328981238683],[-73.9846446955346,40.70239206695492],[-73.98560471520325,40.70242490841976],[-73.98558684234726,40.70273555213629],[-73.98671781815091,40.70291312864236],[-73.98675238346152,40.702468201459965],[-73.98726236811873,40.70247789720469],[-73.9872049374607,40.701885594479116],[-73.98745691165436,40.70187373995959],[-73.987369810458,40.70158534960503],[-73.98777663468763,40.70159951895764],[-73.98821568634668,40.702515186290555],[-73.98862375712844,40.702532536983995],[-73.98863883359287,40.70227949465324],[-73.9888790461232,40.70228974792733],[-73.9888633999304,40.702530453222366],[-73.98956407248326,40.70255700833792],[-73.98959190492043,40.7021039120312],[-73.98914712231273,40.70208777790473],[-73.98917447318425,40.7016508314063],[-73.99024785168098,40.70168894066469],[-73.99011450657262,40.70257667007485],[-73.99062660316434,40.7025970743891],[-73.99063992004177,40.70282993431047],[-73.99166306571959,40.702956744685714],[-73.991654352877,40.70328495891375],[-73.99365740532026,40.70334676101669],[-73.99336417451136,40.70279575737666],[-73.99314768850054,40.70286793331708],[-73.99299178045628,40.702536840870046],[-73.9932165481706,40.7023905720085],[-73.99083516107234,40.700569762264045],[-73.99143175063786,40.6984192697115],[-73.99128413621706,40.69658821028391],[-73.99044474028206,40.693828251433736],[-73.99097186833538,40.69254880139072],[-73.98893356245586,40.69208664198901],[-73.98922003518615,40.69096597169854],[-73.99047488040556,40.68914107450508],[-73.9923636691119,40.68969012377707],[-73.99392929483827,40.68645287164917]]]}},{"type":"Feature","properties":{"name":"Fort Greene","url":"#fort-greene","source":"NYC Dept of City Planning 2020 Neighborhood Tabulation Areas (NTA2020) via NYC Open Data (dataset 9nt8-h7nd) — BK0203 (Fort Greene). The NTA crosses Flatbush Ave Extension to take in the Brooklyn Paramount's block, and BAM's Peter Jay Sharp Building (30 Lafayette Ave) PIP-tests inside it — PIP decided BAM's polygon, per the Queens build lesson. OSM maps this neighborhood as a place node, not a boundary relation (checked via Overpass this build), so the official city polygon is used as the documented fallback."},"geometry":{"type":"Polygon","coordinates":[[[-73.96283963628261,40.69803866900987],[-73.96347515119811,40.69680066820083],[-73.96455070444493,40.69610759162735],[-73.96546721432578,40.695932161737],[-73.96939449979428,40.69608038942046],[-73.96880989559104,40.693120382901355],[-73.96983118385486,40.69313424397387],[-73.96910362399453,40.68946752251075],[-73.97013154130974,40.68950630795875],[-73.96868961225599,40.682005257597126],[-73.97595023203937,40.68351323204944],[-73.97745722009145,40.68405228761326],[-73.98083375198148,40.68886378450787],[-73.98350982042075,40.68992217175198],[-73.98139773143168,40.689928670434526],[-73.98206215595255,40.69131209107181],[-73.98178907192035,40.69164486838697],[-73.98175888955718,40.69295517354225],[-73.98251747416961,40.692977388309586],[-73.9825109126574,40.693606611302954],[-73.97916718339002,40.69348832322123],[-73.9801380950677,40.69471005572491],[-73.98054419051788,40.69824651292223],[-73.96577476135246,40.69763578048863],[-73.96283963628261,40.69803866900987]]]}},{"type":"Feature","properties":{"name":"Park Slope","url":"#park-slope","source":"NYC Dept of City Planning 2020 Neighborhood Tabulation Areas (NTA2020) via NYC Open Data (dataset 9nt8-h7nd) — BK0602 (Park Slope). The NTA runs north to Atlantic Ave and east over the Grand Army Plaza oval, so Barclays Center, the Soldiers' and Sailors' Arch and the Grand Army Plaza Greenmarket all PIP-test inside it and are listed here, disclosed in the map caption. OSM maps this neighborhood as a place node, not a boundary relation (checked via Overpass this build), so the official city polygon is used as the documented fallback."},"geometry":{"type":"Polygon","coordinates":[[[-73.9737608483554,40.683049408639775],[-73.97469118307237,40.68026661680474],[-73.97618051198288,40.67806432146616],[-73.9718859677279,40.67639465347954],[-73.96949738784443,40.67590638046702],[-73.96969317461117,40.67536085543849],[-73.96883890186278,40.67440897750032],[-73.96877181598978,40.67332834261815],[-73.9689420635121,40.67288749244305],[-73.96966394014534,40.67264236853741],[-73.97040734461665,40.67264721993092],[-73.97181594566749,40.670629475975275],[-73.97965353410314,40.661243234233666],[-73.98017161015706,40.66115465898049],[-73.99173365144995,40.66673659594479],[-73.98390048680756,40.67614865315686],[-73.97807729552638,40.684914940390115],[-73.97745722009145,40.68405228761326],[-73.97595023203937,40.68351323204944],[-73.9737608483554,40.683049408639775]]]}},{"type":"Feature","properties":{"name":"Prospect Heights","url":"#prospect-heights","source":"NYC Dept of City Planning 2020 Neighborhood Tabulation Areas (NTA2020) via NYC Open Data (dataset 9nt8-h7nd) — BK0801 (Prospect Heights) + BK5591 (Prospect Park), so the museums-and-meadows flank (Brooklyn Museum, Botanic Garden, Long Meadow, Central Library) reads as one piece — the same honest composite pattern as Corona + Flushing Meadows-Corona Park in the Queens build. OSM maps this neighborhood as a place node, not a boundary relation (checked via Overpass this build), so the official city polygon is used as the documented fallback."},"geometry":{"type":"Polygon","coordinates":[[[-73.98022902506679,40.660985326992936],[-73.97992670417524,40.66073469773837],[-73.97957869941621,40.66085324282399],[-73.97436701226458,40.658187904684944],[-73.9723284620006,40.65139792975296],[-73.9725915948618,40.65127646191503],[-73.97268874765771,40.65096712838433],[-73.97244202077184,40.65069817631063],[-73.97208846041423,40.65065690875382],[-73.97139631534189,40.64825778611394],[-73.96465438564746,40.65088772845854],[-73.96621321893223,40.65318940555172],[-73.9618808635178,40.65488119255476],[-73.96308145306406,40.662196726823424],[-73.96293049680698,40.66256904355103],[-73.96224973769071,40.66319867920011],[-73.96095595387625,40.663285054834205],[-73.96257123036264,40.67162224498376],[-73.96133695405295,40.671356771472105],[-73.96007345824275,40.674864284656856],[-73.96318238724278,40.67552950499114],[-73.96134655797736,40.68046352480339],[-73.9737608483554,40.683049408639775],[-73.97469118307237,40.68026661680474],[-73.97618051198288,40.67806432146616],[-73.9718859677279,40.67639465347954],[-73.96949738784443,40.67590638046702],[-73.96969317461117,40.67536085543849],[-73.96883890186278,40.67440897750032],[-73.96880408565488,40.67321067540162],[-73.96894206351205,40.67288749244313],[-73.96920280645246,40.6727951578773],[-73.97040734461659,40.67264721993095],[-73.97181594566749,40.670629475975275],[-73.97935059880254,40.6615948216026],[-73.98022902506679,40.660985326992936]],[[-73.96880830914245,40.672931280395225],[-73.9687744398482,40.67294236838465],[-73.96876461337708,40.672942963711336],[-73.96877443984815,40.67294236838465],[-73.96880830914245,40.672931280395225]],[[-73.96834420395598,40.67294354313214],[-73.9682700477164,40.672941074437965],[-73.96826121371087,40.672940542035825],[-73.96827004771646,40.672941074437965],[-73.96834420395598,40.67294354313214]],[[-73.96728152067317,40.67282442982778],[-73.9671318182884,40.67279697165685],[-73.96683278336744,40.67273616389269],[-73.96713181828831,40.67279697165682],[-73.96728152067317,40.67282442982778]]]}},{"type":"Feature","properties":{"name":"Bushwick","url":"#bushwick","source":"NYC Dept of City Planning 2020 Neighborhood Tabulation Areas (NTA2020) via NYC Open Data (dataset 9nt8-h7nd) — BK0401 (Bushwick West) + BK0402 (Bushwick East). Roberta's (261 Moore St) PIP-tests just across the line in BK0104 (East Williamsburg) and is listed as an adjacency, not a placement. OSM maps this neighborhood as a place node, not a boundary relation (checked via Overpass this build), so the official city polygon is used as the documented fallback."},"geometry":{"type":"Polygon","coordinates":[[[-73.94193078816194,40.70072523469566],[-73.90404639720869,40.67922059801862],[-73.90262262280305,40.68066450392094],[-73.90285763444722,40.680938444417144],[-73.90280970917435,40.682340579055165],[-73.90575547976701,40.684004419031346],[-73.90449401088728,40.68629860045694],[-73.90533913742759,40.68681723521513],[-73.9050223799407,40.68752404789796],[-73.90139840574003,40.69158999203721],[-73.90579597009139,40.69412715601634],[-73.90426018345657,40.695700371442825],[-73.9118068203699,40.69994688252277],[-73.91067882671317,40.701045969566344],[-73.91290404033842,40.70236189179874],[-73.91180709937288,40.703434952528376],[-73.92189184632589,40.70939609721312],[-73.9260893002697,40.70567970116197],[-73.93395092906454,40.70267459320026],[-73.94193078816194,40.70072523469566]]]}},{"type":"Feature","properties":{"name":"Coney Island","url":"#coney-island","source":"NYC Dept of City Planning 2020 Neighborhood Tabulation Areas (NTA2020) via NYC Open Data (dataset 9nt8-h7nd) — BK1302 (Coney Island-Sea Gate); the shape includes gated Sea Gate at the western tip and its seaward edge stops at the boardwalk line. Luna Park, the Cyclone, Deno's Wonder Wheel, Nathan's original, the NY Aquarium and Maimonides Park all PIP-test inside. OSM maps this neighborhood as a place node, not a boundary relation (checked via Overpass this build), so the official city polygon is used as the documented fallback."},"geometry":{"type":"Polygon","coordinates":[[[-73.9666153153741,40.584570846455364],[-73.96888995790064,40.57526123899409],[-73.96765743457571,40.57504368249043],[-73.96756707203532,40.574881526949056],[-73.9657492162041,40.57479419709833],[-73.95941778134677,40.57517798414406],[-73.95939182170525,40.5739121092497],[-73.96720294103956,40.57332631739762],[-73.96743567793125,40.573208969671484],[-73.96742628408624,40.57298510896927],[-73.96753149753727,40.57319073188223],[-73.96839037762997,40.57315444243755],[-73.96945126202378,40.5728572803634],[-73.9692462121555,40.5723040761573],[-73.9695589515173,40.57280858046094],[-73.97085363074368,40.57277051528003],[-73.97135044587525,40.572599459040326],[-73.97118306355702,40.57194189908436],[-73.97160706452378,40.57262822392002],[-73.97249673747056,40.57257625725017],[-73.9733450222981,40.57232121400634],[-73.97324990115153,40.57162668560661],[-73.97344805325683,40.572272106969585],[-73.97373209971208,40.57228692459157],[-73.9754708190279,40.57196900381711],[-73.97540564094207,40.57142104064073],[-73.97567918029272,40.57195598449754],[-73.97592552091518,40.57201865743774],[-73.97727057023398,40.571863650676065],[-73.97766384588131,40.571729387799316],[-73.97767087523813,40.5711710200793],[-73.97807599732305,40.57122957012874],[-73.97771533072488,40.57125191384243],[-73.97780796522686,40.57175620084899],[-73.97845486511183,40.571892204296624],[-73.979846944694,40.571539319610366],[-73.9794251615826,40.57122102372418],[-73.97977198260836,40.571240146333565],[-73.98000799187604,40.571708806607695],[-73.98020883097026,40.571726205491196],[-73.982040757866,40.57148037052259],[-73.98157155423429,40.571249988425],[-73.98194794042367,40.571237002660304],[-73.98225580253013,40.57156841828987],[-73.98367270153251,40.57140705768757],[-73.98340440737672,40.57016554451097],[-73.9830432888372,40.57014586048555],[-73.98339168436635,40.57009468501969],[-73.98336057973366,40.56952999448685],[-73.9834852186614,40.57008901506295],[-73.98383949489248,40.570112467660714],[-73.98348842146686,40.57015602954414],[-73.98375790448641,40.57139622725116],[-73.9880371667854,40.5709851082663],[-73.98862025481452,40.57089605181696],[-73.98857772038853,40.57069791000776],[-73.98872145848834,40.570883692082816],[-73.99026267527424,40.57070834011745],[-73.99077310323929,40.57059942183803],[-73.99079264701024,40.57024864875565],[-73.99086374684862,40.570602016242596],[-73.99119337523611,40.57061187496838],[-73.99272854897055,40.57043378854018],[-73.99298098072161,40.57019677330934],[-73.99315741886727,40.570379789439016],[-73.99493763229935,40.57035467451256],[-73.99513854436793,40.57031466120686],[-73.99518726019822,40.57002187763327],[-73.99529301137348,40.570321282714026],[-73.99719493759925,40.57034864954655],[-73.99736944882595,40.57013730754305],[-73.9976671213519,40.57037475166892],[-73.99846777900147,40.570497396973195],[-74.00077859539269,40.57049099822144],[-74.002011670539,40.5702087585243],[-74.00208547639728,40.56958598398511],[-74.0024870773771,40.571738388872625],[-74.00479941621687,40.57287885485107],[-74.00668904970406,40.573397220959414],[-74.01007410719518,40.57383081002049],[-74.01115668729264,40.57416676185904],[-74.01201540191126,40.57488505247444],[-74.0124574957794,40.57661074691973],[-74.01302380064281,40.577804369508755],[-74.01235035929216,40.57922182065402],[-74.011479285405,40.58007840687926],[-74.01054358463756,40.580614483910274],[-74.00745366008165,40.581803522848084],[-74.00604734235812,40.58198365253342],[-74.00294374157806,40.5814328355212],[-74.00055986763827,40.581297429180616],[-73.9996415228002,40.58131655849627],[-73.99895997063543,40.58163304642764],[-73.99818261219644,40.58172536423953],[-73.99776464433626,40.58145433077118],[-73.99771779429551,40.580706776808746],[-73.9918291279026,40.579247080928965],[-73.99036206466548,40.579424580120715],[-73.98899093556328,40.57883509996901],[-73.98842833769417,40.57881584261966],[-73.98739064322473,40.57908698306381],[-73.98669540062984,40.579814908132875],[-73.9870213857769,40.58002276537809],[-73.98588567394853,40.581144424565004],[-73.98604509916241,40.581720684649184],[-73.9868447899644,40.58123210200535],[-73.98763925793932,40.57991759737431],[-73.98803566212689,40.579633780413616],[-73.98995504921753,40.58066167003421],[-73.98829948228986,40.583466747328394],[-73.98654456976337,40.583658591316556],[-73.98710120231532,40.584644592265256],[-73.9862757354651,40.584479981432615],[-73.98492730970302,40.584595952702315],[-73.98482192835374,40.58416852327684],[-73.97742525247779,40.5829065931716],[-73.974681943115,40.58312411840272],[-73.9689998551974,40.58406289514784],[-73.96785844066576,40.584514044261525],[-73.9666153153741,40.584570846455364]]]}}]}