{"type":"FeatureCollection","features":[{"type":"Feature","properties":{"name":"Brooklyn","osm_id":9691750,"source":"OpenStreetMap (ODbL) via Nominatim, relation 9691750 (Brooklyn borough / Kings County), simplified (polygon_threshold=0.00005)"},"geometry":{"type":"Polygon","coordinates":[[[-74.056688,40.627039],[-74.055414,40.625132],[-74.052469,40.620324],[-74.041565,40.602996],[-74.035112,40.578188],[-74.034613,40.576095],[-74.036339,40.562691],[-74.038053,40.550339],[-73.999394,40.556568],[-73.90557,40.571408],[-73.89155,40.572346],[-73.878953,40.574447],[-73.867356,40.579983],[-73.849784,40.588196],[-73.83424,40.60679],[-73.832945,40.628979],[-73.84803,40.643834],[-73.855139,40.642871],[-73.856693,40.649302],[-73.863538,40.658296],[-73.861617,40.659103],[-73.860342,40.659529],[-73.857572,40.659913],[-73.85841,40.663271],[-73.855698,40.663712],[-73.856714,40.668102],[-73.857633,40.671655],[-73.860382,40.671241],[-73.862345,40.679163],[-73.863297,40.679114],[-73.864101,40.682371],[-73.866026,40.681917],[-73.866315,40.683248],[-73.866591,40.685257],[-73.867453,40.688361],[-73.869071,40.695297],[-73.874301,40.694302],[-73.879121,40.691649],[-73.882465,40.689152],[-73.883971,40.687933],[-73.887753,40.686132],[-73.888584,40.685042],[-73.88973,40.684227],[-73.890314,40.684899],[-73.892737,40.683499],[-73.894148,40.685287],[-73.894712,40.68474],[-73.895974,40.683264],[-73.896477,40.682316],[-73.901216,40.687841],[-73.900667,40.688047],[-73.902111,40.691259],[-73.901664,40.691779],[-73.905974,40.694229],[-73.904459,40.695804],[-73.911819,40.699939],[-73.910678,40.701044],[-73.912903,40.70236],[-73.911806,40.703433],[-73.921898,40.709393],[-73.920744,40.710528],[-73.921442,40.71093],[-73.922365,40.712945],[-73.923863,40.713821],[-73.924055,40.714014],[-73.924558,40.715216],[-73.923993,40.715727],[-73.922727,40.716199],[-73.922804,40.716745],[-73.923139,40.717302],[-73.924392,40.71839],[-73.924438,40.720405],[-73.925499,40.721605],[-73.927425,40.725851],[-73.929206,40.727742],[-73.92989,40.728178],[-73.934938,40.728904],[-73.936871,40.729494],[-73.938361,40.730354],[-73.939496,40.731271],[-73.940838,40.734252],[-73.941287,40.734948],[-73.942161,40.735728],[-73.950077,40.738554],[-73.952264,40.739155],[-73.953823,40.739409],[-73.955248,40.739434],[-73.957176,40.739246],[-73.962547,40.736437],[-73.962112,40.734528],[-73.962413,40.73399],[-73.962406,40.732926],[-73.961465,40.730764],[-73.9613803,40.729069],[-73.9619238,40.7275427],[-73.961741,40.726686],[-73.961758,40.725784],[-73.961933,40.725286],[-73.9621293,40.7251589],[-73.961722,40.72487],[-73.9627691,40.7227582],[-73.9633389,40.7218977],[-73.9635168,40.7217312],[-73.9649308,40.7214952],[-73.966666,40.7194968],[-73.9679043,40.7173184],[-73.9673055,40.7170152],[-73.9677402,40.7157309],[-73.9689119,40.7131879],[-73.969061,40.711744],[-73.9700064,40.7105491],[-73.9701914,40.7092385],[-73.9704007,40.7086318],[-73.9692715,40.7070286],[-73.969312,40.705475],[-73.970129,40.705383],[-73.970087,40.705752],[-73.970288,40.705753],[-73.970159,40.706916],[-73.97226,40.709102],[-73.977116,40.706533],[-73.97912,40.706065],[-73.9824381,40.7058529],[-73.9827564,40.7056796],[-73.9834159,40.7057302],[-73.9864168,40.705454],[-73.990749,40.7049],[-73.9935158,40.7046716],[-73.9943578,40.7044439],[-73.9950772,40.7040197],[-73.9951925,40.7038071],[-73.9957569,40.7038774],[-73.9959947,40.7037725],[-73.9963451,40.7033735],[-73.9995497,40.7004296],[-74.0002365,40.6994949],[-74.0015556,40.6972918],[-74.0033816,40.6946775],[-74.0036039,40.6941589],[-74.0041318,40.6935657],[-74.0050007,40.6922553],[-74.0054419,40.691317],[-74.0060025,40.6905979],[-74.0069664,40.6889994],[-74.0074623,40.6886621],[-74.0080914,40.6875085],[-74.0082907,40.6864417],[-74.019577,40.679654],[-74.035443,40.685125],[-74.055766,40.651475],[-74.056688,40.627039]]]}}]}