{"type":"FeatureCollection","features":[{"type":"Feature","properties":{"name":"Cape May","osm_id":170422,"source":"OpenStreetMap (ODbL) via Nominatim, relation 170422","url":"cape-may/index.html"},"geometry":{"type":"Polygon","coordinates":[[[-74.938801,38.931569],[-74.937512,38.931315],[-74.937265,38.931259],[-74.936677,38.93099],[-74.9358466,38.9308821],[-74.9349846,38.9305395],[-74.9346745,38.9303129],[-74.9345946,38.9301802],[-74.9345931,38.928786],[-74.9345852,38.9286823],[-74.9345642,38.9282283],[-74.9343322,38.9269318],[-74.9337175,38.925465],[-74.9230208,38.9254612],[-74.9161673,38.9256264],[-74.9083373,38.9271438],[-74.9023421,38.9285477],[-74.8913815,38.9321549],[-74.8860621,38.9347387],[-74.8832152,38.9365142],[-74.8787944,38.9378398],[-74.8758182,38.9381603],[-74.8726275,38.9377981],[-74.8705633,38.9375394],[-74.8688037,38.9370337],[-74.8676,38.9366682],[-74.8658962,38.9361825],[-74.8638357,38.936046],[-74.868702,38.94283],[-74.874386,38.949362],[-74.875847,38.951169],[-74.87659,38.952147],[-74.877788,38.952104],[-74.881679,38.951788],[-74.889231,38.950552],[-74.893718,38.949966],[-74.900131,38.948955],[-74.901297,38.948771],[-74.901228,38.948539],[-74.901314,38.948523],[-74.90144,38.948501],[-74.904904,38.947901],[-74.905659,38.948196],[-74.905987,38.948164],[-74.9063986,38.9484292],[-74.9067522,38.9487169],[-74.9071507,38.9489825],[-74.9074231,38.9490362],[-74.9077524,38.9490457],[-74.908377,38.948645],[-74.9088,38.948292],[-74.909469,38.947989],[-74.9102375,38.9478313],[-74.9103962,38.9478253],[-74.9106088,38.9478888],[-74.9114196,38.9481212],[-74.9119381,38.9485314],[-74.912177,38.949423],[-74.912249,38.949397],[-74.912367,38.949388],[-74.912523,38.949375],[-74.912673,38.949418],[-74.912865,38.949524],[-74.913069,38.949438],[-74.913233,38.949246],[-74.913554,38.949077],[-74.913765,38.948967],[-74.913791,38.948668],[-74.913736,38.948444],[-74.913666,38.948049],[-74.913652,38.947815],[-74.913692,38.947718],[-74.913842,38.947622],[-74.914047,38.947622],[-74.914198,38.947685],[-74.914499,38.947834],[-74.914664,38.948015],[-74.915047,38.948057],[-74.915251,38.948057],[-74.915289,38.947796],[-74.915318,38.947619],[-74.915427,38.947395],[-74.91559,38.947234],[-74.915705,38.9471],[-74.915849,38.946956],[-74.916026,38.946753],[-74.916288,38.946545],[-74.916435,38.946325],[-74.916447,38.946122],[-74.916392,38.945898],[-74.916328,38.945579],[-74.916281,38.94529],[-74.916266,38.945098],[-74.916348,38.944949],[-74.916565,38.944585],[-74.916591,38.944567],[-74.916786,38.94444],[-74.917018,38.944301],[-74.917247,38.944178],[-74.917669,38.943906],[-74.917874,38.943793],[-74.918133,38.943557],[-74.918392,38.943301],[-74.918583,38.943237],[-74.919047,38.943075],[-74.919163,38.943014],[-74.919243,38.943032],[-74.919269,38.943056],[-74.919443,38.943215],[-74.924347,38.946753],[-74.92438,38.946794],[-74.925325,38.945309],[-74.925513,38.944837],[-74.925771,38.944781],[-74.925964,38.94428],[-74.925991,38.94421],[-74.924128,38.943086],[-74.921268,38.941346],[-74.921134,38.941264],[-74.921301,38.941232],[-74.921459,38.941213],[-74.921514,38.941159],[-74.921555,38.941095],[-74.921636,38.940914],[-74.921717,38.940668],[-74.921867,38.940604],[-74.921935,38.940561],[-74.922249,38.940443],[-74.922563,38.940378],[-74.92277,38.940308],[-74.923396,38.940077],[-74.923463,38.939906],[-74.923723,38.939756],[-74.923872,38.939723],[-74.924009,38.939692],[-74.924186,38.939531],[-74.924349,38.939307],[-74.924527,38.939168],[-74.92467,38.939127],[-74.925046,38.939145],[-74.925087,38.939081],[-74.925127,38.938942],[-74.925139,38.938483],[-74.925371,38.937971],[-74.925709,38.937223],[-74.925735,38.937009],[-74.92583,38.936699],[-74.925836,38.936676],[-74.925897,38.936443],[-74.925895,38.936027],[-74.92584,38.935749],[-74.925743,38.935408],[-74.925664,38.935154],[-74.925543,38.934765],[-74.9254575,38.9339263],[-74.925793,38.933924],[-74.9258951,38.9339565],[-74.9259469,38.9339731],[-74.928386,38.934551],[-74.9286922,38.9346258],[-74.92943,38.934806],[-74.9297705,38.9348867],[-74.9305247,38.9350626],[-74.93062,38.935088],[-74.9306363,38.9350138],[-74.9306504,38.9349528],[-74.9306693,38.9348533],[-74.9307771,38.9344653],[-74.93079,38.934416],[-74.930996,38.933716],[-74.9311677,38.933168],[-74.9312,38.933046],[-74.9312786,38.9327978],[-74.931513,38.93287],[-74.932506,38.93318],[-74.933431,38.93347],[-74.934013,38.933643],[-74.934156,38.933513],[-74.934248,38.933246],[-74.934374,38.933117],[-74.934455,38.932976],[-74.934619,38.932879],[-74.934843,38.932711],[-74.935525,38.932641],[-74.935638,38.932633],[-74.935646,38.932714],[-74.93565,38.932816],[-74.935773,38.932933],[-74.936093,38.932964],[-74.936673,38.933268],[-74.93693,38.933227],[-74.937126,38.933105],[-74.937238,38.932854],[-74.937599,38.932836],[-74.937785,38.932819],[-74.937856,38.932633],[-74.937834,38.932367],[-74.938234,38.932074],[-74.938768,38.931741],[-74.938801,38.931569]]]}}]}