{"type":"FeatureCollection","features":[{"type":"Feature","properties":{"name":"Stamford","osm_id":3306055,"source":"OpenStreetMap (ODbL) via Nominatim, relation 3306055","url":"../stamford/index.html"},"geometry":{"type":"Polygon","coordinates":[[[-73.6339806,41.1440481],[-73.632448,41.142424],[-73.63198,41.141791],[-73.630912,41.140356],[-73.63042,41.139686],[-73.630033,41.139157],[-73.629863,41.138947],[-73.629378,41.138301],[-73.628086,41.136612],[-73.627729,41.136137],[-73.627702,41.136105],[-73.627039,41.135396],[-73.626427,41.134607],[-73.626022,41.134015],[-73.62544,41.133164],[-73.62267,41.129118],[-73.622459,41.128853],[-73.62137,41.127487],[-73.620622,41.126532],[-73.619507,41.12511],[-73.618352,41.12369],[-73.617747,41.122947],[-73.617587,41.12275],[-73.616653,41.121498],[-73.616636,41.121476],[-73.615585,41.120067],[-73.61494,41.119202],[-73.613785,41.117654],[-73.613285,41.116956],[-73.612896,41.116393],[-73.612922,41.116399],[-73.612525,41.116056],[-73.612254,41.115763],[-73.611913,41.115373],[-73.611779,41.115205],[-73.610943,41.114222],[-73.610553,41.113767],[-73.60909,41.112103],[-73.607055,41.109609],[-73.606702,41.109024],[-73.606346,41.108427],[-73.605722,41.107619],[-73.60385,41.105195],[-73.603226,41.104387],[-73.602799,41.103824],[-73.601613,41.102258],[-73.60152,41.102136],[-73.601094,41.101574],[-73.600707,41.101062],[-73.600119,41.100284],[-73.599549,41.099529],[-73.599229,41.099105],[-73.599163,41.099018],[-73.598625,41.098294],[-73.597012,41.096123],[-73.596475,41.0954],[-73.595275,41.0941],[-73.593402,41.09179],[-73.593089,41.091404],[-73.592448,41.090614],[-73.5882035,41.0853783],[-73.587571,41.084598],[-73.583292,41.079113],[-73.580134,41.075064],[-73.580062,41.07499],[-73.580038,41.074966],[-73.579837,41.074701],[-73.579174,41.073827],[-73.578953,41.073536],[-73.578684,41.073154],[-73.57788,41.072008],[-73.577694,41.071742],[-73.577654,41.071684],[-73.577613,41.071626],[-73.577562,41.071595],[-73.577543,41.071584],[-73.577474,41.071542],[-73.577412,41.071504],[-73.577362,41.071474],[-73.577187,41.071215],[-73.576664,41.07044],[-73.57649,41.070182],[-73.575717,41.069177],[-73.573398,41.066162],[-73.572625,41.065158],[-73.571768,41.064061],[-73.569199,41.060771],[-73.568343,41.059675],[-73.568328,41.059634],[-73.568285,41.059514],[-73.568336,41.059467],[-73.567949,41.059012],[-73.567827,41.057389],[-73.567756,41.05653],[-73.567641,41.055881],[-73.5672568,41.0549063],[-73.5671998,41.0546693],[-73.5671692,41.0545396],[-73.567154,41.054493],[-73.5671218,41.0543746],[-73.5670498,41.0540469],[-73.5668583,41.0529728],[-73.5667283,41.0525672],[-73.5666615,41.0523129],[-73.5665625,41.0519884],[-73.5665198,41.0518663],[-73.5664622,41.0516245],[-73.5664115,41.0513967],[-73.566217,41.0507451],[-73.5658276,41.049054],[-73.5656395,41.0483811],[-73.5655547,41.0478886],[-73.5653399,41.046929],[-73.5652761,41.0466699],[-73.5652642,41.0465953],[-73.5652365,41.0464435],[-73.5652075,41.0463082],[-73.5649825,41.045281],[-73.5648507,41.0448653],[-73.5648314,41.0447416],[-73.5648029,41.0446337],[-73.564644,41.0440361],[-73.5645724,41.0437668],[-73.5640562,41.0417746],[-73.5640122,41.041605],[-73.5639617,41.04141],[-73.563698,41.0409982],[-73.5636064,41.0408552],[-73.5634386,41.0405932],[-73.5633906,41.0405322],[-73.563154,41.040232],[-73.56274,41.039539],[-73.562702,41.039474],[-73.562663,41.039409],[-73.562582,41.039274],[-73.562553,41.039225],[-73.561503,41.037467],[-73.561472,41.037414],[-73.56144,41.037361],[-73.561402,41.037313],[-73.560087,41.035095],[-73.559207,41.033762],[-73.556568,41.029764],[-73.556497,41.029656],[-73.556456,41.029594],[-73.556415,41.029531],[-73.556381,41.029479],[-73.556347,41.029427],[-73.555689,41.028431],[-73.555639,41.02838],[-73.555623,41.028364],[-73.5556,41.028178],[-73.555592,41.028109],[-73.555642,41.028081],[-73.555679,41.027664],[-73.555686,41.027593],[-73.555657,41.027236],[-73.555628,41.027164],[-73.555425,41.027022],[-73.55536,41.02689],[-73.5553079,41.0264501],[-73.5551477,41.0242432],[-73.5539833,41.023435],[-73.5481377,41.0193776],[-73.5474869,40.9645138],[-73.4956477,40.9753166],[-73.4954009,41.0485555],[-73.496682,41.049188],[-73.49787,41.049389],[-73.500254,41.052796],[-73.50248,41.055977],[-73.506318,41.058885],[-73.506528,41.059262],[-73.507057,41.06021],[-73.507327,41.06092],[-73.507339,41.060935],[-73.507349,41.060979],[-73.507376,41.061092],[-73.507567,41.061526],[-73.508143,41.06208],[-73.508467,41.062834],[-73.508551,41.06303],[-73.508744,41.063478],[-73.508741,41.063802],[-73.508746,41.064375],[-73.508893,41.064978],[-73.508934,41.065128],[-73.509097,41.065735],[-73.509285,41.066065],[-73.509403,41.066273],[-73.509654,41.066593],[-73.509725,41.066628],[-73.509952,41.066799],[-73.51014,41.067186],[-73.510101,41.067341],[-73.509942,41.067407],[-73.50998,41.067542],[-73.509907,41.067635],[-73.509832,41.068181],[-73.509889,41.068627],[-73.509895,41.068711],[-73.509929,41.069234],[-73.50975,41.06965],[-73.509736,41.069853],[-73.509961,41.070173],[-73.510005,41.070409],[-73.510084,41.070829],[-73.510112,41.070838],[-73.51065,41.071025],[-73.510809,41.071101],[-73.510933,41.071528],[-73.510933,41.071712],[-73.510936,41.07217],[-73.510936,41.072209],[-73.511344,41.07268],[-73.511368,41.072687],[-73.511831,41.072828],[-73.512312,41.072854],[-73.513097,41.072817],[-73.51339,41.072926],[-73.513734,41.073055],[-73.513992,41.073247],[-73.51408,41.073312],[-73.514168,41.073378],[-73.51428,41.073569],[-73.514337,41.073664],[-73.51444,41.073731],[-73.514547,41.0738],[-73.515178,41.074208],[-73.515389,41.074344],[-73.51535,41.074379],[-73.515325,41.074404],[-73.515295,41.074438],[-73.515269,41.07451],[-73.515252,41.07456],[-73.515123,41.074589],[-73.515039,41.074608],[-73.514753,41.074726],[-73.514682,41.074756],[-73.51463,41.074774],[-73.514715,41.074894],[-73.514765,41.074964],[-73.515084,41.075125],[-73.515217,41.075192],[-73.51529,41.075229],[-73.515511,41.07534],[-73.515585,41.075377],[-73.51588,41.075525],[-73.516118,41.075656],[-73.517242,41.077718],[-73.517411,41.078027],[-73.517393,41.078172],[-73.51729,41.079024],[-73.517578,41.079298],[-73.517768,41.079597],[-73.517739,41.079797],[-73.517854,41.079833],[-73.518011,41.079977],[-73.518152,41.080272],[-73.517931,41.080604],[-73.517294,41.080939],[-73.516975,41.081168],[-73.516827,41.081794],[-73.516777,41.082275],[-73.516724,41.082804],[-73.516315,41.083182],[-73.516205,41.083283],[-73.516038,41.083585],[-73.51603,41.083949],[-73.516744,41.084323],[-73.516842,41.084708],[-73.516812,41.084796],[-73.516719,41.085078],[-73.516654,41.085133],[-73.516218,41.085358],[-73.515681,41.085544],[-73.515521,41.085676],[-73.51518,41.086209],[-73.514911,41.086822],[-73.514766,41.087153],[-73.514627,41.087647],[-73.514598,41.087713],[-73.514513,41.088183],[-73.514496,41.088284],[-73.514496,41.088492],[-73.514619,41.088728],[-73.514793,41.088866],[-73.515229,41.088965],[-73.515504,41.089064],[-73.51562,41.089152],[-73.515664,41.089338],[-73.515591,41.089591],[-73.515489,41.089832],[-73.515264,41.090074],[-73.514828,41.090623],[-73.514712,41.090864],[-73.514467,41.091386],[-73.514387,41.091558],[-73.514341,41.092407],[-73.514591,41.0927],[-73.514645,41.092764],[-73.514747,41.092846],[-73.514859,41.092964],[-73.514935,41.093044],[-73.514979,41.093242],[-73.514899,41.09362],[-73.51495,41.094054],[-73.514963,41.094164],[-73.514891,41.094422],[-73.514811,41.0946],[-73.514723,41.094801],[-73.514524,41.095109],[-73.514469,41.095196],[-73.514432,41.09528],[-73.514345,41.095476],[-73.514207,41.09569],[-73.514104,41.095786],[-73.513772,41.096101],[-73.513554,41.096359],[-73.5135516,41.096377],[-73.51351,41.096683],[-73.5133731,41.0969369],[-73.51329,41.0970218],[-73.513212,41.097079],[-73.513154,41.097095],[-73.513137,41.09716],[-73.513096,41.09732],[-73.513081,41.097644],[-73.513012,41.097743],[-73.5128152,41.0982325],[-73.512733,41.098288],[-73.512739,41.098374],[-73.512725,41.09861],[-73.5127191,41.0986223],[-73.512623,41.098824],[-73.512543,41.099148],[-73.5125081,41.099232],[-73.5124142,41.0993068],[-73.5123432,41.0993594],[-73.5122734,41.0994251],[-73.51226,41.0994938],[-73.512281,41.099554],[-73.512129,41.099609],[-73.511882,41.099565],[-73.511875,41.0995641],[-73.51185,41.0995729],[-73.5118228,41.099588],[-73.5117893,41.0996312],[-73.5116431,41.0998849],[-73.5115238,41.09999],[-73.511414,41.100064],[-73.511155,41.100668],[-73.511101,41.100812],[-73.5110571,41.1011128],[-73.5109457,41.1012007],[-73.5108036,41.1012664],[-73.510625,41.101491],[-73.510479,41.101744],[-73.5103825,41.1019738],[-73.510363,41.102068],[-73.510486,41.102134],[-73.510581,41.102205],[-73.5108009,41.1023618],[-73.5107379,41.1024376],[-73.510667,41.102529],[-73.510435,41.102557],[-73.510217,41.102584],[-73.510087,41.10265],[-73.5100566,41.1029015],[-73.5099516,41.103051],[-73.5099104,41.1031956],[-73.509858,41.1032828],[-73.5099409,41.1034191],[-73.5098617,41.1035462],[-73.509639,41.103664],[-73.509448,41.103838],[-73.509403,41.104595],[-73.509445,41.104808],[-73.509656,41.104851],[-73.509787,41.105126],[-73.509932,41.105307],[-73.510063,41.105378],[-73.510264,41.105432],[-73.510288,41.105439],[-73.51052,41.105444],[-73.511166,41.105555],[-73.511398,41.105648],[-73.511499,41.10578],[-73.511594,41.106027],[-73.511586,41.106532],[-73.511469,41.107229],[-73.511513,41.107471],[-73.511447,41.107619],[-73.511178,41.107954],[-73.51112,41.108173],[-73.511033,41.108404],[-73.510815,41.108552],[-73.510582,41.108673],[-73.510328,41.108876],[-73.510212,41.1092],[-73.510146,41.109293],[-73.510016,41.109331],[-73.509936,41.109282],[-73.509842,41.109238],[-73.509798,41.109243],[-73.509507,41.109452],[-73.509369,41.109704],[-73.509319,41.109726],[-73.509239,41.109726],[-73.508869,41.109633],[-73.508702,41.109644],[-73.508484,41.109731],[-73.508084,41.110022],[-73.507837,41.11011],[-73.507561,41.110126],[-73.507395,41.110071],[-73.507271,41.109956],[-73.507141,41.109775],[-73.506922,41.109616],[-73.5068,41.109527],[-73.506676,41.109505],[-73.506509,41.109555],[-73.506255,41.109802],[-73.505972,41.110049],[-73.50579,41.110147],[-73.505289,41.110603],[-73.504555,41.111031],[-73.50449,41.111129],[-73.50449,41.111174],[-73.503697,41.111861],[-73.502756,41.112679],[-73.501321,41.113924],[-73.500756,41.114414],[-73.502193,41.11437],[-73.502652,41.114355],[-73.504634,41.114295],[-73.50784,41.114196],[-73.508051,41.114248],[-73.508252,41.114297],[-73.508441,41.114311],[-73.509497,41.114393],[-73.510813,41.114496],[-73.511794,41.114458],[-73.51474,41.114344],[-73.515722,41.114307],[-73.517043,41.114353],[-73.5212669,41.1144981],[-73.52217,41.117844],[-73.522236,41.118052],[-73.522434,41.118679],[-73.52247,41.118793],[-73.5225,41.118888],[-73.523025,41.12033],[-73.524603,41.124657],[-73.52513,41.1261],[-73.525701,41.127627],[-73.527414,41.132209],[-73.527986,41.133737],[-73.528014,41.133814],[-73.528101,41.134045],[-73.52813,41.134122],[-73.528326,41.134647],[-73.528915,41.136223],[-73.529112,41.136749],[-73.529938,41.138954],[-73.530105,41.1394],[-73.53176,41.143813],[-73.532418,41.14557],[-73.53314,41.147496],[-73.533192,41.147636],[-73.533245,41.147776],[-73.533282,41.14787],[-73.533319,41.147963],[-73.533438,41.148264],[-73.534021,41.149728],[-73.534057,41.149819],[-73.534096,41.15003],[-73.534134,41.15024],[-73.534359,41.151199],[-73.534369,41.151483],[-73.534351,41.151521],[-73.534215,41.151626],[-73.533469,41.151731],[-73.533054,41.151972],[-73.53299,41.152199],[-73.532725,41.15298],[-73.532641,41.153231],[-73.532741,41.153434],[-73.533047,41.15359],[-73.533048,41.153657],[-73.533056,41.153956],[-73.532883,41.154182],[-73.532327,41.154389],[-73.53233,41.154598],[-73.532602,41.154791],[-73.533082,41.155006],[-73.533337,41.155224],[-73.533477,41.155282],[-73.533978,41.155327],[-73.534295,41.155369],[-73.534601,41.155524],[-73.534868,41.155717],[-73.534917,41.1558],[-73.53499,41.155896],[-73.53515,41.15658],[-73.535476,41.156983],[-73.535549,41.157438],[-73.535784,41.157795],[-73.53613,41.158015],[-73.536468,41.158243],[-73.537242,41.158563],[-73.537455,41.158891],[-73.538369,41.15949],[-73.538724,41.160052],[-73.538834,41.160014],[-73.539324,41.160191],[-73.539769,41.160083],[-73.540021,41.160067],[-73.540178,41.16012],[-73.540442,41.160281],[-73.540942,41.160957],[-73.540955,41.161495],[-73.541248,41.161873],[-73.541319,41.161964],[-73.541567,41.162261],[-73.541772,41.162823],[-73.541987,41.163129],[-73.542368,41.16338],[-73.543746,41.163657],[-73.543988,41.164048],[-73.544133,41.164764],[-73.544201,41.164864],[-73.544225,41.164886],[-73.544229,41.164907],[-73.544281,41.164984],[-73.544396,41.165153],[-73.544533,41.165175],[-73.544626,41.165191],[-73.544645,41.165183],[-73.544695,41.165215],[-73.545486,41.16572],[-73.547366,41.167821],[-73.549247,41.169921],[-73.549354,41.170041],[-73.549462,41.170161],[-73.551242,41.17215],[-73.553023,41.174138],[-73.553052,41.17417],[-73.552297,41.176004],[-73.552265,41.17608],[-73.552303,41.176159],[-73.552842,41.177276],[-73.553381,41.178392],[-73.55357,41.178584],[-73.553603,41.178671],[-73.553642,41.178771],[-73.553599,41.179199],[-73.553621,41.179282],[-73.553737,41.179441],[-73.55402,41.179649],[-73.554136,41.179699],[-73.554216,41.179704],[-73.554434,41.179798],[-73.554638,41.179929],[-73.5548725,41.1798973],[-73.56467,41.175454],[-73.5647694,41.1754085],[-73.580254,41.168327],[-73.596983,41.160782],[-73.614002,41.153078],[-73.624218,41.14843],[-73.625458,41.147937],[-73.630848,41.14549],[-73.6339806,41.1440481]]]}},{"type":"Feature","properties":{"name":"Greenwich","osm_id":4119957,"source":"OpenStreetMap (ODbL) via Nominatim, relation 4119957","url":"../greenwich/index.html"},"geometry":{"type":"Polygon","coordinates":[[[-73.727811,41.10069],[-73.72779,41.100664],[-73.71414,41.083478],[-73.710946,41.079588],[-73.708976,41.077014],[-73.706986,41.07467],[-73.706395,41.073785],[-73.705757,41.07298],[-73.697933,41.063737],[-73.694274,41.059297],[-73.692198,41.057073],[-73.690174,41.054397],[-73.689504,41.053549],[-73.687808,41.051587],[-73.682753,41.045552],[-73.67984,41.041903],[-73.678564,41.040403],[-73.676414,41.03792],[-73.675743,41.037002],[-73.6755636,41.0368074],[-73.675448,41.036682],[-73.675052,41.036202],[-73.674809,41.035946],[-73.671074,41.031527],[-73.670606,41.03083],[-73.665942,41.025389],[-73.656583,41.013913],[-73.655486,41.012551],[-73.655319,41.012267],[-73.655291,41.012266],[-73.655298,41.01223],[-73.655777,41.009997],[-73.660129,41.00046],[-73.660122,41.000441],[-73.660005,41.000109],[-73.659844,40.999389],[-73.659575,40.998691],[-73.659468,40.998149],[-73.659446,40.997293],[-73.659565,40.996275],[-73.659735,40.99551],[-73.659679,40.994882],[-73.659433,40.99435],[-73.659372,40.994005],[-73.65935,40.99368],[-73.659071,40.993004],[-73.658785,40.992659],[-73.65827,40.992236],[-73.657986,40.991904],[-73.657806,40.991587],[-73.657727,40.991306],[-73.657612,40.990768],[-73.657668,40.990198],[-73.657716,40.989968],[-73.657943,40.989753],[-73.65883,40.989295],[-73.659989,40.988696],[-73.6599445,40.9886359],[-73.656559,40.984071],[-73.643573,40.974461],[-73.624196,40.959886],[-73.619617,40.956504],[-73.612405,40.950983],[-73.5832424,40.9570617],[-73.5474869,40.9645138],[-73.5481377,41.0193776],[-73.5539833,41.023435],[-73.5551477,41.0242432],[-73.5553079,41.0264501],[-73.55536,41.02689],[-73.555425,41.027022],[-73.555628,41.027164],[-73.555657,41.027236],[-73.555686,41.027593],[-73.555679,41.027664],[-73.555642,41.028081],[-73.555592,41.028109],[-73.5556,41.028178],[-73.555623,41.028364],[-73.555639,41.02838],[-73.555689,41.028431],[-73.556347,41.029427],[-73.556381,41.029479],[-73.556415,41.029531],[-73.556456,41.029594],[-73.556497,41.029656],[-73.556568,41.029764],[-73.559207,41.033762],[-73.560087,41.035095],[-73.561402,41.037313],[-73.56144,41.037361],[-73.561472,41.037414],[-73.561503,41.037467],[-73.562553,41.039225],[-73.562582,41.039274],[-73.562663,41.039409],[-73.562702,41.039474],[-73.56274,41.039539],[-73.563154,41.040232],[-73.5633906,41.0405322],[-73.5634386,41.0405932],[-73.5636064,41.0408552],[-73.563698,41.0409982],[-73.5639617,41.04141],[-73.5640122,41.041605],[-73.5640562,41.0417746],[-73.5645724,41.0437668],[-73.564644,41.0440361],[-73.5648029,41.0446337],[-73.5648314,41.0447416],[-73.5648507,41.0448653],[-73.5649825,41.045281],[-73.5652075,41.0463082],[-73.5652365,41.0464435],[-73.5652642,41.0465953],[-73.5652761,41.0466699],[-73.5653399,41.046929],[-73.5655547,41.0478886],[-73.5656395,41.0483811],[-73.5658276,41.049054],[-73.566217,41.0507451],[-73.5664115,41.0513967],[-73.5664622,41.0516245],[-73.5665198,41.0518663],[-73.5665625,41.0519884],[-73.5666615,41.0523129],[-73.5667283,41.0525672],[-73.5668583,41.0529728],[-73.5670498,41.0540469],[-73.5671218,41.0543746],[-73.567154,41.054493],[-73.5671692,41.0545396],[-73.5671998,41.0546693],[-73.5672568,41.0549063],[-73.567641,41.055881],[-73.567756,41.05653],[-73.567827,41.057389],[-73.567949,41.059012],[-73.568336,41.059467],[-73.568285,41.059514],[-73.568328,41.059634],[-73.568343,41.059675],[-73.569199,41.060771],[-73.571768,41.064061],[-73.572625,41.065158],[-73.573398,41.066162],[-73.575717,41.069177],[-73.57649,41.070182],[-73.576664,41.07044],[-73.577187,41.071215],[-73.577362,41.071474],[-73.577412,41.071504],[-73.577474,41.071542],[-73.577543,41.071584],[-73.577562,41.071595],[-73.577613,41.071626],[-73.577654,41.071684],[-73.577694,41.071742],[-73.57788,41.072008],[-73.578684,41.073154],[-73.578953,41.073536],[-73.579174,41.073827],[-73.579837,41.074701],[-73.580038,41.074966],[-73.580062,41.07499],[-73.580134,41.075064],[-73.583292,41.079113],[-73.587571,41.084598],[-73.5882035,41.0853783],[-73.592448,41.090614],[-73.593089,41.091404],[-73.593402,41.09179],[-73.595275,41.0941],[-73.596475,41.0954],[-73.597012,41.096123],[-73.598625,41.098294],[-73.599163,41.099018],[-73.599229,41.099105],[-73.599549,41.099529],[-73.600119,41.100284],[-73.600707,41.101062],[-73.601094,41.101574],[-73.60152,41.102136],[-73.601613,41.102258],[-73.602799,41.103824],[-73.603226,41.104387],[-73.60385,41.105195],[-73.605722,41.107619],[-73.606346,41.108427],[-73.606702,41.109024],[-73.607055,41.109609],[-73.60909,41.112103],[-73.610553,41.113767],[-73.610943,41.114222],[-73.611779,41.115205],[-73.611913,41.115373],[-73.612254,41.115763],[-73.612525,41.116056],[-73.612922,41.116399],[-73.612896,41.116393],[-73.613285,41.116956],[-73.613785,41.117654],[-73.61494,41.119202],[-73.615585,41.120067],[-73.616636,41.121476],[-73.616653,41.121498],[-73.617587,41.12275],[-73.617747,41.122947],[-73.618352,41.12369],[-73.619507,41.12511],[-73.620622,41.126532],[-73.62137,41.127487],[-73.622459,41.128853],[-73.62267,41.129118],[-73.62544,41.133164],[-73.626022,41.134015],[-73.626427,41.134607],[-73.627039,41.135396],[-73.627702,41.136105],[-73.627729,41.136137],[-73.628086,41.136612],[-73.629378,41.138301],[-73.629863,41.138947],[-73.630033,41.139157],[-73.63042,41.139686],[-73.630912,41.140356],[-73.63198,41.141791],[-73.632448,41.142424],[-73.6339806,41.1440481],[-73.650274,41.136548],[-73.675148,41.125122],[-73.676775,41.1244],[-73.692742,41.116927],[-73.6959488,41.1154357],[-73.70256,41.112361],[-73.727811,41.10069]]]}},{"type":"Feature","properties":{"name":"New Canaan","osm_id":11052088,"source":"OpenStreetMap (ODbL) via Nominatim, relation 11052088","url":"../new-canaan/index.html"},"geometry":{"type":"Polygon","coordinates":[[[-73.5548725,41.1798973],[-73.554638,41.179929],[-73.554434,41.179798],[-73.554216,41.179704],[-73.554136,41.179699],[-73.55402,41.179649],[-73.553737,41.179441],[-73.553621,41.179282],[-73.553599,41.179199],[-73.553642,41.178771],[-73.553603,41.178671],[-73.55357,41.178584],[-73.553381,41.178392],[-73.552842,41.177276],[-73.552303,41.176159],[-73.552265,41.17608],[-73.552297,41.176004],[-73.553052,41.17417],[-73.553023,41.174138],[-73.551242,41.17215],[-73.549462,41.170161],[-73.549354,41.170041],[-73.549247,41.169921],[-73.547366,41.167821],[-73.545486,41.16572],[-73.544695,41.165215],[-73.544645,41.165183],[-73.544626,41.165191],[-73.544533,41.165175],[-73.544396,41.165153],[-73.544281,41.164984],[-73.544229,41.164907],[-73.544225,41.164886],[-73.544201,41.164864],[-73.544133,41.164764],[-73.543988,41.164048],[-73.543746,41.163657],[-73.542368,41.16338],[-73.541987,41.163129],[-73.541772,41.162823],[-73.541567,41.162261],[-73.541319,41.161964],[-73.541248,41.161873],[-73.540955,41.161495],[-73.540942,41.160957],[-73.540442,41.160281],[-73.540178,41.16012],[-73.540021,41.160067],[-73.539769,41.160083],[-73.539324,41.160191],[-73.538834,41.160014],[-73.538724,41.160052],[-73.538369,41.15949],[-73.537455,41.158891],[-73.537242,41.158563],[-73.536468,41.158243],[-73.53613,41.158015],[-73.535784,41.157795],[-73.535549,41.157438],[-73.535476,41.156983],[-73.53515,41.15658],[-73.53499,41.155896],[-73.534917,41.1558],[-73.534868,41.155717],[-73.534601,41.155524],[-73.534295,41.155369],[-73.533978,41.155327],[-73.533477,41.155282],[-73.533337,41.155224],[-73.533082,41.155006],[-73.532602,41.154791],[-73.53233,41.154598],[-73.532327,41.154389],[-73.532883,41.154182],[-73.533056,41.153956],[-73.533048,41.153657],[-73.533047,41.15359],[-73.532741,41.153434],[-73.532641,41.153231],[-73.532725,41.15298],[-73.53299,41.152199],[-73.533054,41.151972],[-73.533469,41.151731],[-73.534215,41.151626],[-73.534351,41.151521],[-73.534369,41.151483],[-73.534359,41.151199],[-73.534134,41.15024],[-73.534096,41.15003],[-73.534057,41.149819],[-73.534021,41.149728],[-73.533438,41.148264],[-73.533319,41.147963],[-73.533282,41.14787],[-73.533245,41.147776],[-73.533192,41.147636],[-73.53314,41.147496],[-73.532418,41.14557],[-73.53176,41.143813],[-73.530105,41.1394],[-73.529938,41.138954],[-73.529112,41.136749],[-73.528915,41.136223],[-73.528326,41.134647],[-73.52813,41.134122],[-73.528101,41.134045],[-73.528014,41.133814],[-73.527986,41.133737],[-73.527414,41.132209],[-73.525701,41.127627],[-73.52513,41.1261],[-73.524603,41.124657],[-73.523025,41.12033],[-73.5225,41.118888],[-73.52247,41.118793],[-73.522434,41.118679],[-73.522236,41.118052],[-73.52217,41.117844],[-73.5212669,41.1144981],[-73.517043,41.114353],[-73.515722,41.114307],[-73.51474,41.114344],[-73.511794,41.114458],[-73.510813,41.114496],[-73.509497,41.114393],[-73.508441,41.114311],[-73.508252,41.114297],[-73.508051,41.114248],[-73.50784,41.114196],[-73.504634,41.114295],[-73.502652,41.114355],[-73.502193,41.11437],[-73.500756,41.114414],[-73.5006061,41.114429],[-73.4999593,41.1144308],[-73.498272,41.1144061],[-73.497701,41.114399],[-73.496849,41.114278],[-73.495812,41.114141],[-73.495602,41.11417],[-73.494858,41.114273],[-73.494274,41.114353],[-73.493416,41.114472],[-73.493237,41.114426],[-73.493119,41.114404],[-73.492957,41.114375],[-73.492615,41.114343],[-73.492227,41.114329],[-73.492212,41.114328],[-73.491909,41.114312],[-73.491491,41.114264],[-73.491361,41.114259],[-73.49018,41.11422],[-73.489711,41.114219],[-73.48915,41.114272],[-73.488482,41.114241],[-73.488306,41.114249],[-73.488207,41.114254],[-73.487982,41.114251],[-73.487651,41.114253],[-73.487219,41.114234],[-73.486814,41.114235],[-73.486638,41.114236],[-73.486318,41.114208],[-73.486209,41.114198],[-73.486166,41.114182],[-73.485999,41.114121],[-73.485746,41.113988],[-73.48561,41.113916],[-73.485606,41.113902],[-73.485596,41.113862],[-73.485593,41.113849],[-73.484811,41.113942],[-73.482468,41.114222],[-73.481687,41.114316],[-73.481154,41.114374],[-73.479559,41.114548],[-73.479027,41.114607],[-73.478134,41.114624],[-73.47773,41.114633],[-73.475457,41.114678],[-73.4745657,41.1147043],[-73.4744087,41.1149093],[-73.4739417,41.1155243],[-73.4737867,41.1157303],[-73.4732457,41.1164213],[-73.4729107,41.1168503],[-73.4716227,41.1184973],[-73.4710827,41.1191893],[-73.4709007,41.1194583],[-73.4703587,41.1202673],[-73.4701777,41.1205373],[-73.4698607,41.1209403],[-73.4689117,41.1221493],[-73.4687127,41.1224033],[-73.4686537,41.1224783],[-73.4685957,41.1225533],[-73.4685447,41.1226223],[-73.4684947,41.1226913],[-73.4683357,41.1229073],[-73.4675577,41.1239723],[-73.4673787,41.1242173],[-73.4672987,41.1243273],[-73.4670747,41.1246123],[-73.4667297,41.1250543],[-73.4664217,41.1254833],[-73.4662262,41.1257523],[-73.4662107,41.1257783],[-73.4659977,41.1260493],[-73.4659787,41.1260743],[-73.4657237,41.1263983],[-73.4653587,41.1268613],[-73.4651467,41.1271333],[-73.4650597,41.1272443],[-73.4648017,41.1275793],[-73.4647157,41.1276913],[-73.4643617,41.1281193],[-73.4633017,41.1294053],[-73.4629487,41.1298343],[-73.4622597,41.1307123],[-73.4601937,41.1333463],[-73.4595057,41.1342253],[-73.4593687,41.1343623],[-73.4589597,41.1347733],[-73.4588237,41.1349113],[-73.4587117,41.1350753],[-73.4586177,41.1352123],[-73.4580027,41.1361193],[-73.4577977,41.1364223],[-73.4574257,41.1370733],[-73.4563107,41.1390283],[-73.4559397,41.1396803],[-73.4557737,41.1399223],[-73.4552787,41.1406503],[-73.4552757,41.1406563],[-73.4551147,41.1408933],[-73.4547437,41.1415813],[-73.4536317,41.1436493],[-73.4532617,41.1443383],[-73.4530327,41.1446883],[-73.4523467,41.1457413],[-73.4521187,41.1460923],[-73.4518177,41.1466163],[-73.4512847,41.1475473],[-73.4510857,41.1478953],[-73.4509157,41.1481903],[-73.4506157,41.1487153],[-73.4504377,41.1489373],[-73.4499077,41.1496063],[-73.4497307,41.1498293],[-73.4496837,41.1498843],[-73.4495447,41.1500523],[-73.4494987,41.1501083],[-73.4494787,41.1502243],[-73.4493787,41.1507963],[-73.4490187,41.1528633],[-73.4488987,41.1535523],[-73.4488607,41.1535923],[-73.4488357,41.1536203],[-73.4488137,41.1536473],[-73.4488717,41.1537193],[-73.4489071,41.1537623],[-73.4489111,41.1537983],[-73.4490121,41.1539783],[-73.4490811,41.1541343],[-73.4491301,41.1541893],[-73.4491491,41.1542683],[-73.4491631,41.1543273],[-73.4491901,41.1544693],[-73.4492251,41.1545923],[-73.4492581,41.1550203],[-73.4492961,41.1552513],[-73.4494781,41.1560303],[-73.4497101,41.1568293],[-73.4497401,41.1568683],[-73.4497361,41.1569173],[-73.4498131,41.1571813],[-73.4501431,41.1576423],[-73.4504031,41.1580053],[-73.4508791,41.1585123],[-73.4514141,41.1587433],[-73.4519671,41.1589483],[-73.4521971,41.1592253],[-73.4525431,41.1596403],[-73.4528751,41.1597563],[-73.4529751,41.1597913],[-73.4534871,41.1594953],[-73.4541001,41.1593723],[-73.4542951,41.1592513],[-73.4544361,41.1591653],[-73.4546291,41.1590893],[-73.4548891,41.1591713],[-73.4553881,41.1594413],[-73.4563371,41.1598103],[-73.4570441,41.1601223],[-73.4574611,41.1602073],[-73.4577161,41.1601553],[-73.4579511,41.1601083],[-73.4583081,41.1600303],[-73.4584061,41.1600093],[-73.4586571,41.1600733],[-73.4587872,41.1601063],[-73.4593542,41.1604693],[-73.4598872,41.1607793],[-73.4600102,41.1608163],[-73.4603892,41.1609313],[-73.4605222,41.1609133],[-73.4611232,41.1608353],[-73.4616452,41.1608683],[-73.4620962,41.1609783],[-73.4622162,41.1610083],[-73.4626202,41.1610623],[-73.4629812,41.1611103],[-73.4633292,41.1611153],[-73.4635702,41.1612633],[-73.4640232,41.1612693],[-73.4642952,41.1615233],[-73.4640272,41.1618223],[-73.4642812,41.1621423],[-73.4641962,41.1623403],[-73.4640972,41.1625743],[-73.4640815,41.1627266],[-73.4640742,41.1627973],[-73.4641812,41.1630043],[-73.4643552,41.1631493],[-73.4646272,41.1636433],[-73.4646372,41.1636683],[-73.4647282,41.1638863],[-73.4650092,41.1641063],[-73.4652732,41.1640643],[-73.4654762,41.1640763],[-73.4656842,41.1643583],[-73.4658132,41.1644503],[-73.4661602,41.1644283],[-73.4662792,41.1644473],[-73.4664652,41.1646483],[-73.4665002,41.1647823],[-73.4665862,41.1651013],[-73.4666562,41.1652773],[-73.4666872,41.1653553],[-73.4668352,41.1655103],[-73.4668132,41.1655853],[-73.4665532,41.1664563],[-73.4657102,41.1692953],[-73.4654292,41.1702423],[-73.4653962,41.1713843],[-73.4652992,41.1748133],[-73.4652672,41.1759563],[-73.4653972,41.1760103],[-73.4655502,41.1761523],[-73.4656002,41.1762243],[-73.4658522,41.1764583],[-73.4658842,41.1764873],[-73.4662112,41.1765973],[-73.4663782,41.1767013],[-73.4666332,41.1770313],[-73.4668872,41.1772833],[-73.4669672,41.1774753],[-73.4671632,41.1775963],[-73.4674472,41.1776013],[-73.4677032,41.1775403],[-73.4682102,41.1774203],[-73.4684712,41.1774013],[-73.4685072,41.1773983],[-73.4687472,41.1774313],[-73.4688562,41.1774913],[-73.4690672,41.1776613],[-73.4693512,41.1779583],[-73.4694822,41.1782053],[-73.4694892,41.1783143],[-73.4695382,41.1784403],[-73.4695842,41.1785563],[-73.4697872,41.1787543],[-73.4698962,41.1789793],[-73.4699912,41.1791383],[-73.4702742,41.1792863],[-73.4709852,41.1795353],[-73.4710632,41.1796093],[-73.4713502,41.1798843],[-73.4714232,41.1799233],[-73.4722512,41.1802133],[-73.4727382,41.1804993],[-73.4730072,41.1806963],[-73.4732182,41.1810043],[-73.4732532,41.1811763],[-73.4732842,41.1813223],[-73.4732552,41.1815863],[-73.4732982,41.1816573],[-73.4733852,41.1817173],[-73.4734582,41.1818113],[-73.4735022,41.1819093],[-73.4733782,41.1820523],[-73.4733282,41.1821183],[-73.4730952,41.1823103],[-73.4729042,41.1823873],[-73.4728682,41.1824013],[-73.4727602,41.1824443],[-73.4727392,41.1824533],[-73.4727242,41.1824543],[-73.4723032,41.1824863],[-73.4722522,41.1825193],[-73.4722092,41.1826893],[-73.4723762,41.1828603],[-73.4724052,41.1829313],[-73.4724562,41.1831833],[-73.4726022,41.1834473],[-73.4727252,41.1836063],[-73.4727762,41.1836833],[-73.4727772,41.1836993],[-73.4728132,41.1841393],[-73.4728132,41.1844193],[-73.4728562,41.1845174],[-73.4728202,41.1850014],[-73.4724792,41.1854234],[-73.4723852,41.1855664],[-73.4723342,41.1857144],[-73.4723702,41.1858414],[-73.4722112,41.1862744],[-73.4713162,41.1870844],[-73.4706622,41.1884824],[-73.4701412,41.1895984],[-73.4707012,41.1898444],[-73.4708972,41.1900144],[-73.4718422,41.1905134],[-73.4722272,41.1907934],[-73.4725042,41.1910514],[-73.4726842,41.1912414],[-73.4728532,41.1914194],[-73.4729472,41.1918964],[-73.4728172,41.1924564],[-73.4720342,41.1943884],[-73.4731092,41.1950864],[-73.4731602,41.1952014],[-73.4731752,41.1954924],[-73.4731022,41.1960854],[-73.4731312,41.1961514],[-73.4732112,41.1962724],[-73.4733642,41.1963324],[-73.4735752,41.1963494],[-73.4736772,41.1963764],[-73.4737572,41.1964144],[-73.4740042,41.1966124],[-73.4741572,41.1968314],[-73.4742432,41.1970944],[-73.4742732,41.1971834],[-73.4743732,41.1973154],[-73.4756912,41.1990604],[-73.4759872,41.1997114],[-73.4764082,41.2006354],[-73.4764432,41.2007114],[-73.4764572,41.2007404],[-73.4768772,41.2016654],[-73.4771742,41.2023174],[-73.4774882,41.2029084],[-73.4777612,41.2034234],[-73.4778282,41.2035544],[-73.4784122,41.2046934],[-73.4787192,41.2052894],[-73.4787112,41.2054334],[-73.4787312,41.2055324],[-73.4788282,41.2060204],[-73.4788392,41.2062014],[-73.4788782,41.2062964],[-73.4789172,41.2063944],[-73.4791092,41.2066034],[-73.4792522,41.2067804],[-73.4802622,41.2079194],[-73.4814932,41.2080964],[-73.4822912,41.2076244],[-73.4826902,41.2076554],[-73.4827842,41.2076994],[-73.4834752,41.2079074],[-73.4836712,41.2080124],[-73.4837662,41.2081214],[-73.4837812,41.2082154],[-73.4842122,41.2090044],[-73.4844072,41.2090304],[-73.4848002,41.2112654],[-73.4848392,41.2114588],[-73.492248,41.208287],[-73.512454,41.199401],[-73.514174,41.19857],[-73.517826,41.19687],[-73.523655,41.194091],[-73.530529,41.190863],[-73.535806,41.188504],[-73.5358714,41.1884739],[-73.540143,41.186507],[-73.55155,41.181404],[-73.5548725,41.1798973]]]}}]}