{"type":"FeatureCollection","features":[{"type":"Feature","properties":{"name":"Greenwich","osm_id":4119957,"source":"OpenStreetMap (ODbL) via Nominatim, relation 4119957"},"geometry":{"type":"Polygon","coordinates":[[[-73.727811,41.10069],[-73.72779,41.100664],[-73.71414,41.083478],[-73.710946,41.079588],[-73.708976,41.077014],[-73.706986,41.07467],[-73.706395,41.073785],[-73.705757,41.07298],[-73.697933,41.063737],[-73.694274,41.059297],[-73.692198,41.057073],[-73.690174,41.054397],[-73.689504,41.053549],[-73.687808,41.051587],[-73.682753,41.045552],[-73.67984,41.041903],[-73.678564,41.040403],[-73.676414,41.03792],[-73.675743,41.037002],[-73.6755636,41.0368074],[-73.675448,41.036682],[-73.675052,41.036202],[-73.674809,41.035946],[-73.671074,41.031527],[-73.670606,41.03083],[-73.665942,41.025389],[-73.656583,41.013913],[-73.655486,41.012551],[-73.655319,41.012267],[-73.655291,41.012266],[-73.655298,41.01223],[-73.655777,41.009997],[-73.660129,41.00046],[-73.660122,41.000441],[-73.660005,41.000109],[-73.659844,40.999389],[-73.659575,40.998691],[-73.659468,40.998149],[-73.659446,40.997293],[-73.659565,40.996275],[-73.659735,40.99551],[-73.659679,40.994882],[-73.659433,40.99435],[-73.659372,40.994005],[-73.65935,40.99368],[-73.659071,40.993004],[-73.658785,40.992659],[-73.65827,40.992236],[-73.657986,40.991904],[-73.657806,40.991587],[-73.657727,40.991306],[-73.657612,40.990768],[-73.657668,40.990198],[-73.657716,40.989968],[-73.657943,40.989753],[-73.65883,40.989295],[-73.659989,40.988696],[-73.6599445,40.9886359],[-73.656559,40.984071],[-73.643573,40.974461],[-73.624196,40.959886],[-73.619617,40.956504],[-73.612405,40.950983],[-73.5832424,40.9570617],[-73.5474869,40.9645138],[-73.5481377,41.0193776],[-73.5539833,41.023435],[-73.5551477,41.0242432],[-73.5553079,41.0264501],[-73.55536,41.02689],[-73.555425,41.027022],[-73.555628,41.027164],[-73.555657,41.027236],[-73.555686,41.027593],[-73.555679,41.027664],[-73.555642,41.028081],[-73.555592,41.028109],[-73.5556,41.028178],[-73.555623,41.028364],[-73.555639,41.02838],[-73.555689,41.028431],[-73.556347,41.029427],[-73.556381,41.029479],[-73.556415,41.029531],[-73.556456,41.029594],[-73.556497,41.029656],[-73.556568,41.029764],[-73.559207,41.033762],[-73.560087,41.035095],[-73.561402,41.037313],[-73.56144,41.037361],[-73.561472,41.037414],[-73.561503,41.037467],[-73.562553,41.039225],[-73.562582,41.039274],[-73.562663,41.039409],[-73.562702,41.039474],[-73.56274,41.039539],[-73.563154,41.040232],[-73.5633906,41.0405322],[-73.5634386,41.0405932],[-73.5636064,41.0408552],[-73.563698,41.0409982],[-73.5639617,41.04141],[-73.5640122,41.041605],[-73.5640562,41.0417746],[-73.5645724,41.0437668],[-73.564644,41.0440361],[-73.5648029,41.0446337],[-73.5648314,41.0447416],[-73.5648507,41.0448653],[-73.5649825,41.045281],[-73.5652075,41.0463082],[-73.5652365,41.0464435],[-73.5652642,41.0465953],[-73.5652761,41.0466699],[-73.5653399,41.046929],[-73.5655547,41.0478886],[-73.5656395,41.0483811],[-73.5658276,41.049054],[-73.566217,41.0507451],[-73.5664115,41.0513967],[-73.5664622,41.0516245],[-73.5665198,41.0518663],[-73.5665625,41.0519884],[-73.5666615,41.0523129],[-73.5667283,41.0525672],[-73.5668583,41.0529728],[-73.5670498,41.0540469],[-73.5671218,41.0543746],[-73.567154,41.054493],[-73.5671692,41.0545396],[-73.5671998,41.0546693],[-73.5672568,41.0549063],[-73.567641,41.055881],[-73.567756,41.05653],[-73.567827,41.057389],[-73.567949,41.059012],[-73.568336,41.059467],[-73.568285,41.059514],[-73.568328,41.059634],[-73.568343,41.059675],[-73.569199,41.060771],[-73.571768,41.064061],[-73.572625,41.065158],[-73.573398,41.066162],[-73.575717,41.069177],[-73.57649,41.070182],[-73.576664,41.07044],[-73.577187,41.071215],[-73.577362,41.071474],[-73.577412,41.071504],[-73.577474,41.071542],[-73.577543,41.071584],[-73.577562,41.071595],[-73.577613,41.071626],[-73.577654,41.071684],[-73.577694,41.071742],[-73.57788,41.072008],[-73.578684,41.073154],[-73.578953,41.073536],[-73.579174,41.073827],[-73.579837,41.074701],[-73.580038,41.074966],[-73.580062,41.07499],[-73.580134,41.075064],[-73.583292,41.079113],[-73.587571,41.084598],[-73.5882035,41.0853783],[-73.592448,41.090614],[-73.593089,41.091404],[-73.593402,41.09179],[-73.595275,41.0941],[-73.596475,41.0954],[-73.597012,41.096123],[-73.598625,41.098294],[-73.599163,41.099018],[-73.599229,41.099105],[-73.599549,41.099529],[-73.600119,41.100284],[-73.600707,41.101062],[-73.601094,41.101574],[-73.60152,41.102136],[-73.601613,41.102258],[-73.602799,41.103824],[-73.603226,41.104387],[-73.60385,41.105195],[-73.605722,41.107619],[-73.606346,41.108427],[-73.606702,41.109024],[-73.607055,41.109609],[-73.60909,41.112103],[-73.610553,41.113767],[-73.610943,41.114222],[-73.611779,41.115205],[-73.611913,41.115373],[-73.612254,41.115763],[-73.612525,41.116056],[-73.612922,41.116399],[-73.612896,41.116393],[-73.613285,41.116956],[-73.613785,41.117654],[-73.61494,41.119202],[-73.615585,41.120067],[-73.616636,41.121476],[-73.616653,41.121498],[-73.617587,41.12275],[-73.617747,41.122947],[-73.618352,41.12369],[-73.619507,41.12511],[-73.620622,41.126532],[-73.62137,41.127487],[-73.622459,41.128853],[-73.62267,41.129118],[-73.62544,41.133164],[-73.626022,41.134015],[-73.626427,41.134607],[-73.627039,41.135396],[-73.627702,41.136105],[-73.627729,41.136137],[-73.628086,41.136612],[-73.629378,41.138301],[-73.629863,41.138947],[-73.630033,41.139157],[-73.63042,41.139686],[-73.630912,41.140356],[-73.63198,41.141791],[-73.632448,41.142424],[-73.6339806,41.1440481],[-73.650274,41.136548],[-73.675148,41.125122],[-73.676775,41.1244],[-73.692742,41.116927],[-73.6959488,41.1154357],[-73.70256,41.112361],[-73.727811,41.10069]]]}}]}