{"type":"FeatureCollection","features":[{"type":"Feature","properties":{"name":"Holgate","url":"holgate/index.html","osm_id":962544,"source":"OpenStreetMap (ODbL) via Nominatim, Long Beach Township relation 962544 — island piece south of Beach Haven: Holgate section incl. the Forsythe wilderness and the Beach Haven Heights/Inlet/Manor shore subdivisions (replaces neighbourhood relation 15790370, which left the wilderness tip unmapped)"},"geometry":{"type":"Polygon","coordinates":[[[-74.296119,39.508415],[-74.287651,39.50834],[-74.287485,39.508315],[-74.287301,39.5083],[-74.286977,39.508245],[-74.286579,39.508259],[-74.286309,39.508227],[-74.286033,39.508216],[-74.285698,39.508259],[-74.28544,39.508337],[-74.285266,39.508422],[-74.285002,39.508504],[-74.284601,39.508557],[-74.284178,39.508619],[-74.283815,39.508697],[-74.283643,39.508759],[-74.283318,39.508929],[-74.282855,39.509206],[-74.282422,39.50944],[-74.282009,39.509669],[-74.28171,39.509922],[-74.281555,39.510095],[-74.281418,39.510169],[-74.281145,39.510257],[-74.280921,39.510391],[-74.280746,39.510536],[-74.280586,39.510643],[-74.280296,39.510819],[-74.280136,39.510942],[-74.280059,39.511128],[-74.279816,39.511403],[-74.279581,39.51163],[-74.279334,39.511796],[-74.278844,39.512012],[-74.278643,39.512096],[-74.278433,39.512241],[-74.278089,39.512509],[-74.277497,39.513018],[-74.275979,39.515716],[-74.274796,39.517615],[-74.27388,39.518597],[-74.272195,39.52093],[-74.271899,39.521502],[-74.270361,39.52347],[-74.269149,39.524797],[-74.269119,39.524957],[-74.268971,39.525072],[-74.268616,39.525735],[-74.267522,39.527199],[-74.265748,39.529257],[-74.263886,39.530675],[-74.26356,39.530812],[-74.263058,39.530812],[-74.2626769,39.5307918],[-74.2622468,39.5311041],[-74.2619178,39.5314339],[-74.2615766,39.5317888],[-74.261105,39.5321014],[-74.2607179,39.5323473],[-74.2605291,39.5325755],[-74.2600143,39.5332482],[-74.2595514,39.5339614],[-74.2595236,39.5342536],[-74.2591595,39.5347465],[-74.2588208,39.5354274],[-74.258415,39.5360815],[-74.2583037,39.5363171],[-74.2582387,39.5364545],[-74.2578064,39.5371693],[-74.2573857,39.5376874],[-74.2570332,39.5380362],[-74.2568877,39.5381797],[-74.2557951,39.5395189],[-74.2553601,39.540083],[-74.2551337,39.5403875],[-74.2548754,39.5407115],[-74.2543667,39.5412619],[-74.2540563,39.5415977],[-74.2537449,39.5419049],[-74.2535952,39.5420526],[-74.2533177,39.5423402],[-74.2521374,39.5435261],[-74.2519784,39.5436735],[-74.2513168,39.5444201],[-74.2510986,39.5446663],[-74.2505465,39.5453614],[-74.2500199,39.5460038],[-74.2498005,39.5462713],[-74.2493832,39.5467905],[-74.2505671,39.5473123],[-74.251193,39.5475792],[-74.2612713,39.5517544],[-74.2617849,39.5508572],[-74.2620785,39.550292],[-74.262682,39.5492182],[-74.263242,39.5481602],[-74.2640055,39.5466836],[-74.2642723,39.5461008],[-74.264823,39.54497],[-74.2663102,39.5419034],[-74.2667635,39.5409932],[-74.2673512,39.5399948],[-74.2678809,39.5391837],[-74.26906,39.537699],[-74.269735,39.53685],[-74.269918,39.536621],[-74.271949,39.5345155],[-74.274304,39.532889],[-74.276577,39.531141],[-74.278727,39.529925],[-74.282566,39.528452],[-74.285543,39.52752],[-74.287725,39.526571],[-74.28992,39.525242],[-74.293106,39.521136],[-74.293479,39.517458],[-74.293596,39.514906],[-74.293915,39.513781],[-74.294552,39.511895],[-74.295676,39.509501],[-74.296119,39.508415]]]}},{"type":"Feature","properties":{"name":"Beach Haven","url":"beach-haven/index.html","osm_id":170323,"source":"OpenStreetMap (ODbL) via Nominatim, relation 170323"},"geometry":{"type":"Polygon","coordinates":[[[-74.266843,39.581615],[-74.26655,39.579467],[-74.264243,39.57633],[-74.264159,39.576329],[-74.26366,39.575955],[-74.262862,39.575461],[-74.261324,39.574572],[-74.25968,39.573738],[-74.257989,39.572765],[-74.255865,39.571322],[-74.254808,39.570144],[-74.254249,39.569089],[-74.253842,39.567529],[-74.253845,39.566629],[-74.253849,39.565177],[-74.255156,39.562359],[-74.256354,39.559991],[-74.257661,39.556874],[-74.258575,39.555487],[-74.259763,39.554032],[-74.2612713,39.5517544],[-74.251193,39.5475792],[-74.2505671,39.5473123],[-74.2493832,39.5467905],[-74.2487437,39.5475122],[-74.2476976,39.5485588],[-74.2466086,39.549568],[-74.2460346,39.5501058],[-74.2440542,39.5517529],[-74.2436287,39.5521408],[-74.243457,39.5522752],[-74.2433658,39.5522649],[-74.2432371,39.5522256],[-74.2431727,39.5522509],[-74.2431358,39.5523037],[-74.2431452,39.5524621],[-74.242313,39.5532095],[-74.242027,39.5534697],[-74.241827,39.5536568],[-74.2416135,39.5538863],[-74.2413535,39.5541706],[-74.2410229,39.5546701],[-74.2406166,39.5550278],[-74.2400801,39.5556358],[-74.2396402,39.5560287],[-74.2393168,39.5562834],[-74.2387927,39.5569593],[-74.2384846,39.5573691],[-74.2382757,39.5576634],[-74.2380577,39.5578527],[-74.2378351,39.5581091],[-74.2375391,39.5584254],[-74.2371682,39.5587916],[-74.2364954,39.559699],[-74.2362694,39.5599959],[-74.235455,39.5608715],[-74.2351293,39.5612866],[-74.2348328,39.5617344],[-74.2345746,39.5620261],[-74.2342702,39.5623535],[-74.2340842,39.5626777],[-74.2338792,39.562994],[-74.2335672,39.5633863],[-74.2325987,39.5647555],[-74.2323527,39.5651831],[-74.2321542,39.5655202],[-74.2318994,39.5658448],[-74.2316619,39.5660695],[-74.2315344,39.5664112],[-74.2312962,39.566775],[-74.2311275,39.5670394],[-74.2307059,39.5675033],[-74.2305396,39.5677003],[-74.2303443,39.5679969],[-74.2301935,39.5682176],[-74.2299394,39.5685469],[-74.2298329,39.5689389],[-74.2296089,39.5692279],[-74.2293674,39.569383],[-74.2293325,39.5694115],[-74.2296232,39.5695452],[-74.2299182,39.5696809],[-74.2303137,39.5698628],[-74.231325,39.570263],[-74.232838,39.570908],[-74.2343027,39.5715476],[-74.2345682,39.5716648],[-74.2359835,39.5722658],[-74.249841,39.578109],[-74.266612,39.585295],[-74.266651,39.584836],[-74.266735,39.583261],[-74.266843,39.581615]]]}},{"type":"Feature","properties":{"name":"Ship Bottom","url":"ship-bottom/index.html","osm_id":170306,"source":"OpenStreetMap (ODbL) via Nominatim, relation 170306"},"geometry":{"type":"Polygon","coordinates":[[[-74.200164,39.641792],[-74.194254,39.639429],[-74.192053,39.63856],[-74.190015,39.637491],[-74.188565,39.63717],[-74.1873798,39.6366452],[-74.1865446,39.6362874],[-74.1865674,39.6362709],[-74.186458,39.636222],[-74.1863355,39.6361801],[-74.1855059,39.6358352],[-74.1853274,39.6357603],[-74.184706,39.635493],[-74.1828203,39.6347599],[-74.1826648,39.6350284],[-74.1825093,39.635266],[-74.1822839,39.6355201],[-74.1815972,39.6363691],[-74.1811788,39.6369887],[-74.1807765,39.637534],[-74.1805726,39.6380297],[-74.1803259,39.6383148],[-74.1798806,39.6388436],[-74.1794407,39.6397772],[-74.1793442,39.6400746],[-74.1788936,39.6404546],[-74.1783464,39.6411362],[-74.1774022,39.6424747],[-74.177075,39.6430777],[-74.1767854,39.6435858],[-74.1764528,39.6440154],[-74.1757339,39.6446598],[-74.1751438,39.6453414],[-74.1746128,39.645961],[-74.1743767,39.6464608],[-74.1737813,39.6468367],[-74.1732395,39.6473818],[-74.1715094,39.6496805],[-74.1709328,39.6504797],[-74.1707075,39.6508267],[-74.1703037,39.6513904],[-74.170119,39.6515555],[-74.1712457,39.6521108],[-74.1716026,39.6522867],[-74.173038,39.65295],[-74.173585,39.65322],[-74.174115,39.653496],[-74.175602,39.654108],[-74.175617,39.654198],[-74.176527,39.654679],[-74.177394,39.655069],[-74.180044,39.65636],[-74.180232,39.656453],[-74.180649,39.656695],[-74.181186,39.656548],[-74.182118,39.656382],[-74.183532,39.655672],[-74.185035,39.654681],[-74.1854162,39.6542818],[-74.185562,39.654129],[-74.185638,39.654049],[-74.185911,39.653763],[-74.18646,39.652534],[-74.186747,39.651359],[-74.186767,39.648566],[-74.18695,39.64734],[-74.188225,39.645894],[-74.189231,39.645196],[-74.189732,39.644966],[-74.190296,39.644708],[-74.190453,39.644637],[-74.192215,39.64419],[-74.194481,39.643587],[-74.196789,39.64292],[-74.19808,39.642564],[-74.199571,39.642121],[-74.200164,39.641792]]]}},{"type":"Feature","properties":{"name":"Surf City","url":"surf-city/index.html","osm_id":170303,"source":"OpenStreetMap (ODbL) via Nominatim, relation 170303"},"geometry":{"type":"Polygon","coordinates":[[[-74.181616,39.661166],[-74.180408,39.660059],[-74.179912,39.659391],[-74.179535,39.658523],[-74.179469,39.657771],[-74.179721,39.657225],[-74.179894,39.657103],[-74.180367,39.656773],[-74.180649,39.656695],[-74.180232,39.656453],[-74.180044,39.65636],[-74.177394,39.655069],[-74.176527,39.654679],[-74.175617,39.654198],[-74.175602,39.654108],[-74.174115,39.653496],[-74.173585,39.65322],[-74.173038,39.65295],[-74.1716026,39.6522867],[-74.1712457,39.6521108],[-74.170119,39.6515555],[-74.1699296,39.6518592],[-74.1695756,39.652392],[-74.1692215,39.6528877],[-74.1689801,39.6530942],[-74.1684115,39.6535485],[-74.1680896,39.6539863],[-74.1677948,39.6544126],[-74.167028,39.6555405],[-74.1664589,39.6563569],[-74.1660405,39.6568319],[-74.1649944,39.6580626],[-74.1640743,39.6592417],[-74.163495,39.6597765],[-74.1633797,39.660078],[-74.1629451,39.660557],[-74.1624838,39.6613582],[-74.1619957,39.662023],[-74.1618616,39.662279],[-74.1615102,39.6626456],[-74.1613831,39.6627708],[-74.1613305,39.6628025],[-74.1612627,39.6628479],[-74.1613255,39.6628992],[-74.1613445,39.6629088],[-74.1613445,39.6629285],[-74.1613347,39.6629407],[-74.1612874,39.662975],[-74.1612446,39.6630709],[-74.1611641,39.6631682],[-74.1608571,39.6634922],[-74.1604038,39.6641075],[-74.1602093,39.6644698],[-74.1599759,39.6647568],[-74.1597506,39.6650707],[-74.1596125,39.6652049],[-74.1595025,39.665338],[-74.1594623,39.6653907],[-74.1592062,39.6656849],[-74.1588923,39.6660865],[-74.1586295,39.6665139],[-74.1577189,39.6678136],[-74.1576786,39.6678477],[-74.157625,39.6678817],[-74.1575848,39.6678931],[-74.1575633,39.6679365],[-74.1575673,39.6679829],[-74.1575123,39.6680335],[-74.1573152,39.6684402],[-74.1570519,39.6688305],[-74.156718,39.6692624],[-74.1573149,39.6695375],[-74.157677,39.6697045],[-74.1588742,39.6702508],[-74.158971,39.670295],[-74.1591678,39.6703919],[-74.159375,39.670494],[-74.160035,39.670819],[-74.1608037,39.6712208],[-74.161873,39.671792],[-74.162488,39.672108],[-74.174017,39.66602],[-74.175384,39.665299],[-74.180292,39.662709],[-74.181616,39.661166]]]}},{"type":"Feature","properties":{"name":"Harvey Cedars","url":"harvey-cedars/index.html","osm_id":170883,"source":"OpenStreetMap (ODbL) via Nominatim, relation 170883"},"geometry":{"type":"Polygon","coordinates":[[[-74.159402,39.690486],[-74.151705,39.687422],[-74.149671,39.686955],[-74.1483731,39.686322],[-74.147274,39.685924],[-74.146852,39.685762],[-74.144884,39.684974],[-74.1446552,39.684893],[-74.1439229,39.6857768],[-74.1432524,39.6867098],[-74.143129,39.6871226],[-74.1427803,39.6877419],[-74.1425604,39.6881299],[-74.1419756,39.6893105],[-74.1413051,39.690293],[-74.140876,39.6910401],[-74.1402751,39.6919813],[-74.1396582,39.6930421],[-74.1391942,39.6936056],[-74.1387784,39.6942144],[-74.1384083,39.6947428],[-74.1379764,39.6955951],[-74.1376197,39.6961462],[-74.136917,39.6968437],[-74.136461,39.6974299],[-74.1361499,39.6979541],[-74.1359568,39.6979891],[-74.1357046,39.69818],[-74.1356084,39.6982961],[-74.135391,39.6989981],[-74.134798,39.6999187],[-74.1340095,39.7012643],[-74.1334302,39.7025065],[-74.1325665,39.7041492],[-74.1319769,39.705445],[-74.1314226,39.706556],[-74.130669,39.707876],[-74.1296722,39.7096669],[-74.1295782,39.7102326],[-74.1291907,39.710961],[-74.1299921,39.71123],[-74.1302905,39.711375],[-74.1309853,39.7115616],[-74.1310108,39.7115121],[-74.131581,39.711668],[-74.1315182,39.7117786],[-74.1317363,39.7118425],[-74.1318798,39.7119242],[-74.1335213,39.7124772],[-74.13391,39.71255],[-74.134259,39.71271],[-74.141795,39.715049],[-74.1433073,39.7075157],[-74.1499494,39.6994239],[-74.1519215,39.6944601],[-74.1533293,39.6930911],[-74.159402,39.690486]]]}},{"type":"Feature","properties":{"name":"Barnegat Light","url":"barnegat-light/index.html","osm_id":170884,"source":"OpenStreetMap (ODbL) via Nominatim, relation 170884"},"geometry":{"type":"Polygon","coordinates":[[[-74.123036,39.742174],[-74.122336,39.741798],[-74.121809,39.741516],[-74.120363,39.740975],[-74.117177,39.739782],[-74.114823,39.7389],[-74.1147035,39.7388541],[-74.114423,39.738752],[-74.1138878,39.738531],[-74.1137213,39.7387836],[-74.1133082,39.7392415],[-74.1124606,39.7403841],[-74.111656,39.7413906],[-74.1108923,39.7421367],[-74.109714,39.7435025],[-74.1083622,39.7450699],[-74.1078633,39.7454494],[-74.1068709,39.7462826],[-74.1052882,39.7475497],[-74.1041453,39.7483664],[-74.1032077,39.7490322],[-74.1025774,39.7498933],[-74.1021161,39.7510981],[-74.1009572,39.753237],[-74.1005373,39.7542878],[-74.10023,39.7546937],[-74.0999227,39.7550479],[-74.0994751,39.7556401],[-74.0991069,39.7560649],[-74.0987892,39.7563732],[-74.0985186,39.7565623],[-74.0978687,39.757014],[-74.0970111,39.7576099],[-74.0963781,39.7579625],[-74.0956056,39.7582347],[-74.0948249,39.7582944],[-74.094752,39.7583192],[-74.0946972,39.7583428],[-74.0946571,39.7583201],[-74.0946187,39.7582979],[-74.0946048,39.7582744],[-74.0945742,39.7582573],[-74.0945076,39.7582253],[-74.0944798,39.7582082],[-74.0944521,39.7581869],[-74.0944243,39.7581719],[-74.0943938,39.7581591],[-74.0943688,39.7581335],[-74.0943438,39.7581122],[-74.0943188,39.7580887],[-74.094291,39.7580737],[-74.0942577,39.7580567],[-74.0942271,39.7580439],[-74.0941883,39.7580353],[-74.0941605,39.7580161],[-74.0941272,39.7579926],[-74.094105,39.7579627],[-74.0940522,39.7579115],[-74.093932,39.7578403],[-74.0939157,39.7578326],[-74.0938932,39.7578201],[-74.0938581,39.7577999],[-74.0938369,39.7577883],[-74.0938219,39.7577797],[-74.0937981,39.7577652],[-74.0937793,39.7577547],[-74.0937493,39.7577345],[-74.0937343,39.7577248],[-74.0937218,39.7577162],[-74.0937042,39.7577046],[-74.0936917,39.7576969],[-74.093678,39.7576873],[-74.0936592,39.7576767],[-74.0936417,39.7576681],[-74.0936229,39.7576585],[-74.0936016,39.7576488],[-74.0935816,39.7576402],[-74.0934815,39.7575834],[-74.0934064,39.7575401],[-74.0933464,39.7575026],[-74.0932788,39.7574507],[-74.0931524,39.7573679],[-74.0930348,39.7572939],[-74.0929459,39.757241],[-74.0928646,39.7571919],[-74.0928233,39.7571669],[-74.0927808,39.7571477],[-74.0927457,39.7571496],[-74.0927295,39.7571659],[-74.0927194,39.7572044],[-74.0927295,39.7572506],[-74.09274,39.757261],[-74.094276,39.760235],[-74.095134,39.76075],[-74.098118,39.762755],[-74.098923,39.763296],[-74.099055,39.763386],[-74.099709,39.763848],[-74.101299,39.764913],[-74.101494,39.765044],[-74.103339,39.766283],[-74.103525,39.766408],[-74.104381,39.766982],[-74.105171,39.766434],[-74.105173,39.766245],[-74.10514,39.765054],[-74.10528,39.764941],[-74.105962,39.764998],[-74.106307,39.765027],[-74.106803,39.764915],[-74.107421,39.764778],[-74.108687,39.764036],[-74.10937,39.763564],[-74.109998,39.762713],[-74.110127,39.762075],[-74.110208,39.761808],[-74.110389,39.761218],[-74.110504,39.761201],[-74.111012,39.760956],[-74.111437,39.760703],[-74.1115523,39.7604968],[-74.111871,39.759845],[-74.112175,39.759278],[-74.11249,39.758763],[-74.112701,39.758409],[-74.113161,39.756791],[-74.113474,39.755941],[-74.114519,39.753116],[-74.11509,39.751572],[-74.115439,39.751001],[-74.115705,39.750565],[-74.115895,39.750426],[-74.116235,39.750176],[-74.117118,39.74953],[-74.117269,39.749419],[-74.1178064,39.7492215],[-74.120067,39.744872],[-74.123036,39.742174]]]}},{"type":"Feature","properties":{"name":"Brant Beach","url":"brant-beach/index.html","osm_id":962544,"source":"OpenStreetMap (ODbL) via Nominatim, Long Beach Township relation 962544 — island piece between Ship Bottom and Beach Haven, north of the Terrace/Dunes line (split along the shared Beach Haven Terrace/The Dunes boundary (OSM relations 15790378/15790379), a straight street-grid line extended across the township water): Brant Beach, Beach Haven Crest, Brighton Beach, Peahala Park, Beach Haven Park, Haven Beach, The Dunes"},"geometry":{"type":"Polygon","coordinates":[[[-74.2182067,39.5855406],[-74.2182067,39.5855406],[-74.217968,39.5858262],[-74.217689,39.5860618],[-74.2173243,39.5864339],[-74.217166,39.5866572],[-74.216989,39.5868835],[-74.2166076,39.5874061],[-74.2165303,39.587608],[-74.2163104,39.5879801],[-74.2158249,39.5885155],[-74.2157713,39.5887511],[-74.215613,39.5890529],[-74.2152477,39.5895839],[-74.2150712,39.5898404],[-74.2133385,39.5921649],[-74.213022,39.5925853],[-74.2115364,39.5946091],[-74.2095135,39.5970786],[-74.208135,39.5985997],[-74.207722,39.5989056],[-74.2073732,39.5995669],[-74.2065203,39.6007863],[-74.2060456,39.6014207],[-74.2056513,39.6018402],[-74.205491,39.6021945],[-74.2052543,39.6027041],[-74.2050236,39.6031381],[-74.2045355,39.6035721],[-74.2043263,39.6041507],[-74.2038649,39.6046343],[-74.2036162,39.6050384],[-74.2026258,39.6066264],[-74.2022288,39.6072339],[-74.2017889,39.60792],[-74.2015404,39.6082995],[-74.2006088,39.6097219],[-74.2001474,39.6103749],[-74.1997182,39.6111849],[-74.1992222,39.6118867],[-74.1988599,39.6125239],[-74.1980553,39.6136562],[-74.1973901,39.614805],[-74.1971326,39.6152761],[-74.1964674,39.6158547],[-74.1962743,39.6163836],[-74.1957754,39.6169167],[-74.1954643,39.617239],[-74.1951477,39.6176357],[-74.1949064,39.6180407],[-74.1945953,39.6185242],[-74.1940856,39.6192348],[-74.193399,39.6200613],[-74.1930878,39.6205365],[-74.1926802,39.6211852],[-74.1922993,39.6214539],[-74.1916072,39.6224249],[-74.1913873,39.6227968],[-74.1911271,39.6231542],[-74.1908884,39.6234971],[-74.1905746,39.6238091],[-74.1901803,39.6244826],[-74.1898799,39.6249371],[-74.1896439,39.6253255],[-74.1891396,39.6259122],[-74.1886568,39.6267634],[-74.1878522,39.627631],[-74.187305,39.6282095],[-74.1867471,39.6290275],[-74.18517,39.6310851],[-74.184537,39.6323493],[-74.1839469,39.6331177],[-74.1834104,39.6338366],[-74.1829276,39.6344397],[-74.1828203,39.6347599],[-74.184706,39.635493],[-74.1853274,39.6357603],[-74.1855059,39.6358352],[-74.1863355,39.6361801],[-74.186458,39.636222],[-74.1865674,39.6362709],[-74.1865446,39.6362874],[-74.1873798,39.6366452],[-74.188565,39.63717],[-74.190015,39.637491],[-74.192053,39.63856],[-74.194254,39.639429],[-74.200164,39.641792],[-74.200426,39.641647],[-74.201284,39.641011],[-74.202653,39.640406],[-74.203865,39.640307],[-74.204524,39.64067],[-74.20499,39.641289],[-74.206506,39.643019],[-74.206775,39.643111],[-74.207038,39.642993],[-74.207724,39.642638],[-74.208669,39.641849],[-74.210353,39.641142],[-74.212387,39.640705],[-74.214811,39.640499],[-74.218354,39.640573],[-74.2198,39.640628],[-74.222876,39.640747],[-74.224512,39.640798],[-74.226303,39.640932],[-74.227922,39.64125],[-74.232368,39.643005],[-74.233744,39.643521],[-74.2345,39.64374],[-74.235565,39.643736],[-74.236547,39.64365],[-74.237429,39.643362],[-74.238422,39.642784],[-74.23902,39.642413],[-74.239447,39.64215],[-74.240569,39.641404],[-74.241441,39.64059],[-74.242246,39.639542],[-74.243203,39.638196],[-74.244173,39.636706],[-74.2451,39.634835],[-74.2455702,39.6335594],[-74.245897,39.632648],[-74.246625,39.630816],[-74.246999,39.629383],[-74.246777,39.627111],[-74.2464,39.62543],[-74.24633,39.625118],[-74.246613,39.624476],[-74.247467,39.623304],[-74.248311,39.622019],[-74.249102,39.621356],[-74.249585,39.620837],[-74.251685,39.618975],[-74.25444,39.616648],[-74.256338,39.614319],[-74.256858,39.612859],[-74.256813,39.611419],[-74.256296,39.609403],[-74.255545,39.606914],[-74.255547,39.604384],[-74.255896,39.602385],[-74.2561636,39.6008524],[-74.2182067,39.5855406]]]}},{"type":"Feature","properties":{"name":"Spray Beach","url":"spray-beach/index.html","osm_id":962544,"source":"OpenStreetMap (ODbL) via Nominatim, Long Beach Township relation 962544 — island piece between Ship Bottom and Beach Haven, south of the Terrace/Dunes line (split along the shared Beach Haven Terrace/The Dunes boundary (OSM relations 15790378/15790379), a straight street-grid line extended across the township water): Beach Haven Terrace, Beach Haven Gardens, Bay Vista, Spray Beach, North Beach Haven"},"geometry":{"type":"Polygon","coordinates":[[[-74.266612,39.585295],[-74.249841,39.578109],[-74.2359835,39.5722658],[-74.2345682,39.5716648],[-74.2343027,39.5715476],[-74.232838,39.570908],[-74.231325,39.570263],[-74.2303137,39.5698628],[-74.2299182,39.5696809],[-74.2296232,39.5695452],[-74.2293325,39.5694115],[-74.2292671,39.5695121],[-74.2291686,39.5696835],[-74.2290458,39.5699212],[-74.2288027,39.5702152],[-74.2286892,39.570522],[-74.2282676,39.5710685],[-74.228119,39.5712735],[-74.2279935,39.5713976],[-74.2279587,39.5714398],[-74.2278609,39.5715946],[-74.227695,39.5718758],[-74.2274743,39.5722799],[-74.2271393,39.5727679],[-74.226869,39.5730807],[-74.2264532,39.5736949],[-74.2262169,39.5739809],[-74.2259107,39.5744897],[-74.2255508,39.5748525],[-74.2253307,39.5751261],[-74.2251617,39.5753452],[-74.2250711,39.5754302],[-74.2249693,39.575697],[-74.2248387,39.57607],[-74.2246393,39.5763264],[-74.2243884,39.5767286],[-74.2241854,39.5769846],[-74.2235792,39.5777351],[-74.2233314,39.578075],[-74.2228603,39.5789176],[-74.2224741,39.5794592],[-74.2220986,39.5799802],[-74.2219591,39.5802489],[-74.22153,39.5807099],[-74.2212993,39.5810531],[-74.221133,39.5813756],[-74.2209747,39.581603],[-74.220787,39.581851],[-74.2206368,39.5820392],[-74.2205322,39.5822542],[-74.2204034,39.5824629],[-74.2202452,39.5826531],[-74.2200762,39.5828846],[-74.2199909,39.5830674],[-74.2198992,39.5832547],[-74.219749,39.5834821],[-74.2193708,39.5839141],[-74.2190918,39.5842448],[-74.2189631,39.5843358],[-74.2188343,39.5844888],[-74.218652,39.5848236],[-74.2185339,39.5850469],[-74.2183757,39.5853384],[-74.2182067,39.5855406],[-74.2182067,39.5855406],[-74.2561636,39.6008524],[-74.256416,39.599407],[-74.258196,39.596534],[-74.261044,39.594274],[-74.263058,39.59282],[-74.264363,39.590996],[-74.265574,39.588871],[-74.26627,39.587148],[-74.266565,39.585836],[-74.266612,39.585295]]]}},{"type":"Feature","properties":{"name":"Loveladies","url":"loveladies/index.html","osm_id":962544,"source":"OpenStreetMap (ODbL) via Nominatim, Long Beach Township relation 962544 — island piece between Barnegat Light and Harvey Cedars: Loveladies and High Bar Harbor"},"geometry":{"type":"Polygon","coordinates":[[[-74.152776,39.756182],[-74.152687,39.754017],[-74.15263,39.752641],[-74.152466,39.75012],[-74.141795,39.715049],[-74.134259,39.71271],[-74.13391,39.71255],[-74.1335213,39.7124772],[-74.1318798,39.7119242],[-74.1317363,39.7118425],[-74.1315182,39.7117786],[-74.131581,39.711668],[-74.1310108,39.7115121],[-74.1309853,39.7115616],[-74.1302905,39.711375],[-74.1299921,39.71123],[-74.1291907,39.710961],[-74.1282077,39.7125517],[-74.1276331,39.7137277],[-74.1273837,39.7145802],[-74.1272069,39.7152117],[-74.1270767,39.7156149],[-74.1267446,39.7162228],[-74.1258849,39.7180707],[-74.1251449,39.7192291],[-74.1248587,39.7199238],[-74.1246498,39.7204081],[-74.1244145,39.7210019],[-74.1210169,39.726593],[-74.1202927,39.7277069],[-74.1197562,39.728792],[-74.1192842,39.7294603],[-74.119091,39.7297821],[-74.1187209,39.7303969],[-74.1182596,39.7312137],[-74.117986,39.7317583],[-74.1177499,39.7319893],[-74.1174388,39.7323771],[-74.1173315,39.7328144],[-74.1170096,39.7333548],[-74.1167414,39.7337137],[-74.1144101,39.7377385],[-74.1143328,39.737872],[-74.114145,39.7382061],[-74.1138878,39.738531],[-74.114423,39.738752],[-74.1147035,39.7388541],[-74.114823,39.7389],[-74.117177,39.739782],[-74.120363,39.740975],[-74.121809,39.741516],[-74.122336,39.741798],[-74.123036,39.742174],[-74.120067,39.744872],[-74.1178064,39.7492215],[-74.117269,39.749419],[-74.117118,39.74953],[-74.116235,39.750176],[-74.115895,39.750426],[-74.115705,39.750565],[-74.115439,39.751001],[-74.11509,39.751572],[-74.114519,39.753116],[-74.113474,39.755941],[-74.113161,39.756791],[-74.112701,39.758409],[-74.11249,39.758763],[-74.112175,39.759278],[-74.111871,39.759845],[-74.1115523,39.7604968],[-74.112312,39.760832],[-74.11299,39.760829],[-74.113633,39.760374],[-74.114497,39.7599],[-74.116668,39.759558],[-74.118863,39.759537],[-74.119332,39.759638],[-74.119881,39.759746],[-74.121369,39.760052],[-74.123085,39.760858],[-74.124579,39.761657],[-74.125929,39.762564],[-74.127515,39.763373],[-74.128357,39.76464],[-74.129326,39.765705],[-74.130171,39.768266],[-74.130931,39.77106],[-74.131959,39.772961],[-74.13409,39.775873],[-74.136154,39.777094],[-74.138912,39.77662],[-74.142237,39.775602],[-74.14648,39.77314],[-74.147242,39.772698],[-74.149375,39.770989],[-74.150641,39.769337],[-74.15151,39.767268],[-74.152275,39.765172],[-74.152772,39.760648],[-74.152776,39.756182]]]}},{"type":"Feature","properties":{"name":"North Beach","url":"loveladies/index.html","osm_id":962544,"source":"OpenStreetMap (ODbL) via Nominatim, Long Beach Township relation 962544 — island piece between Harvey Cedars and Surf City: North Beach"},"geometry":{"type":"Polygon","coordinates":[[[-74.171612,39.676554],[-74.162488,39.672108],[-74.161873,39.671792],[-74.1608037,39.6712208],[-74.160035,39.670819],[-74.159375,39.670494],[-74.1591678,39.6703919],[-74.158971,39.670295],[-74.1588742,39.6702508],[-74.157677,39.6697045],[-74.1573149,39.6695375],[-74.156718,39.6692624],[-74.1533698,39.6735836],[-74.1446552,39.684893],[-74.144884,39.684974],[-74.146852,39.685762],[-74.147274,39.685924],[-74.1483731,39.686322],[-74.149671,39.686955],[-74.151705,39.687422],[-74.159402,39.690486],[-74.159873,39.690242],[-74.161048,39.689505],[-74.161571,39.688987],[-74.162297,39.688309],[-74.162739,39.68766],[-74.163149,39.68664],[-74.163367,39.68606],[-74.163571,39.685523],[-74.163758,39.685097],[-74.171577,39.676593],[-74.171612,39.676554]]]}}]}