{"type":"FeatureCollection","features":[{"type":"Feature","properties":{"name":"Tribeca","url":"#tribeca","osm_id":8398119,"source":"OpenStreetMap (ODbL) via Overpass API, relation 8398119 (boundary=place), ring assembled from member ways"},"geometry":{"type":"Polygon","coordinates":[[[-74.0165286,40.7196051],[-74.0130559,40.7191072],[-74.0124598,40.7190301],[-74.0135595,40.7145027],[-74.0081803,40.7120185],[-74.0081227,40.7119919],[-74.0076683,40.712544],[-74.004026,40.716871],[-74.0018814,40.7194015],[-74.0019672,40.7194629],[-74.0025498,40.719887],[-74.002596,40.7199234],[-74.0026511,40.7199609],[-74.0032498,40.7203902],[-74.0032918,40.7204226],[-74.0034713,40.7205482],[-74.0035934,40.7206361],[-74.0036386,40.7206685],[-74.0039266,40.7208746],[-74.0039761,40.72091],[-74.0045469,40.7213164],[-74.0046193,40.7213666],[-74.0047134,40.7214283],[-74.0050747,40.7216847],[-74.0051094,40.7217094],[-74.0051506,40.7217387],[-74.0051918,40.721768],[-74.0053547,40.7218819],[-74.0055222,40.7219973],[-74.0055704,40.7220323],[-74.005899,40.7222714],[-74.006205,40.7224876],[-74.006317,40.7225692],[-74.0064487,40.722656],[-74.0070487,40.7230756],[-74.007217,40.7231886],[-74.0093084,40.7247243],[-74.0099779,40.7252131],[-74.0108608,40.7257897],[-74.0112365,40.7258211],[-74.0117025,40.725823],[-74.0153028,40.7261935],[-74.0158513,40.7233439],[-74.0161459,40.7218066],[-74.0162182,40.7213857],[-74.0162631,40.7211209],[-74.0163993,40.7203899],[-74.0165286,40.7196051]]]}},{"type":"Feature","properties":{"name":"SoHo","url":"#soho","osm_id":8398115,"source":"OpenStreetMap (ODbL) via Overpass API, relation 8398115 (boundary=place), ring assembled from member ways"},"geometry":{"type":"Polygon","coordinates":[[[-74.0027869,40.7283532],[-73.9970586,40.725529],[-73.9967555,40.7254334],[-73.9953312,40.7250919],[-73.9966589,40.7234718],[-73.997131,40.722301],[-73.9972463,40.7222562],[-73.9990622,40.7200466],[-74.0004681,40.7185394],[-74.0005519,40.7184492],[-74.0006179,40.7184993],[-74.0009337,40.7187262],[-74.0012676,40.7189641],[-74.0018063,40.7193447],[-74.0018814,40.7194015],[-74.0019672,40.7194629],[-74.0025498,40.719887],[-74.002596,40.7199234],[-74.0026511,40.7199609],[-74.0032498,40.7203902],[-74.0032918,40.7204226],[-74.0034713,40.7205482],[-74.0035934,40.7206361],[-74.0036386,40.7206685],[-74.0039266,40.7208746],[-74.0039761,40.72091],[-74.0045469,40.7213164],[-74.0046193,40.7213666],[-74.0047134,40.7214283],[-74.0050747,40.7216847],[-74.0051094,40.7217094],[-74.0051506,40.7217387],[-74.0051918,40.721768],[-74.0053547,40.7218819],[-74.0053688,40.7219233],[-74.0053816,40.7219867],[-74.0053854,40.7220638],[-74.005386,40.7220752],[-74.0053681,40.7222359],[-74.003801,40.7260752],[-74.0031552,40.7276572],[-74.0027869,40.7283532]]]}},{"type":"Feature","properties":{"name":"Greenwich Village","url":"#greenwich-village","osm_id":8398112,"source":"OpenStreetMap (ODbL) via Overpass API, relation 8398112 (boundary=place), ring assembled from member ways"},"geometry":{"type":"Polygon","coordinates":[[[-73.9968413,40.7373582],[-73.9936146,40.7360026],[-73.9907554,40.7348137],[-73.9914581,40.7317345],[-73.9919248,40.7311674],[-73.9924023,40.7306003],[-73.9932686,40.72958],[-73.9937487,40.7290109],[-73.9942557,40.7284133],[-73.9947626,40.7278218],[-73.9952722,40.727212],[-73.9967555,40.7254334],[-73.9970586,40.725529],[-74.0027869,40.7283532],[-74.0021977,40.7296918],[-74.0014064,40.7310658],[-73.9968413,40.7373582]]]}},{"type":"Feature","properties":{"name":"East Village","url":"#east-village","osm_id":8398110,"source":"OpenStreetMap (ODbL) via Overpass API, relation 8398110 (boundary=place), ring assembled from member ways"},"geometry":{"type":"Polygon","coordinates":[[[-73.9871857,40.7332999],[-73.9849365,40.7323588],[-73.9825505,40.7313605],[-73.9803565,40.7304255],[-73.9761669,40.7286492],[-73.9757461,40.7284604],[-73.9714435,40.7266002],[-73.9714736,40.7264229],[-73.9717144,40.7250025],[-73.9724573,40.7217745],[-73.9732566,40.7187272],[-73.9750886,40.7188838],[-73.9772317,40.7193229],[-73.9787941,40.7199587],[-73.9863029,40.7222237],[-73.9912207,40.7237235],[-73.9925954,40.7241427],[-73.9923298,40.7248907],[-73.9920616,40.7256489],[-73.991788,40.7263908],[-73.9915386,40.727088],[-73.9916003,40.7271124],[-73.9914635,40.7275759],[-73.9914313,40.7277405],[-73.9911943,40.728492],[-73.9911416,40.7286592],[-73.9907017,40.7298849],[-73.9904979,40.7305556],[-73.9919248,40.7311674],[-73.9914581,40.7317345],[-73.9907554,40.7348137],[-73.9887732,40.7339641],[-73.9871857,40.7332999]]]}},{"type":"Feature","properties":{"name":"Chelsea","url":"#chelsea","osm_id":8398107,"source":"OpenStreetMap (ODbL) via Overpass API, relation 8398107 (boundary=place), ring assembled from member ways"},"geometry":{"type":"Polygon","coordinates":[[[-74.0096175,40.7540589],[-74.0098026,40.7535808],[-74.0101393,40.7527282],[-74.0109352,40.750688],[-74.0112438,40.748978],[-74.01233,40.7429692],[-74.0092561,40.7425819],[-74.0092278,40.74257],[-74.0051293,40.7408517],[-73.9973755,40.7375834],[-73.9968413,40.7373582],[-73.9936146,40.7360026],[-73.9918014,40.7385044],[-73.9901251,40.7377992],[-73.9900975,40.7379032],[-73.9897603,40.7391731],[-73.9941671,40.7410305],[-73.9941235,40.7410904],[-73.9937804,40.7415616],[-73.9937317,40.7416288],[-73.9936939,40.7416804],[-73.9933292,40.7421814],[-73.9932916,40.7422328],[-73.9927315,40.7430014],[-73.9922665,40.7436419],[-73.9919775,40.7440393],[-73.9919068,40.7441365],[-73.991822,40.7442528],[-73.9914206,40.7448022],[-73.9900514,40.7466777],[-73.9896561,40.7472129],[-73.9887008,40.7485061],[-73.9888671,40.7485757],[-73.9881496,40.7495734],[-73.9881241,40.7497589],[-73.9881375,40.7499453],[-73.996317,40.7533999],[-73.9986673,40.7503287],[-74.0015769,40.7515564],[-74.0044154,40.7527384],[-74.0068204,40.753749],[-74.0068994,40.7537844],[-74.0075281,40.7539078],[-74.0077448,40.7539637],[-74.0077915,40.7539731],[-74.0096175,40.7540589]]]}},{"type":"Feature","properties":{"name":"Upper West Side","url":"#upper-west-side","osm_id":8398085,"source":"OpenStreetMap (ODbL) via Overpass API, relation 8398085 (boundary=place), ring assembled from member ways"},"geometry":{"type":"Polygon","coordinates":[[[-73.9958827,40.7745654],[-73.9961541,40.7742298],[-73.9939928,40.7733086],[-73.993569,40.7729369],[-73.9932091,40.7727862],[-73.9931505,40.7727644],[-73.9931345,40.7727577],[-73.9925663,40.7725169],[-73.9917513,40.7721744],[-73.9905975,40.7716752],[-73.9904508,40.7716133],[-73.990321,40.7715584],[-73.9886316,40.7708429],[-73.9882151,40.7706665],[-73.9877473,40.7704684],[-73.9875948,40.7704036],[-73.9874965,40.770363],[-73.9871998,40.7702405],[-73.986233,40.7698391],[-73.9861329,40.7697975],[-73.9858617,40.7696849],[-73.9855076,40.7695379],[-73.9848912,40.7692819],[-73.9847685,40.769231],[-73.9847606,40.7692277],[-73.9843169,40.7698546],[-73.9844358,40.7699252],[-73.9866271,40.7708566],[-73.9866954,40.7708842],[-73.9870094,40.7710128],[-73.9871245,40.7710474],[-73.9870673,40.771126],[-73.9867169,40.7716059],[-73.986677,40.7716605],[-73.9866329,40.7717189],[-73.9865812,40.7717899],[-73.9864678,40.771946],[-73.9864164,40.7720166],[-73.9863173,40.7721529],[-73.986278,40.7722069],[-73.9862242,40.7722805],[-73.9861603,40.7723679],[-73.9859228,40.7726929],[-73.985846,40.7727979],[-73.9857995,40.7728617],[-73.985756,40.7729216],[-73.9853551,40.7734853],[-73.9853181,40.7735306],[-73.9852623,40.7736045],[-73.984914,40.7740817],[-73.9848524,40.7741641],[-73.9848079,40.7742265],[-73.9846511,40.7744405],[-73.9843888,40.7748013],[-73.9835963,40.7744575],[-73.9824514,40.7739793],[-73.9823188,40.7739227],[-73.9821234,40.7738424],[-73.9820093,40.7737932],[-73.9816978,40.77366],[-73.9815824,40.773612],[-73.9814025,40.77353],[-73.9818826,40.7729186],[-73.9818531,40.7712753],[-73.9819268,40.7712972],[-73.9820496,40.7713507],[-73.9822603,40.7714348],[-73.982377,40.7714886],[-73.9828175,40.7716742],[-73.9829448,40.7717222],[-73.9834109,40.7710965],[-73.9832819,40.7710427],[-73.983137,40.7709814],[-73.9830135,40.7709308],[-73.9829364,40.7708987],[-73.9827741,40.770831],[-73.9826808,40.7707921],[-73.9822476,40.7706115],[-73.9820391,40.7705246],[-73.981913,40.7704725],[-73.9817452,40.7704021],[-73.98153,40.7703123],[-73.9813224,40.7702258],[-73.9806859,40.7699606],[-73.9805837,40.7699178],[-73.9805436,40.7699771],[-73.9803719,40.7701961],[-73.9801579,40.7704797],[-73.9801168,40.7705364],[-73.9800722,40.7705974],[-73.9798514,40.770896],[-73.9797004,40.7711057],[-73.9796589,40.7711608],[-73.9796159,40.7712179],[-73.9795207,40.7713495],[-73.9792408,40.7717335],[-73.9792016,40.7717854],[-73.9791558,40.7718463],[-73.9787826,40.7723598],[-73.9787387,40.7724211],[-73.9787167,40.7724524],[-73.9786834,40.7725006],[-73.9785194,40.7727252],[-73.9783281,40.7729846],[-73.978289,40.7730391],[-73.9782438,40.7731006],[-73.9778733,40.7736051],[-73.9778345,40.7736592],[-73.9777895,40.7737221],[-73.9774134,40.7742362],[-73.9773736,40.774293],[-73.9773339,40.7743496],[-73.9771081,40.7746615],[-73.9769627,40.7748623],[-73.9769198,40.7749199],[-73.9768787,40.7749753],[-73.9765055,40.7754862],[-73.9764626,40.7755427],[-73.9764204,40.7755995],[-73.9760603,40.7760958],[-73.9760303,40.7761359],[-73.975963,40.7762266],[-73.9758997,40.7763121],[-73.9757504,40.7765182],[-73.9755068,40.7768546],[-73.9754712,40.7769031],[-73.9754419,40.7769426],[-73.9750388,40.7774869],[-73.9749993,40.7775416],[-73.9749628,40.7775922],[-73.9745824,40.7781184],[-73.9745417,40.7781744],[-73.9745019,40.7782297],[-73.97427,40.7785507],[-73.9741176,40.7787616],[-73.9740803,40.7788134],[-73.9740373,40.7788725],[-73.9736737,40.7793764],[-73.9736486,40.7794104],[-73.9735934,40.7794865],[-73.9735358,40.779566],[-73.9733542,40.7798151],[-73.9726981,40.7807149],[-73.9725008,40.7809834],[-73.9722516,40.7813224],[-73.9720367,40.781618],[-73.9718126,40.7819198],[-73.9717224,40.7820388],[-73.9716479,40.7821384],[-73.9714456,40.7824229],[-73.9712933,40.7826372],[-73.9712708,40.7826689],[-73.971237,40.7827163],[-73.9711974,40.7827717],[-73.9708126,40.783302],[-73.9707756,40.7833528],[-73.9707295,40.7834159],[-73.9703541,40.7839304],[-73.9703125,40.7839869],[-73.9702639,40.7840515],[-73.9700939,40.7842861],[-73.9698866,40.7845721],[-73.9698495,40.784623],[-73.9698012,40.7846848],[-73.9696855,40.7848398],[-73.9694094,40.7852035],[-73.9693444,40.7852965],[-73.9692709,40.7854012],[-73.9688909,40.7859234],[-73.9688537,40.7859742],[-73.9688136,40.7860311],[-73.9684311,40.7865517],[-73.9683927,40.786605],[-73.9683486,40.7866638],[-73.9681638,40.7869227],[-73.9679789,40.7871816],[-73.9679404,40.787235],[-73.9678961,40.7872934],[-73.967514,40.7878081],[-73.9674683,40.7878716],[-73.9674218,40.7879373],[-73.9672511,40.7881763],[-73.9670646,40.7884375],[-73.967021,40.7885002],[-73.9669851,40.7885487],[-73.9668738,40.7886992],[-73.9666014,40.7890673],[-73.9665628,40.7891218],[-73.9665257,40.7891735],[-73.9663475,40.7894158],[-73.9661503,40.7896838],[-73.9661041,40.7897447],[-73.9660676,40.7897946],[-73.9656836,40.7903238],[-73.9656483,40.7903702],[-73.965607,40.7904251],[-73.9654397,40.7906542],[-73.9652262,40.7909467],[-73.9651883,40.7909985],[-73.9651495,40.7910513],[-73.9647609,40.7915874],[-73.964694,40.7916758],[-73.9646332,40.7917586],[-73.9644503,40.792013],[-73.9642608,40.7922715],[-73.9641772,40.7923773],[-73.9637016,40.7930356],[-73.9628541,40.7942085],[-73.9623766,40.794859],[-73.9619156,40.7954892],[-73.960991,40.7967492],[-73.960952,40.7968042],[-73.9607774,40.7970433],[-73.9605702,40.7973245],[-73.9605349,40.7973764],[-73.9604907,40.7974335],[-73.9604229,40.7975294],[-73.9601116,40.7979549],[-73.9600437,40.7980478],[-73.9599664,40.7981534],[-73.9595472,40.7987264],[-73.9595049,40.7987842],[-73.9591262,40.7993018],[-73.9590861,40.7993567],[-73.958662,40.7999364],[-73.9586275,40.7999836],[-73.9583809,40.8003221],[-73.9581864,40.8005848],[-73.9585433,40.8006979],[-73.9596504,40.8011565],[-73.9599846,40.8013041],[-73.9604338,40.8015054],[-73.9610669,40.8017886],[-73.9611741,40.8018403],[-73.9612304,40.8018642],[-73.9628955,40.8025679],[-73.9636774,40.8028869],[-73.9637307,40.8029096],[-73.963849,40.8029617],[-73.9640053,40.8030305],[-73.9641698,40.803103],[-73.9644005,40.8032005],[-73.965592,40.803704],[-73.9660327,40.80389],[-73.966062,40.8039024],[-73.9664492,40.8040654],[-73.9665052,40.8040904],[-73.9666013,40.8041328],[-73.9667983,40.8042152],[-73.9680127,40.804723],[-73.9712311,40.8061492],[-73.9772597,40.797854],[-73.9818408,40.7915478],[-73.9858619,40.7868808],[-73.9883472,40.7839797],[-73.9944733,40.7763072],[-73.9958827,40.7745654]]]}},{"type":"Feature","properties":{"name":"Harlem","url":"#harlem","osm_id":8398081,"source":"OpenStreetMap (ODbL) via Overpass API, relation 8398081 (boundary=place), ring assembled from member ways"},"geometry":{"type":"Polygon","coordinates":[[[-73.952396,40.7982188],[-73.9525303,40.7982754],[-73.9526284,40.7983188],[-73.9547903,40.7992288],[-73.9548567,40.7992561],[-73.955101,40.7993563],[-73.9552205,40.7994068],[-73.9552941,40.7994379],[-73.9559082,40.7996973],[-73.9577994,40.8004649],[-73.9581864,40.8005848],[-73.9585433,40.8006979],[-73.9596504,40.8011565],[-73.9596153,40.8012041],[-73.9595571,40.801284],[-73.9594279,40.8014618],[-73.9591807,40.8017985],[-73.9591421,40.8018511],[-73.9591067,40.8018998],[-73.9587263,40.8024228],[-73.9586898,40.802473],[-73.9586459,40.8025323],[-73.9582715,40.8030483],[-73.9582337,40.8031025],[-73.9582366,40.8031826],[-73.9582399,40.8032764],[-73.9581997,40.8037649],[-73.9582031,40.8038107],[-73.958204,40.8038773],[-73.9582079,40.8039619],[-73.9582158,40.804121],[-73.9582498,40.8047385],[-73.958288,40.8052423],[-73.9582856,40.8053068],[-73.9582811,40.80536],[-73.9582719,40.8054123],[-73.9582602,40.8054616],[-73.9582431,40.8055156],[-73.958191,40.8056136],[-73.9581306,40.8057177],[-73.9577147,40.8062968],[-73.9576729,40.8063541],[-73.9572916,40.8068774],[-73.9572588,40.8069224],[-73.9572125,40.8069866],[-73.9568321,40.8075088],[-73.9568013,40.8075511],[-73.9567574,40.8076114],[-73.9563825,40.8081262],[-73.9563424,40.808178],[-73.956297,40.80824],[-73.9559193,40.8087575],[-73.9558862,40.8088028],[-73.9558404,40.8088656],[-73.9554568,40.8093914],[-73.9554225,40.8094384],[-73.9553865,40.8094879],[-73.9550319,40.8099752],[-73.9550077,40.8100051],[-73.9549689,40.8100609],[-73.9549166,40.8101323],[-73.9545043,40.8106928],[-73.9544593,40.8107556],[-73.9544251,40.8108033],[-73.9543303,40.8109338],[-73.9542758,40.8110093],[-73.9542017,40.8111097],[-73.9540768,40.8112769],[-73.9540099,40.8113669],[-73.9538913,40.8113166],[-73.9535767,40.8111831],[-73.9531682,40.8110098],[-73.9527283,40.8108245],[-73.9525905,40.8107673],[-73.9521165,40.8114312],[-73.9512527,40.8122717],[-73.9505713,40.8129409],[-73.9498899,40.8137817],[-73.9490546,40.814878],[-73.9486538,40.8156619],[-73.948009,40.817116],[-73.9479608,40.81722],[-73.9476667,40.8178547],[-73.9473494,40.8185359],[-73.9470312,40.8192188],[-73.9467125,40.819903],[-73.9466829,40.8199688],[-73.9464302,40.8205091],[-73.9463959,40.8205827],[-73.9463722,40.8206336],[-73.9460787,40.8212637],[-73.9460458,40.8213333],[-73.9447675,40.8240402],[-73.94388,40.8236668],[-73.9414893,40.8268844],[-73.9397264,40.8293004],[-73.9396888,40.8293917],[-73.9396647,40.829483],[-73.939662,40.8295804],[-73.9396727,40.8296657],[-73.9397076,40.8297671],[-73.9397532,40.8298483],[-73.9398256,40.8299254],[-73.9398873,40.8299924],[-73.9401153,40.8301467],[-73.9401645,40.8302036],[-73.9400858,40.8303276],[-73.9399922,40.8304793],[-73.9399442,40.8306762],[-73.9399084,40.8307801],[-73.9398471,40.8308934],[-73.9397672,40.8309993],[-73.9396711,40.8311033],[-73.9395209,40.8312562],[-73.9394322,40.8313482],[-73.9393591,40.8314393],[-73.9392869,40.8315495],[-73.9392291,40.8316649],[-73.9390906,40.8320084],[-73.9390085,40.8321682],[-73.9388917,40.8323671],[-73.9387541,40.8325629],[-73.9386338,40.8327179],[-73.9384768,40.8328951],[-73.9383196,40.8330537],[-73.9381455,40.8332075],[-73.937976,40.8333456],[-73.9373439,40.8338325],[-73.9371624,40.8339724],[-73.9364693,40.8345374],[-73.9355196,40.8352479],[-73.9346924,40.8352471],[-73.9349305,40.8326536],[-73.9341366,40.8254929],[-73.9339676,40.8227711],[-73.9338711,40.8200207],[-73.9338684,40.8197914],[-73.933745,40.8197751],[-73.9337397,40.819493],[-73.9337102,40.818338],[-73.9427815,40.805799],[-73.9442908,40.8064359],[-73.9461534,40.8038976],[-73.9446704,40.8032874],[-73.9483007,40.7982645],[-73.9490776,40.797101],[-73.9491301,40.7971177],[-73.9491866,40.7971352],[-73.9492299,40.7971427],[-73.9492741,40.7971489],[-73.9493226,40.7971515],[-73.949372,40.7971477],[-73.9494135,40.7971421],[-73.9494566,40.7971301],[-73.949491,40.7971185],[-73.9495282,40.7971049],[-73.9495628,40.797099],[-73.949598,40.7970958],[-73.9496448,40.7970964],[-73.9496779,40.7970959],[-73.949736,40.7970992],[-73.950913,40.7975954],[-73.9523037,40.7981802],[-73.952396,40.7982188]]]}},{"type":"Feature","properties":{"name":"Financial District","url":"#financial-district","osm_id":8398122,"source":"OpenStreetMap (ODbL) via Overpass API, relation 8398122 (boundary=place), ring assembled from member ways"},"geometry":{"type":"Polygon","coordinates":[[[-73.9979744,40.7069946],[-73.9991305,40.7079084],[-73.9998931,40.7085157],[-74.0006152,40.7090906],[-74.00066,40.7091249],[-74.001449,40.7097331],[-74.0038016,40.7115969],[-74.0038912,40.7116844],[-74.0039556,40.7117368],[-74.0039805,40.7117429],[-74.0040239,40.711749],[-74.0041198,40.7117173],[-74.0041987,40.7116949],[-74.004264,40.7116795],[-74.004344,40.7116755],[-74.0044134,40.7116747],[-74.004445,40.7116763],[-74.0045282,40.7116809],[-74.0045896,40.7116883],[-74.0046519,40.711702],[-74.0047759,40.7117274],[-74.0049982,40.711866],[-74.0050865,40.7119211],[-74.005097,40.7119272],[-74.0051474,40.7119565],[-74.0051919,40.7119812],[-74.0052297,40.711996],[-74.0052699,40.7120075],[-74.0053128,40.712013],[-74.0053491,40.7120155],[-74.0053946,40.712013],[-74.0054494,40.7120043],[-74.0054892,40.711998],[-74.0055245,40.711991],[-74.005613,40.711977],[-74.0056944,40.7119636],[-74.0057243,40.7119594],[-74.005868,40.7119414],[-74.0059702,40.7119268],[-74.0060472,40.7119157],[-74.0060901,40.7119086],[-74.0061363,40.7119009],[-74.0062092,40.7118857],[-74.0069661,40.7117008],[-74.0070999,40.7116677],[-74.0079458,40.7114635],[-74.0082065,40.7113856],[-74.0082835,40.7113626],[-74.008401,40.7113239],[-74.0084177,40.71132],[-74.0084405,40.7113167],[-74.0084682,40.7113166],[-74.0084985,40.7113207],[-74.0085272,40.7113281],[-74.0085748,40.7113507],[-74.0086548,40.7113948],[-74.0086099,40.7114452],[-74.0081227,40.7119919],[-74.0081803,40.7120185],[-74.0135595,40.7145027],[-74.0141065,40.7129595],[-74.0145466,40.7110831],[-74.0148899,40.7098266],[-74.0151528,40.7089767],[-74.0166387,40.7050566],[-74.0166748,40.7047558],[-74.0166816,40.7046987],[-74.0166628,40.7042778],[-74.0166059,40.7039865],[-74.0165126,40.7035092],[-74.0161586,40.7026308],[-74.0158716,40.7022241],[-74.0155363,40.7018276],[-74.0151018,40.7014433],[-74.0145868,40.701246],[-74.0142247,40.7011708],[-74.0141872,40.70112],[-74.013994,40.7010793],[-74.013927,40.7010122],[-74.0141773,40.700027],[-74.0139146,40.6998082],[-74.0131588,40.6997833],[-74.0130749,40.6997717],[-74.0130183,40.6997803],[-74.0117037,40.6997404],[-74.0089969,40.7003789],[-74.0086181,40.7005348],[-74.0082844,40.7006814],[-74.0071423,40.701211],[-74.0048374,40.7027102],[-74.0030492,40.703869],[-74.0014933,40.7048805],[-74.0014572,40.7048518],[-74.0005631,40.7054327],[-74.0006018,40.7054661],[-73.9999809,40.7058758],[-73.9979744,40.7069946]]]}},{"type":"Feature","properties":{"name":"Battery Park City","url":"#battery-park-city","osm_id":8398123,"source":"OpenStreetMap (ODbL) via Overpass API, relation 8398123 (boundary=place), ring assembled from member ways"},"geometry":{"type":"Polygon","coordinates":[[[-74.0193839,40.7058935],[-74.0194416,40.7060712],[-74.0191868,40.7070268],[-74.0191519,40.7070594],[-74.0190983,40.7070797],[-74.0189937,40.7070777],[-74.0189481,40.7071285],[-74.0188783,40.7071692],[-74.0187925,40.7071854],[-74.018712,40.7071895],[-74.0186155,40.7071753],[-74.0185216,40.707157],[-74.0182668,40.7078096],[-74.0189105,40.707956],[-74.0189347,40.7079947],[-74.0181756,40.7110932],[-74.0167322,40.7186218],[-74.0167113,40.7186345],[-74.0165876,40.7192712],[-74.0165857,40.7192822],[-74.0165286,40.7196051],[-74.0130559,40.7191072],[-74.0124598,40.7190301],[-74.0135595,40.7145027],[-74.0141065,40.7129595],[-74.0145466,40.7110831],[-74.0148899,40.7098266],[-74.0151528,40.7089767],[-74.0166387,40.7050566],[-74.0166748,40.7047558],[-74.0166816,40.7046987],[-74.0166628,40.7042778],[-74.0166059,40.7039865],[-74.0165126,40.7035092],[-74.0161586,40.7026308],[-74.0158716,40.7022241],[-74.0155363,40.7018276],[-74.0151018,40.7014433],[-74.0145868,40.701246],[-74.0142247,40.7011708],[-74.0141872,40.70112],[-74.013994,40.7010793],[-74.013927,40.7010122],[-74.0141773,40.700027],[-74.0143009,40.70013],[-74.0151502,40.700841],[-74.0152832,40.7009403],[-74.0155905,40.7011818],[-74.015903,40.7014332],[-74.0161303,40.7016333],[-74.0163385,40.7018282],[-74.0165579,40.7020464],[-74.0168071,40.7023132],[-74.0170113,40.7025459],[-74.0171956,40.7027617],[-74.0173644,40.7029596],[-74.0175521,40.7031521],[-74.0184261,40.7041439],[-74.0187038,40.7044561],[-74.0189307,40.7047076],[-74.0192172,40.7050338],[-74.0193977,40.7058206],[-74.0193839,40.7058935]]]}},{"type":"Feature","properties":{"name":"Civic Center","url":"#civic-center","osm_id":8398120,"source":"OpenStreetMap (ODbL) via Overpass API, relation 8398120 (boundary=place), ring assembled from member ways"},"geometry":{"type":"Polygon","coordinates":[[[-74.0004898,40.7109994],[-73.9988818,40.7126054],[-73.9982206,40.7132575],[-73.9983739,40.7133669],[-73.9984028,40.7133875],[-73.9984485,40.7134189],[-73.9984987,40.713449],[-73.9986438,40.7135233],[-73.9994336,40.7138973],[-73.9995436,40.7139493],[-74.0004568,40.7143988],[-74.0005272,40.7151455],[-74.0005293,40.7151675],[-74.001686,40.715744],[-74.003302,40.7165204],[-74.003944,40.7168275],[-74.004026,40.716871],[-74.0076683,40.712544],[-74.0081227,40.7119919],[-74.0086099,40.7114452],[-74.0086548,40.7113948],[-74.0085748,40.7113507],[-74.0085272,40.7113281],[-74.0084985,40.7113207],[-74.0084682,40.7113166],[-74.0084405,40.7113167],[-74.0084177,40.71132],[-74.008401,40.7113239],[-74.0082835,40.7113626],[-74.0082065,40.7113856],[-74.0079458,40.7114635],[-74.0070999,40.7116677],[-74.0069661,40.7117008],[-74.0062092,40.7118857],[-74.0061363,40.7119009],[-74.0060901,40.7119086],[-74.0060472,40.7119157],[-74.0059702,40.7119268],[-74.005868,40.7119414],[-74.0057243,40.7119594],[-74.0056944,40.7119636],[-74.005613,40.711977],[-74.0055245,40.711991],[-74.0054892,40.711998],[-74.0054494,40.7120043],[-74.0053946,40.712013],[-74.0053491,40.7120155],[-74.0053128,40.712013],[-74.0052699,40.7120075],[-74.0052297,40.711996],[-74.0051919,40.7119812],[-74.0051474,40.7119565],[-74.005097,40.7119272],[-74.0050865,40.7119211],[-74.0049982,40.711866],[-74.0047759,40.7117274],[-74.0046519,40.711702],[-74.0045896,40.7116883],[-74.0045282,40.7116809],[-74.004445,40.7116763],[-74.0044134,40.7116747],[-74.004344,40.7116755],[-74.004264,40.7116795],[-74.0041987,40.7116949],[-74.0041198,40.7117173],[-74.0040239,40.711749],[-74.0039805,40.7117429],[-74.0039556,40.7117368],[-74.0038912,40.7116844],[-74.0038016,40.7115969],[-74.001449,40.7097331],[-74.000642,40.7108513],[-74.0004898,40.7109994]]]}},{"type":"Feature","properties":{"name":"Chinatown","url":"#chinatown","osm_id":8398118,"source":"OpenStreetMap (ODbL) via Overpass API, relation 8398118 (boundary=place), ring assembled from member ways"},"geometry":{"type":"Polygon","coordinates":[[[-74.0005293,40.7151675],[-74.001686,40.715744],[-74.003302,40.7165204],[-74.003944,40.7168275],[-74.004026,40.716871],[-74.0018814,40.7194015],[-74.0018063,40.7193447],[-74.0012676,40.7189641],[-74.0009337,40.7187262],[-74.0006179,40.7184993],[-74.0005519,40.7184492],[-74.0004538,40.7183761],[-74.0000374,40.7180792],[-73.9999527,40.7180188],[-73.9998819,40.7179685],[-73.9993632,40.7175932],[-73.9993088,40.7175538],[-73.9989003,40.7172605],[-73.9988785,40.717245],[-73.9988358,40.7172188],[-73.9987924,40.7171973],[-73.9985901,40.7171177],[-73.9977656,40.7168306],[-73.9967394,40.7184731],[-73.9964765,40.7190525],[-73.9948136,40.7184568],[-73.9937002,40.7181128],[-73.9891541,40.7167085],[-73.9901707,40.7147772],[-73.9902377,40.7145983],[-73.9902458,40.7144051],[-73.9902605,40.7140615],[-73.9901197,40.7133723],[-73.992362,40.7131975],[-73.9938587,40.7130735],[-73.9944515,40.7130227],[-73.9968592,40.7128223],[-73.996984,40.7128119],[-73.9971149,40.712801],[-73.9979069,40.7127347],[-73.9979907,40.7127254],[-73.9980988,40.7130929],[-73.998118,40.7131568],[-73.9981466,40.713191],[-73.9981817,40.7132213],[-73.9982206,40.7132575],[-73.9983739,40.7133669],[-73.9984028,40.7133875],[-73.9984485,40.7134189],[-73.9984987,40.713449],[-73.9986438,40.7135233],[-73.9994336,40.7138973],[-73.9995436,40.7139493],[-74.0004568,40.7143988],[-74.0005272,40.7151455],[-74.0005293,40.7151675]]]}},{"type":"Feature","properties":{"name":"Little Italy","url":"#little-italy","osm_id":8398116,"source":"OpenStreetMap (ODbL) via Overpass API, relation 8398116 (boundary=place), ring assembled from member ways; southern portion only — the relation covers the full historic Little Italy up to Houston St, split along the Kenmare St corridor (OSM way 5669892) so Nolita can be shown separately"},"geometry":{"type":"Polygon","coordinates":[[[-73.9940821,40.7203319],[-73.9948136,40.7184568],[-73.9964765,40.7190525],[-73.9967394,40.7184731],[-73.9977656,40.7168306],[-73.9985901,40.7171177],[-73.9987924,40.7171973],[-73.9988358,40.7172188],[-73.9988785,40.717245],[-73.9989003,40.7172605],[-73.9993088,40.7175538],[-73.9993632,40.7175932],[-73.9998819,40.7179685],[-73.9999527,40.7180188],[-74.0000374,40.7180792],[-74.0004538,40.7183761],[-74.0005519,40.7184492],[-74.0004681,40.7185394],[-73.9990622,40.7200466],[-73.9977906,40.7215938],[-73.9940821,40.7203319]]]}},{"type":"Feature","properties":{"name":"Nolita","url":"#nolita","osm_id":8398116,"source":"OpenStreetMap (ODbL) via Overpass API — OSM has no separate boundary=place relation for Nolita; this is the northern (Nolita) portion of Little Italy relation 8398116, split along the Kenmare St corridor (OSM way 5669892)"},"geometry":{"type":"Polygon","coordinates":[[[-73.9953312,40.7250919],[-73.9925954,40.7241427],[-73.9935788,40.721622],[-73.9939011,40.7207958],[-73.9940821,40.7203319],[-73.9977906,40.7215938],[-73.9972463,40.7222562],[-73.997131,40.722301],[-73.9966589,40.7234718],[-73.9953312,40.7250919]]]}},{"type":"Feature","properties":{"name":"Lower East Side","url":"#lower-east-side","osm_id":8398117,"source":"OpenStreetMap (ODbL) via Overpass API, relation 8398117 (boundary=place), ring assembled from member ways"},"geometry":{"type":"Polygon","coordinates":[[[-73.9863029,40.7222237],[-73.9787941,40.7199587],[-73.9772317,40.7193229],[-73.9750886,40.7188838],[-73.9732566,40.7187272],[-73.9740372,40.7163629],[-73.9748096,40.7144275],[-73.9762473,40.7115324],[-73.9767838,40.7110444],[-73.9778137,40.7103288],[-73.9782429,40.7102312],[-73.9799809,40.7101336],[-73.9808822,40.7100035],[-73.9808178,40.7096456],[-73.9844812,40.7092813],[-73.9847371,40.7109862],[-73.985112,40.7135086],[-73.9851844,40.7136061],[-73.98534,40.714458],[-73.9893164,40.7141312],[-73.9902605,40.7140615],[-73.9902458,40.7144051],[-73.9902377,40.7145983],[-73.9901707,40.7147772],[-73.9891541,40.7167085],[-73.9937002,40.7181128],[-73.9948136,40.7184568],[-73.9939011,40.7207958],[-73.9935788,40.721622],[-73.9925954,40.7241427],[-73.9912207,40.7237235],[-73.9863029,40.7222237]]]}},{"type":"Feature","properties":{"name":"NoHo","url":"#noho","osm_id":8398111,"source":"OpenStreetMap (ODbL) via Overpass API, relation 8398111 (boundary=place), ring assembled from member ways"},"geometry":{"type":"Polygon","coordinates":[[[-73.992595,40.724143],[-73.99233,40.724891],[-73.992062,40.725649],[-73.991788,40.726391],[-73.991539,40.727088],[-73.9916,40.727112],[-73.991463,40.727576],[-73.991431,40.727741],[-73.991194,40.728492],[-73.991142,40.728659],[-73.990702,40.729885],[-73.990498,40.730556],[-73.991925,40.731167],[-73.992402,40.7306],[-73.993269,40.72958],[-73.993749,40.729011],[-73.994256,40.728413],[-73.994763,40.727822],[-73.995272,40.727212],[-73.996756,40.725433],[-73.995331,40.725092],[-73.992595,40.724143]]]}},{"type":"Feature","properties":{"name":"Gramercy Park","url":"#gramercy-park","osm_id":8398105,"source":"OpenStreetMap (ODbL) via Overpass API, relation 8398105 (boundary=place) (OSM name \"Gramercy\"), ring assembled from member ways"},"geometry":{"type":"Polygon","coordinates":[[[-73.984753,40.739506],[-73.978514,40.736872],[-73.980442,40.734249],[-73.982551,40.731361],[-73.984937,40.732359],[-73.987186,40.7333],[-73.988773,40.733964],[-73.986957,40.736466],[-73.990125,40.737799],[-73.990098,40.737903],[-73.98976,40.739173],[-73.987867,40.738385],[-73.987724,40.738315],[-73.987306,40.738903],[-73.987242,40.738876],[-73.986858,40.738716],[-73.986414,40.738542],[-73.985674,40.738228],[-73.985361,40.738663],[-73.984753,40.739506]]]}},{"type":"Feature","properties":{"name":"Flatiron District","url":"#flatiron-district","osm_id":8398071,"source":"OpenStreetMap (ODbL) via Overpass API, relation 8398071 (boundary=place), ring assembled from member ways"},"geometry":{"type":"Polygon","coordinates":[[[-73.991421,40.744802],[-73.991822,40.744253],[-73.991907,40.744137],[-73.991978,40.744039],[-73.992266,40.743642],[-73.992732,40.743001],[-73.993292,40.742233],[-73.993329,40.742181],[-73.993694,40.74168],[-73.993732,40.741629],[-73.99378,40.741562],[-73.994124,40.74109],[-73.994167,40.741031],[-73.98976,40.739173],[-73.987867,40.738385],[-73.987724,40.738315],[-73.987306,40.738903],[-73.987242,40.738876],[-73.986858,40.738716],[-73.986414,40.738542],[-73.985674,40.738228],[-73.985361,40.738663],[-73.984753,40.739506],[-73.984509,40.739842],[-73.983775,40.740856],[-73.983352,40.741417],[-73.986598,40.74277],[-73.991421,40.744802]]]}},{"type":"Feature","properties":{"name":"NoMad","url":"#nomad","osm_id":8398101,"source":"OpenStreetMap (ODbL) via Overpass API, relation 8398101 (boundary=place), ring assembled from member ways"},"geometry":{"type":"Polygon","coordinates":[[[-73.991421,40.744802],[-73.986598,40.74277],[-73.985182,40.744634],[-73.990051,40.746678],[-73.991421,40.744802]]]}},{"type":"Feature","properties":{"name":"Kips Bay","url":"#kips-bay","osm_id":8398103,"source":"OpenStreetMap (ODbL) via Overpass API, relation 8398103 (boundary=place), ring assembled from member ways"},"geometry":{"type":"Polygon","coordinates":[[[-73.974195,40.735035],[-73.973482,40.734745],[-73.973154,40.735097],[-73.972937,40.735003],[-73.972471,40.735754],[-73.972414,40.739216],[-73.971929,40.740303],[-73.97165,40.742274],[-73.971474,40.742874],[-73.97972,40.746333],[-73.980974,40.744593],[-73.981518,40.743834],[-73.982023,40.743335],[-73.983352,40.741417],[-73.983775,40.740856],[-73.984509,40.739842],[-73.984753,40.739506],[-73.978514,40.736872],[-73.974195,40.735035]]]}},{"type":"Feature","properties":{"name":"Murray Hill","url":"#murray-hill","osm_id":8398094,"source":"OpenStreetMap (ODbL) via Overpass API, relation 8398094 (boundary=place), ring assembled from member ways"},"geometry":{"type":"Polygon","coordinates":[[[-73.971474,40.742874],[-73.971167,40.743357],[-73.970856,40.743237],[-73.970027,40.744345],[-73.970298,40.744463],[-73.96856,40.746627],[-73.970914,40.747639],[-73.973004,40.748527],[-73.972202,40.749829],[-73.973487,40.750352],[-73.974665,40.750821],[-73.977437,40.751992],[-73.978292,40.75235],[-73.979265,40.752765],[-73.980179,40.751521],[-73.982953,40.74771],[-73.97972,40.746333],[-73.971474,40.742874]]]}}]}