{"type":"FeatureCollection","features":[{"type":"Feature","properties":{"name":"Montgomery Township","osm_id":963379,"source":"OpenStreetMap (ODbL) via Nominatim, relation 963379"},"geometry":{"type":"Polygon","coordinates":[[[-74.7520249,40.4313843],[-74.7519188,40.4311835],[-74.7516057,40.4306061],[-74.751462,40.430343],[-74.7514,40.430228],[-74.7511334,40.4297305],[-74.7509991,40.4294813],[-74.7503714,40.4283085],[-74.7502964,40.4281624],[-74.7502257,40.4280281],[-74.7500209,40.4276551],[-74.7498343,40.4273072],[-74.749535,40.426753],[-74.7494566,40.4266055],[-74.7492962,40.4263068],[-74.749284,40.4262845],[-74.749073,40.4258829],[-74.748985,40.425719],[-74.7488958,40.4255584],[-74.7487968,40.4253606],[-74.7486466,40.4250874],[-74.748562,40.4249374],[-74.74841,40.4246456],[-74.7481727,40.4242291],[-74.7410147,40.4113696],[-74.7350175,40.3991308],[-74.7225393,40.376034],[-74.7221208,40.3752611],[-74.7220946,40.375189],[-74.7218041,40.3753118],[-74.7213507,40.3755004],[-74.7207781,40.3757403],[-74.72049,40.3758579],[-74.7201998,40.3759732],[-74.7199542,40.376071],[-74.7194384,40.3762672],[-74.7191901,40.376366],[-74.718802,40.3765329],[-74.7185733,40.3766307],[-74.7184777,40.3766699],[-74.7183698,40.3767095],[-74.7182634,40.3767463],[-74.7180453,40.3768188],[-74.7179449,40.3768465],[-74.7178677,40.3768645],[-74.7178667,40.3768658],[-74.7177417,40.3768943],[-74.7175926,40.3769251],[-74.7174109,40.3769592],[-74.7171393,40.3770027],[-74.7163467,40.3771322],[-74.7158786,40.3772083],[-74.715074,40.3773358],[-74.7146405,40.3774027],[-74.7144591,40.377432],[-74.714352,40.3774496],[-74.7142102,40.377476],[-74.7141283,40.3774961],[-74.7139603,40.3775439],[-74.7138576,40.3775777],[-74.7137512,40.3776184],[-74.7132103,40.377835],[-74.7128108,40.3779949],[-74.7126673,40.3780457],[-74.7125762,40.3780757],[-74.7124894,40.3781],[-74.7124383,40.378113],[-74.7123883,40.3781229],[-74.7123421,40.3781305],[-74.7122984,40.3781362],[-74.7122355,40.378143],[-74.7121792,40.3781483],[-74.7121213,40.3781513],[-74.7120628,40.3781528],[-74.7119862,40.3781508],[-74.711899,40.3781448],[-74.711824,40.3781404],[-74.7117364,40.3781315],[-74.7115056,40.3781167],[-74.7114279,40.3781164],[-74.7113166,40.3781217],[-74.7112289,40.3781301],[-74.7111517,40.3781418],[-74.7110721,40.3781558],[-74.7109944,40.3781761],[-74.7108458,40.3782226],[-74.7107474,40.3782585],[-74.7098261,40.3786166],[-74.7083847,40.3791671],[-74.7083199,40.3791921],[-74.7078695,40.3793647],[-74.7078191,40.379379],[-74.7077399,40.3793964],[-74.707685,40.3794032],[-74.7076316,40.3794024],[-74.707576,40.3793985],[-74.7075282,40.379392],[-74.7074592,40.3793815],[-74.707413,40.3793732],[-74.7073446,40.3793594],[-74.7072714,40.3793459],[-74.7071992,40.3793331],[-74.7071317,40.3793235],[-74.7070642,40.3793162],[-74.7069773,40.3793104],[-74.7068701,40.3793098],[-74.7067505,40.3793172],[-74.7066324,40.3793283],[-74.7063959,40.3793529],[-74.7061284,40.3793862],[-74.7060312,40.3794019],[-74.7058203,40.3794377],[-74.7056094,40.3794793],[-74.7054067,40.3795252],[-74.7046323,40.3797032],[-74.7043617,40.3797657],[-74.7041387,40.3798218],[-74.7033099,40.3800303],[-74.7031815,40.3800609],[-74.7028248,40.3801558],[-74.7023033,40.3802977],[-74.7020026,40.3803776],[-74.7019548,40.3803907],[-74.7016609,40.3804667],[-74.7014598,40.3805176],[-74.7013976,40.3805326],[-74.7011874,40.3805838],[-74.701042,40.380615],[-74.7009032,40.3806393],[-74.7007224,40.3806637],[-74.7004956,40.3806862],[-74.7002678,40.3807064],[-74.6995311,40.3807571],[-74.6988364,40.3807928],[-74.6983226,40.3808105],[-74.6979786,40.3808197],[-74.6978639,40.3808289],[-74.69781,40.380852],[-74.6977514,40.3808576],[-74.697453,40.380886],[-74.697444,40.380887],[-74.697175,40.380912],[-74.6969127,40.3809467],[-74.6963594,40.3810198],[-74.69573,40.381103],[-74.695595,40.381129],[-74.694423,40.381332],[-74.6938596,40.3814042],[-74.693518,40.381448],[-74.693503,40.38145],[-74.693493,40.381451],[-74.693484,40.381452],[-74.693475,40.381453],[-74.6929655,40.3815262],[-74.6927039,40.3815741],[-74.6925485,40.3815985],[-74.6924145,40.3816196],[-74.6922433,40.3816515],[-74.6918159,40.3817492],[-74.6911379,40.3819058],[-74.6910372,40.3819338],[-74.690889,40.381975],[-74.690531,40.382075],[-74.689867,40.382211],[-74.6897575,40.3822277],[-74.689639,40.382257],[-74.688378,40.382497],[-74.688371,40.382498],[-74.688037,40.382562],[-74.687655,40.3826],[-74.687643,40.382601],[-74.687631,40.382602],[-74.6869377,40.3826723],[-74.6860344,40.3827558],[-74.6859038,40.3827679],[-74.685532,40.3828022],[-74.6848,40.382884],[-74.684401,40.38295],[-74.6842708,40.3829714],[-74.6839834,40.3830396],[-74.6835151,40.3831474],[-74.6820438,40.3833445],[-74.6805504,40.3834351],[-74.6803343,40.3834516],[-74.6801909,40.3834664],[-74.6800297,40.383488],[-74.6795667,40.3835664],[-74.679159,40.3836426],[-74.6788992,40.3836882],[-74.6786424,40.3837292],[-74.6783436,40.383773],[-74.6774304,40.3839063],[-74.6773027,40.3839238],[-74.6764287,40.3840485],[-74.6761984,40.3840762],[-74.6755197,40.3841457],[-74.6752939,40.384169],[-74.6750396,40.3842039],[-74.6747678,40.3842502],[-74.6745313,40.3842961],[-74.6743279,40.3843408],[-74.674083,40.3844021],[-74.6739622,40.3844371],[-74.673727,40.3845045],[-74.6732533,40.3846572],[-74.672816,40.384804],[-74.6727059,40.3848498],[-74.6726263,40.3848865],[-74.6725538,40.3849249],[-74.67247,40.384976],[-74.6723856,40.3850333],[-74.672299,40.3850993],[-74.6722169,40.3851683],[-74.6719455,40.385421],[-74.6718777,40.3854793],[-74.6717916,40.3855483],[-74.6717202,40.3856008],[-74.6716432,40.3856517],[-74.6715635,40.3857021],[-74.6714962,40.3857404],[-74.6714035,40.3857881],[-74.6713126,40.3858293],[-74.6711873,40.3858819],[-74.6710585,40.3859281],[-74.6709355,40.3859637],[-74.6706807,40.3860274],[-74.670269,40.3861311],[-74.6699726,40.3862094],[-74.6696374,40.3863028],[-74.6690738,40.3864642],[-74.6685248,40.3866189],[-74.6680686,40.3867504],[-74.6679801,40.3867762],[-74.6676813,40.3868627],[-74.666524,40.3872236],[-74.6664276,40.3872524],[-74.6644823,40.3878606],[-74.6643509,40.387903],[-74.6635641,40.3881485],[-74.6633221,40.3882212],[-74.6631315,40.388274],[-74.6628662,40.3883399],[-74.6626992,40.3883826],[-74.6614118,40.3887152],[-74.6613388,40.3887342],[-74.6610013,40.3888238],[-74.6606743,40.3889156],[-74.6602066,40.3890596],[-74.6594824,40.3893146],[-74.6586261,40.3896104],[-74.6581965,40.3897642],[-74.657793,40.3899023],[-74.6576008,40.389965],[-74.6570451,40.390142],[-74.6565028,40.3903054],[-74.6563443,40.3903506],[-74.6561292,40.3904138],[-74.6556512,40.3905476],[-74.6552634,40.3906544],[-74.6549789,40.3907408],[-74.6547026,40.3908251],[-74.6543904,40.3909211],[-74.654111,40.3910077],[-74.6538259,40.3910924],[-74.6536089,40.3911547],[-74.6533724,40.3912232],[-74.6531704,40.3912726],[-74.6527703,40.39135],[-74.6525401,40.3914001],[-74.6517097,40.391586],[-74.6512414,40.3916913],[-74.6511347,40.3917207],[-74.647502,40.390806],[-74.647372,40.390773],[-74.64555,40.39031],[-74.645444,40.390281],[-74.645039,40.390176],[-74.633977,40.387355],[-74.632179,40.386896],[-74.6317703,40.3867918],[-74.631583,40.386744],[-74.631403,40.386698],[-74.631369,40.386689],[-74.63132,40.386676],[-74.631214,40.386649],[-74.630826,40.38655],[-74.629399,40.386186],[-74.629025,40.38609],[-74.628802,40.386033],[-74.62875,40.38602],[-74.624601,40.384961],[-74.623601,40.384706],[-74.623403,40.38464],[-74.623353,40.384623],[-74.623103,40.38454],[-74.623001,40.384506],[-74.622863,40.38446],[-74.622744,40.384421],[-74.622916,40.384659],[-74.623454,40.385443],[-74.62389,40.386064],[-74.624281,40.386671],[-74.624301,40.386815],[-74.62434,40.387096],[-74.624418,40.388212],[-74.624446,40.388311],[-74.624576,40.388759],[-74.624596,40.388827],[-74.624885,40.388772],[-74.625116,40.388739],[-74.625411,40.388728],[-74.625618,40.388747],[-74.625698,40.388754],[-74.625957,40.388902],[-74.626058,40.389127],[-74.626081,40.389314],[-74.626067,40.389544],[-74.626032,40.38983],[-74.62601,40.390138],[-74.626027,40.390472],[-74.626036,40.390807],[-74.62611,40.39137],[-74.626157,40.391572],[-74.626261,40.392414],[-74.626275,40.392544],[-74.62629,40.392673],[-74.626315,40.392893],[-74.626331,40.393058],[-74.626373,40.393344],[-74.626448,40.393618],[-74.626541,40.393766],[-74.626722,40.394167],[-74.626822,40.394402],[-74.626867,40.394507],[-74.627038,40.395047],[-74.627151,40.395385],[-74.627228,40.395657],[-74.627249,40.395752],[-74.627296,40.395901],[-74.627348,40.396057],[-74.627448,40.396356],[-74.627665,40.397043],[-74.627891,40.39786],[-74.628008,40.398176],[-74.628095,40.398448],[-74.62816,40.398557],[-74.628232,40.398662],[-74.628355,40.398777],[-74.628377,40.398785],[-74.628556,40.398853],[-74.628906,40.399067],[-74.629139,40.399209],[-74.629217,40.399104],[-74.629323,40.399035],[-74.629512,40.398922],[-74.62954,40.398909],[-74.629949,40.398729],[-74.63035,40.398569],[-74.630579,40.398382],[-74.630794,40.398195],[-74.630952,40.39803],[-74.63154,40.397765],[-74.632207,40.397528],[-74.632493,40.397463],[-74.632644,40.397428],[-74.6330212,40.3973436],[-74.633176,40.397312],[-74.633584,40.397207],[-74.6338,40.397102],[-74.634029,40.396981],[-74.634172,40.396865],[-74.63433,40.396678],[-74.634602,40.396457],[-74.634845,40.396276],[-74.635196,40.39605],[-74.63539,40.395973],[-74.635597,40.395797],[-74.635734,40.395632],[-74.635941,40.395434],[-74.636113,40.39534],[-74.636172,40.395319],[-74.636364,40.395251],[-74.636895,40.395042],[-74.637117,40.394942],[-74.637662,40.394672],[-74.637877,40.394458],[-74.638084,40.394287],[-74.6381,40.394272],[-74.638335,40.394044],[-74.63865,40.393885],[-74.638829,40.393846],[-74.639059,40.393807],[-74.639246,40.393829],[-74.639382,40.393889],[-74.639699,40.394009],[-74.640023,40.394162],[-74.640426,40.394359],[-74.641066,40.394687],[-74.641382,40.39484],[-74.641605,40.394862],[-74.641763,40.394839],[-74.641957,40.394784],[-74.642602,40.394508],[-74.643054,40.394326],[-74.643384,40.394237],[-74.643642,40.394185],[-74.643872,40.394159],[-74.644094,40.394148],[-74.644519,40.394175],[-74.645043,40.394234],[-74.645452,40.394321],[-74.645762,40.394419],[-74.645894,40.39447],[-74.64592,40.394438],[-74.646003,40.394468],[-74.650074,40.395389],[-74.650067,40.395411],[-74.647611,40.4026291],[-74.646372,40.40561],[-74.640403,40.407462],[-74.636774,40.407327],[-74.636749,40.407326],[-74.636829,40.407518],[-74.636988,40.407899],[-74.637166,40.408336],[-74.637211,40.408461],[-74.637267,40.408611],[-74.63737,40.408857],[-74.637413,40.409011],[-74.637463,40.409289],[-74.63743,40.409554],[-74.637415,40.409622],[-74.637331,40.410098],[-74.637253,40.410301],[-74.63711,40.410549],[-74.636933,40.410828],[-74.636846,40.410994],[-74.636767,40.411197],[-74.636682,40.411384],[-74.636582,40.411692],[-74.636526,40.411945],[-74.636319,40.412286],[-74.636169,40.412478],[-74.635954,40.412709],[-74.635698,40.41301],[-74.635339,40.413419],[-74.635203,40.413597],[-74.634992,40.413871],[-74.63491,40.41398],[-74.634781,40.414134],[-74.634696,40.414255],[-74.634609,40.414348],[-74.634474,40.414431],[-74.634237,40.414536],[-74.634007,40.414597],[-74.63385,40.414647],[-74.633548,40.414658],[-74.633361,40.414686],[-74.63321,40.414747],[-74.633081,40.414884],[-74.633025,40.414956],[-74.632981,40.415038],[-74.632946,40.415192],[-74.632969,40.415357],[-74.633013,40.415492],[-74.633063,40.415725],[-74.633073,40.415815],[-74.633078,40.415862],[-74.633064,40.415961],[-74.632958,40.416057],[-74.632771,40.416236],[-74.6326,40.416445],[-74.632506,40.416549],[-74.632427,40.416731],[-74.632342,40.416907],[-74.632299,40.417093],[-74.632235,40.417264],[-74.632214,40.417429],[-74.632202,40.417477],[-74.63213,40.417705],[-74.632142,40.41774],[-74.63213,40.418158],[-74.632196,40.418346],[-74.632254,40.418472],[-74.632326,40.418593],[-74.632406,40.418763],[-74.6325,40.418927],[-74.63258,40.419097],[-74.632666,40.419229],[-74.632739,40.419399],[-74.632818,40.419519],[-74.632858,40.419627],[-74.632927,40.419783],[-74.632943,40.41985],[-74.632921,40.420024],[-74.632871,40.42014],[-74.632763,40.420272],[-74.63272,40.420338],[-74.632491,40.420552],[-74.63237,40.420657],[-74.63219,40.420784],[-74.632004,40.420867],[-74.631808,40.420887],[-74.63169,40.420918],[-74.631525,40.420933],[-74.63148,40.4209],[-74.631351,40.420857],[-74.631027,40.420698],[-74.630875,40.420633],[-74.630702,40.420572],[-74.630516,40.420485],[-74.630412,40.420465],[-74.630307,40.420398],[-74.630091,40.420305],[-74.62983,40.420223],[-74.629739,40.420177],[-74.629376,40.419967],[-74.629225,40.41986],[-74.629043,40.419751],[-74.628831,40.419605],[-74.628619,40.419514],[-74.628525,40.419512],[-74.628249,40.419507],[-74.628143,40.41951],[-74.628055,40.419513],[-74.627868,40.419541],[-74.627718,40.419579],[-74.62762,40.419652],[-74.62753,40.419713],[-74.62743,40.41977],[-74.627374,40.419816],[-74.627238,40.419943],[-74.627173,40.420086],[-74.627073,40.420245],[-74.627023,40.420333],[-74.626923,40.420454],[-74.626795,40.420624],[-74.626688,40.420839],[-74.626623,40.420954],[-74.626552,40.421168],[-74.626474,40.421344],[-74.626396,40.421548],[-74.626332,40.421751],[-74.626189,40.422059],[-74.626083,40.422389],[-74.625989,40.422548],[-74.625889,40.422674],[-74.625337,40.423016],[-74.625043,40.423209],[-74.624584,40.423747],[-74.624449,40.424211],[-74.624164,40.425181],[-74.623858,40.426026],[-74.623588,40.427078],[-74.623459,40.427818],[-74.623282,40.428362],[-74.623025,40.428668],[-74.622021,40.429512],[-74.621458,40.43002],[-74.620847,40.430527],[-74.620284,40.430936],[-74.619938,40.431205],[-74.619457,40.431376],[-74.619111,40.431474],[-74.618581,40.431504],[-74.61846,40.43151],[-74.617898,40.431474],[-74.617634,40.431474],[-74.617416,40.431474],[-74.617273,40.431522],[-74.617111,40.431577],[-74.616989,40.431715],[-74.616853,40.432048],[-74.616724,40.432421],[-74.61633,40.433271],[-74.615936,40.434012],[-74.6158109,40.4342572],[-74.61559,40.43469],[-74.615332,40.435265],[-74.615108,40.435876],[-74.615067,40.436415],[-74.615195,40.436855],[-74.615459,40.437125],[-74.615846,40.437296],[-74.616287,40.437296],[-74.617412,40.437058],[-74.61782,40.436995],[-74.618021,40.43698],[-74.618192,40.436991],[-74.618416,40.437059],[-74.618633,40.43723],[-74.618714,40.437468],[-74.618713,40.437739],[-74.618713,40.437774],[-74.618544,40.438141],[-74.6183342,40.438547],[-74.618279,40.438654],[-74.618056,40.438985],[-74.61796,40.439128],[-74.6179504,40.439144],[-74.617947,40.439147],[-74.617892,40.439229],[-74.61782,40.439351],[-74.617546,40.439816],[-74.617026,40.440482],[-74.616107,40.44154],[-74.615544,40.442115],[-74.61515,40.442592],[-74.614675,40.443198],[-74.614153,40.443772],[-74.6138,40.444114],[-74.61306,40.444622],[-74.61245,40.444982],[-74.611453,40.445533],[-74.610584,40.44604],[-74.609627,40.446516],[-74.608671,40.446951],[-74.607979,40.447189],[-74.607833,40.447245],[-74.607746,40.447279],[-74.606589,40.447732],[-74.605772,40.448],[-74.605455,40.448106],[-74.604716,40.448306],[-74.604106,40.448404],[-74.60315,40.448611],[-74.602633,40.448732],[-74.602465,40.448765],[-74.602206,40.448832],[-74.602144,40.448846],[-74.601847,40.448916],[-74.601108,40.449283],[-74.600632,40.449692],[-74.600531,40.449799],[-74.600018,40.450338],[-74.599514,40.450887],[-74.59937,40.451044],[-74.5988,40.45152],[-74.597802,40.452183],[-74.596587,40.452923],[-74.596105,40.453332],[-74.595671,40.453871],[-74.594936,40.455014],[-74.595024,40.455029],[-74.5967634,40.4553229],[-74.597655,40.455507],[-74.600387,40.456071],[-74.600943,40.456179],[-74.6025159,40.4565119],[-74.6027122,40.4565525],[-74.60283,40.4565772],[-74.6040644,40.4568349],[-74.6044751,40.4569161],[-74.6058597,40.4571741],[-74.6064016,40.4572751],[-74.607028,40.4574193],[-74.6076267,40.4575416],[-74.6082411,40.4576814],[-74.6087278,40.4577979],[-74.610577,40.458182],[-74.611381,40.458342],[-74.6129926,40.4586849],[-74.6145825,40.4590049],[-74.6155639,40.4592115],[-74.6157203,40.4592525],[-74.6158323,40.4592865],[-74.6161288,40.4594091],[-74.6164196,40.4595757],[-74.61654,40.4596357],[-74.616841,40.4597632],[-74.6170501,40.4598226],[-74.6189556,40.4602114],[-74.6204625,40.4605394],[-74.6221697,40.4608924],[-74.6235099,40.4611716],[-74.6249893,40.4614673],[-74.625706,40.4616095],[-74.6265525,40.4617837],[-74.6269215,40.4618624],[-74.6271052,40.4618999],[-74.6284566,40.4621682],[-74.6286075,40.4622008],[-74.6292129,40.4623204],[-74.6297119,40.4624316],[-74.6298826,40.4624664],[-74.6300117,40.4624923],[-74.630759,40.462643],[-74.6315557,40.4628346],[-74.6331575,40.4632529],[-74.634531,40.463599],[-74.6360498,40.4639932],[-74.6362416,40.464041],[-74.6367303,40.4641781],[-74.636053,40.465564],[-74.638528,40.466008],[-74.640116,40.466285],[-74.6403051,40.4663198],[-74.641655,40.466568],[-74.6418133,40.4666114],[-74.642819,40.466804],[-74.64472,40.467261],[-74.6459949,40.4675671],[-74.646347,40.467622],[-74.6486114,40.4680952],[-74.6501441,40.4683936],[-74.6524406,40.4688813],[-74.6568282,40.4698583],[-74.6572369,40.4699479],[-74.6577134,40.470052],[-74.6591614,40.470346],[-74.662161,40.4710067],[-74.665188,40.471637],[-74.6760255,40.4706514],[-74.691391,40.469614],[-74.706297,40.468406],[-74.70911,40.459402],[-74.71075,40.453942],[-74.711396,40.451792],[-74.712804,40.447104],[-74.714477,40.442201],[-74.71471,40.44214],[-74.7166649,40.4418548],[-74.7168847,40.4418221],[-74.7170564,40.441771],[-74.7178318,40.4414445],[-74.7179075,40.4414328],[-74.7180052,40.4414355],[-74.7182328,40.4414846],[-74.7184997,40.4415628],[-74.7186838,40.4415985],[-74.7187178,40.4416049],[-74.7189218,40.4416228],[-74.7194899,40.4415742],[-74.720062,40.441498],[-74.7203158,40.4414763],[-74.7224831,40.4412381],[-74.723017,40.441198],[-74.724164,40.441073],[-74.725484,40.440945],[-74.7263214,40.4408707],[-74.728705,40.440635],[-74.729518,40.440559],[-74.733554,40.440134],[-74.7338054,40.4401107],[-74.7346372,40.4400275],[-74.7348535,40.4400047],[-74.736554,40.439817],[-74.737448,40.439723],[-74.7381283,40.4396658],[-74.7382744,40.4396544],[-74.7387401,40.4396444],[-74.7389,40.439641],[-74.7389888,40.4396597],[-74.7390676,40.4397038],[-74.7391581,40.4397651],[-74.7392932,40.4398567],[-74.7393785,40.4397764],[-74.7394753,40.4396978],[-74.7395104,40.4396686],[-74.7395703,40.4396376],[-74.7402204,40.4394324],[-74.7403873,40.4393376],[-74.7411934,40.4387708],[-74.74233,40.438009],[-74.743413,40.437291],[-74.7445,40.436557],[-74.745188,40.436116],[-74.7456611,40.435811],[-74.7458939,40.4356554],[-74.7467994,40.4350491],[-74.7471755,40.4348087],[-74.747861,40.434327],[-74.748113,40.434145],[-74.7484492,40.4339131],[-74.748622,40.4338052],[-74.748862,40.433677],[-74.748937,40.433659],[-74.7520249,40.4313843]]]}}]}