{"type":"FeatureCollection","features":[{"type":"Feature","properties":{"name":"Manhattan","osm_id":8398124,"source":"OpenStreetMap (ODbL) via Nominatim, relation 8398124","url":"../manhattan/index.html"},"geometry":{"type":"MultiPolygon","coordinates":[[[[-74.0472219,40.6908633],[-74.0472201,40.6908408],[-74.0472123,40.6908169],[-74.0472028,40.6907986],[-74.047146,40.690714],[-74.0470351,40.6906098],[-74.0470244,40.6905703],[-74.0470101,40.6905177],[-74.0471319,40.6904559],[-74.0471981,40.6904236],[-74.0469401,40.6901196],[-74.0468962,40.6900682],[-74.046845,40.6900082],[-74.0467971,40.6899522],[-74.046752,40.6898984],[-74.0462749,40.6893396],[-74.045357,40.6888833],[-74.0453632,40.6888759],[-74.0453147,40.6888513],[-74.0453031,40.6888646],[-74.0447779,40.6885981],[-74.0443758,40.6885252],[-74.0441445,40.6885605],[-74.0439725,40.6885868],[-74.0436327,40.688777],[-74.0435113,40.689208],[-74.043465,40.6896421],[-74.04347,40.6896489],[-74.0434871,40.6896706],[-74.0435049,40.6896932],[-74.0438883,40.6901864],[-74.0445985,40.6905663],[-74.0458907,40.6910753],[-74.0459271,40.6910896],[-74.0459617,40.6911024],[-74.0459898,40.6911115],[-74.0460174,40.6911182],[-74.0460458,40.6911231],[-74.0460787,40.6911267],[-74.0461132,40.691129],[-74.0461245,40.6911292],[-74.0461524,40.6911293],[-74.0461778,40.691104],[-74.0469829,40.6910489],[-74.0470212,40.6910442],[-74.0470605,40.6910372],[-74.0470937,40.6910277],[-74.0471232,40.6910138],[-74.0471496,40.6909979],[-74.0471724,40.6909803],[-74.047189,40.690962],[-74.0472041,40.6909398],[-74.0472133,40.690917],[-74.0472209,40.6908892],[-74.0472219,40.6908633]]],[[[-74.0407472,40.7001669],[-74.0407397,40.7001311],[-74.0407248,40.7001055],[-74.0407192,40.7000956],[-74.0407023,40.7000713],[-74.0406912,40.70005],[-74.0406874,40.70001],[-74.0406837,40.699983],[-74.0406744,40.6999616],[-74.0406744,40.6999346],[-74.0406631,40.6999075],[-74.0406443,40.6998832],[-74.0406237,40.6998605],[-74.0406154,40.6998284],[-74.0406173,40.6998026],[-74.0406117,40.6997657],[-74.0406004,40.6997386],[-74.0405779,40.69971],[-74.0405535,40.6996801],[-74.0405311,40.6996573],[-74.0405124,40.6996274],[-74.0404842,40.6995945],[-74.0404702,40.6995581],[-74.0404664,40.6995282],[-74.0404666,40.6994927],[-74.0404553,40.6994669],[-74.0404384,40.6994384],[-74.0404262,40.6994134],[-74.0404019,40.6993934],[-74.0403511,40.6993749],[-74.0403156,40.699365],[-74.040278,40.6993506],[-74.0402425,40.6993335],[-74.0402106,40.699315],[-74.0401899,40.6992778],[-74.0401899,40.6992451],[-74.0401863,40.6992152],[-74.040158,40.6991965],[-74.0400698,40.6991722],[-74.03998,40.6991236],[-74.0399479,40.6990979],[-74.0398992,40.699068],[-74.0398618,40.6990423],[-74.0398149,40.6990109],[-74.0397962,40.6989767],[-74.039798,40.6989367],[-74.0398243,40.6989111],[-74.0398682,40.6988933],[-74.0399097,40.6988835],[-74.0399512,40.6988816],[-74.0399861,40.6988865],[-74.0400282,40.6988979],[-74.0400437,40.6989027],[-74.0400595,40.6989072],[-74.0400963,40.6989342],[-74.0401454,40.6988975],[-74.0401502,40.6989014],[-74.040215,40.6988538],[-74.0402387,40.6988362],[-74.040234,40.6988328],[-74.0400782,40.6987147],[-74.0399309,40.6985897],[-74.0396695,40.6987755],[-74.0396471,40.69879],[-74.0396316,40.6987899],[-74.0395853,40.6987904],[-74.0395382,40.6987875],[-74.0395083,40.6987803],[-74.0394876,40.6987775],[-74.0394688,40.6987519],[-74.0394385,40.6987394],[-74.0394115,40.6987374],[-74.0393763,40.6987314],[-74.0393648,40.6987087],[-74.0393415,40.6986841],[-74.0393171,40.6986648],[-74.039285,40.6986319],[-74.0392448,40.6986141],[-74.0392054,40.698604],[-74.0391679,40.6985954],[-74.0391153,40.6985924],[-74.039061,40.6985967],[-74.0390065,40.6985937],[-74.0389596,40.6985951],[-74.0389252,40.698607],[-74.0388788,40.6986109],[-74.0388273,40.6986241],[-74.0387796,40.698636],[-74.038744,40.6986371],[-74.0387123,40.698654],[-74.0386807,40.69866],[-74.0386528,40.6986628],[-74.0386342,40.698667],[-74.0386211,40.6986713],[-74.0386028,40.6986769],[-74.038623,40.6986979],[-74.0386064,40.6987175],[-74.0385693,40.6987301],[-74.0385269,40.6987117],[-74.0385048,40.698702],[-74.038477,40.6986908],[-74.0384529,40.6986809],[-74.0384197,40.6986655],[-74.0383919,40.6986656],[-74.0383723,40.6986686],[-74.0383683,40.6986866],[-74.0383801,40.6987135],[-74.038396,40.6987285],[-74.0384116,40.6987557],[-74.0384355,40.6987917],[-74.0384551,40.6988247],[-74.0384669,40.6988698],[-74.0384629,40.6989239],[-74.0384589,40.6989808],[-74.0384668,40.6990169],[-74.0384982,40.699074],[-74.0384936,40.6991151],[-74.0385101,40.6991469],[-74.0385329,40.6991722],[-74.038561,40.6991929],[-74.0385985,40.6992101],[-74.0386321,40.6992385],[-74.0386642,40.6992628],[-74.038697,40.6992793],[-74.0387232,40.699302],[-74.0387475,40.6993362],[-74.0387588,40.6993677],[-74.0387719,40.6993976],[-74.0387831,40.6994062],[-74.0387962,40.699439],[-74.0388017,40.6994874],[-74.0388149,40.6995316],[-74.0388382,40.6995622],[-74.0388796,40.6996022],[-74.0388927,40.6996251],[-74.0389358,40.6996549],[-74.0389901,40.6996622],[-74.0390239,40.6996623],[-74.0390746,40.699668],[-74.0391214,40.6996709],[-74.0391629,40.6996767],[-74.0392097,40.699681],[-74.0392548,40.6996867],[-74.0392866,40.6997081],[-74.0393298,40.6997268],[-74.0393815,40.6997504],[-74.0394283,40.6997632],[-74.0394771,40.6997818],[-74.0395109,40.6998161],[-74.0395465,40.6998431],[-74.0395859,40.6998533],[-74.0396215,40.6998561],[-74.0396647,40.6998733],[-74.0396891,40.699899],[-74.0397134,40.6999275],[-74.0397453,40.6999503],[-74.0397827,40.6999518],[-74.0398251,40.6999554],[-74.0398588,40.6999655],[-74.0399002,40.6999811],[-74.0399339,40.6999941],[-74.0399657,40.7000183],[-74.0399938,40.7000412],[-74.040022,40.700061],[-74.0400483,40.700074],[-74.040082,40.7000925],[-74.0401196,40.700094],[-74.0401534,40.7001026],[-74.0401871,40.700114],[-74.0402491,40.700117],[-74.0402827,40.7001113],[-74.0403288,40.7001007],[-74.0403756,40.7001122],[-74.0404152,40.7001264],[-74.0404601,40.7001494],[-74.0404958,40.7001623],[-74.0405278,40.7001765],[-74.0405689,40.7001879],[-74.0406121,40.7002008],[-74.0406477,40.7002136],[-74.0406966,40.7002152],[-74.0407303,40.7001925],[-74.0407472,40.7001669]]],[[[-74.035443,40.685125],[-74.019577,40.679654],[-74.008663,40.686249],[-74.0085948,40.6862959],[-74.0083659,40.6864262],[-74.0082907,40.6864417],[-74.0080914,40.6875085],[-74.0074623,40.6886621],[-74.0069664,40.6889994],[-74.0064699,40.6898545],[-74.0060025,40.6905979],[-74.0054419,40.691317],[-74.0050007,40.6922553],[-74.0041318,40.6935657],[-74.0036039,40.6941589],[-74.0033816,40.6946775],[-74.0026662,40.6957649],[-74.0018898,40.6968077],[-74.0015556,40.6972918],[-74.0011074,40.6980893],[-74.0005834,40.6989323],[-74.0002365,40.6994949],[-73.9995497,40.7004296],[-73.9963451,40.7033735],[-73.9959947,40.7037725],[-73.9957569,40.7038774],[-73.9951925,40.7038071],[-73.9950772,40.7040197],[-73.9945629,40.7042712],[-73.9943578,40.7044439],[-73.9935158,40.7046716],[-73.990749,40.7049],[-73.9901452,40.7050162],[-73.9900444,40.7050118],[-73.9864168,40.705454],[-73.9834159,40.7057302],[-73.9830481,40.7056703],[-73.9827564,40.7056796],[-73.9824381,40.7058529],[-73.980921,40.7059673],[-73.97912,40.706065],[-73.977116,40.706533],[-73.972864,40.708824],[-73.9723205,40.7090758],[-73.97226,40.709102],[-73.97054,40.707313],[-73.970534,40.707306],[-73.9701825,40.7069404],[-73.970159,40.706916],[-73.970288,40.705753],[-73.970087,40.705752],[-73.970129,40.705383],[-73.969312,40.705475],[-73.969262,40.706803],[-73.9692715,40.7070286],[-73.969298,40.7070851],[-73.969867,40.707916],[-73.9704007,40.7086318],[-73.9701914,40.7092385],[-73.9700064,40.7105491],[-73.969061,40.711744],[-73.9689119,40.7131879],[-73.9677402,40.7157309],[-73.9673055,40.7170152],[-73.9679043,40.7173184],[-73.966666,40.7194968],[-73.9656943,40.7206834],[-73.9649308,40.7214952],[-73.9635168,40.7217312],[-73.9633389,40.7218977],[-73.9627691,40.7227582],[-73.961722,40.72487],[-73.962109,40.725105],[-73.9621293,40.7251589],[-73.9620383,40.7252476],[-73.961933,40.725286],[-73.961758,40.725784],[-73.961741,40.726686],[-73.9619238,40.7275427],[-73.9617512,40.7281249],[-73.9613803,40.729069],[-73.961465,40.730764],[-73.962406,40.732926],[-73.962413,40.73399],[-73.962298,40.734287],[-73.962112,40.734528],[-73.962547,40.736437],[-73.9626667,40.7369801],[-73.962978,40.738393],[-73.9621661,40.7413534],[-73.9607468,40.7441711],[-73.9598548,40.7451772],[-73.959334,40.7461726],[-73.9587189,40.7471165],[-73.957853,40.7483993],[-73.9572708,40.7491674],[-73.9561547,40.7497876],[-73.9547578,40.7507797],[-73.954674,40.750879],[-73.954537,40.751035],[-73.954504,40.751136],[-73.954503,40.751138],[-73.9545472,40.7512427],[-73.9544422,40.751353],[-73.954298,40.751455],[-73.9540201,40.7518142],[-73.9534795,40.752257],[-73.9530476,40.7527668],[-73.9528208,40.7530006],[-73.952454,40.7533899],[-73.9521428,40.7537746],[-73.952027,40.75383],[-73.951614,40.754299],[-73.9510922,40.7549506],[-73.9509011,40.7551524],[-73.9506844,40.7554267],[-73.945698,40.761809],[-73.943339,40.765003],[-73.941379,40.767089],[-73.9406496,40.7675512],[-73.939826,40.768073],[-73.935903,40.770001],[-73.935226,40.770609],[-73.935045,40.7711861],[-73.9355572,40.7715992],[-73.9359429,40.7717347],[-73.9375174,40.7725227],[-73.9378787,40.773831],[-73.937898,40.774033],[-73.937838,40.774832],[-73.937062,40.776185],[-73.936347,40.777138],[-73.935903,40.777506],[-73.9348937,40.7780643],[-73.934558,40.77825],[-73.933803,40.778272],[-73.933184,40.778206],[-73.931708,40.777998],[-73.93115,40.777623],[-73.930643,40.776672],[-73.930038,40.776398],[-73.928695,40.776757],[-73.928236,40.777132],[-73.922345,40.780811],[-73.920761,40.782162],[-73.9156319,40.7864462],[-73.9147322,40.7874646],[-73.9126153,40.7894243],[-73.9121128,40.7895704],[-73.9117549,40.7897803],[-73.9098375,40.7909643],[-73.912528,40.796118],[-73.914169,40.796818],[-73.915523,40.797421],[-73.915757,40.797525],[-73.916392,40.797808],[-73.917859,40.798507],[-73.918088,40.798616],[-73.918649,40.798807],[-73.919034,40.799011],[-73.919896,40.799392],[-73.920078,40.799512],[-73.92034,40.799729],[-73.920697,40.800201],[-73.920956,40.800694],[-73.921186,40.801031],[-73.921375,40.801319],[-73.921413,40.801369],[-73.921794,40.801689],[-73.921898,40.801772],[-73.921913,40.801781],[-73.9222,40.801915],[-73.922382,40.801995],[-73.922663,40.802119],[-73.923075,40.802231],[-73.923472,40.802304],[-73.926507,40.802173],[-73.92707,40.802195],[-73.927663,40.802399],[-73.928019,40.802774],[-73.92871,40.804119],[-73.929031,40.804564],[-73.929963,40.805773],[-73.930446,40.806328],[-73.930526,40.806478],[-73.930526,40.806614],[-73.93096,40.806948],[-73.931277,40.807243],[-73.931655,40.807639],[-73.931911,40.807937],[-73.93211,40.808146],[-73.932231,40.808303],[-73.932364,40.808519],[-73.9325,40.80882],[-73.932592,40.809131],[-73.932621,40.80934],[-73.932626,40.80966],[-73.932597,40.810016],[-73.932595,40.810052],[-73.932768,40.810097],[-73.932816,40.810128],[-73.932838,40.810167],[-73.932857,40.810327],[-73.932847,40.810394],[-73.932812,40.810424],[-73.932663,40.810554],[-73.932656,40.810579],[-73.932666,40.810749],[-73.932556,40.810886],[-73.932608,40.811006],[-73.932676,40.811164],[-73.932743,40.811511],[-73.932747,40.811531],[-73.932828,40.811948],[-73.932705,40.812575],[-73.932532,40.816053],[-73.932591,40.818222],[-73.9326321,40.8189744],[-73.932737,40.820893],[-73.932828,40.823366],[-73.933106,40.825949],[-73.933763,40.831686],[-73.933796,40.832958],[-73.933651,40.834053],[-73.933247,40.835632],[-73.933215,40.8357016],[-73.93287,40.836453],[-73.930996,40.839724],[-73.930104,40.841494],[-73.929339,40.843301],[-73.929128,40.844264],[-73.927091,40.847353],[-73.925114,40.849709],[-73.923448,40.852369],[-73.921527,40.854742],[-73.920875,40.855413],[-73.920794,40.855609],[-73.920605,40.855851],[-73.920402,40.856093],[-73.920076,40.856589],[-73.918948,40.857699],[-73.918224,40.858456],[-73.914333,40.86239],[-73.914244,40.862501],[-73.913623,40.863145],[-73.913396,40.863342],[-73.91186,40.865223],[-73.911319,40.866007],[-73.91078,40.86684],[-73.910336,40.867669],[-73.909711,40.868926],[-73.90949,40.869605],[-73.909337,40.870314],[-73.909194,40.871104],[-73.909148,40.871724],[-73.909332,40.87254],[-73.909264,40.872649],[-73.9092528,40.8726696],[-73.909117,40.872919],[-73.908902,40.873034],[-73.908666,40.872978],[-73.908412,40.872698],[-73.908124,40.872802],[-73.908055,40.872965],[-73.907726,40.873247],[-73.907451,40.873398],[-73.907249,40.873772],[-73.907371,40.873963],[-73.907353,40.874351],[-73.90695,40.875047],[-73.906769,40.87598],[-73.906894,40.876287],[-73.907249,40.876308],[-73.907433,40.876412],[-73.907858,40.87683],[-73.907875,40.877168],[-73.908183,40.877538],[-73.908408,40.877613],[-73.908704,40.877596],[-73.908941,40.877642],[-73.909126,40.877998],[-73.909422,40.87812],[-73.909561,40.8783],[-73.909616,40.878754],[-73.909932,40.878842],[-73.910865,40.879171],[-73.911195,40.879198],[-73.911584,40.87914],[-73.911874,40.878958],[-73.912149,40.878432],[-73.912437,40.878027],[-73.9124759,40.8779877],[-73.9125648,40.8778977],[-73.912693,40.877768],[-73.914213,40.877134],[-73.914773,40.876719],[-73.914997,40.87649],[-73.915177,40.876079],[-73.91522,40.875923],[-73.915336,40.875808],[-73.915578,40.875696],[-73.916024,40.875728],[-73.916163,40.87569],[-73.9161787,40.8756893],[-73.916185,40.875689],[-73.916187,40.87569],[-73.916216,40.875689],[-73.91623,40.875688],[-73.916284,40.875687],[-73.916377,40.875711],[-73.916437,40.875754],[-73.916502,40.875769],[-73.916957,40.875792],[-73.917279,40.875769],[-73.917396,40.875745],[-73.917598,40.875672],[-73.9176836,40.8756705],[-73.917767,40.875669],[-73.9178453,40.8757074],[-73.917916,40.875742],[-73.9183897,40.8758436],[-73.918457,40.875858],[-73.918799,40.875961],[-73.919287,40.876153],[-73.919642,40.876327],[-73.919855,40.87647],[-73.91992,40.876531],[-73.920269,40.876863],[-73.920907,40.877504],[-73.921695,40.87824],[-73.921873,40.878372],[-73.921923,40.878381],[-73.924761,40.87887],[-73.924928,40.878899],[-73.9249858,40.8789176],[-73.925254,40.879004],[-73.9253,40.87902],[-73.933907,40.882012],[-73.9341963,40.8815481],[-73.948336,40.858446],[-73.948822,40.857651],[-73.952397,40.851812],[-73.952486,40.851666],[-73.952565,40.851537],[-73.952829,40.851106],[-73.953988,40.848468],[-73.954194,40.848003],[-73.954312,40.847732],[-73.955661,40.844661],[-73.955727,40.84451],[-73.957796,40.839801],[-73.957831,40.839721],[-73.958019,40.839292],[-73.958705,40.837732],[-73.9587239,40.8376892],[-73.958824,40.837462],[-73.960086,40.834587],[-73.960136,40.834474],[-73.961211,40.832027],[-73.961263,40.83191],[-73.961329,40.831759],[-73.961646,40.831036],[-73.96168,40.830961],[-73.962463,40.829177],[-73.962585,40.828901],[-73.962654,40.828742],[-73.963577,40.826642],[-73.963787,40.826355],[-73.963815,40.826316],[-73.96502,40.824666],[-73.965138,40.824504],[-73.96517,40.82446],[-73.965592,40.823883],[-73.965719,40.823709],[-73.9659,40.823461],[-73.965981,40.82335],[-73.96647,40.82268],[-73.966563,40.822553],[-73.967803,40.820854],[-73.967865,40.820771],[-73.967894,40.820731],[-73.970693,40.816897],[-73.971123,40.816308],[-73.971152,40.816269],[-73.971616,40.815633],[-73.973487,40.813071],[-73.975085,40.810882],[-73.977172,40.808025],[-73.9772909,40.8078621],[-73.978864,40.805707],[-73.979094,40.805392],[-73.980634,40.803283],[-73.982516,40.800706],[-73.982655,40.800516],[-73.984362,40.798179],[-73.984739,40.797662],[-73.99169,40.788143],[-73.992998,40.786353],[-74.0004487,40.7761545],[-74.0016207,40.7745491],[-74.014028,40.757551],[-74.0142459,40.7566558],[-74.0174387,40.7435392],[-74.0206386,40.7303906],[-74.0213072,40.7276365],[-74.0213403,40.7275071],[-74.021347,40.7274823],[-74.023637,40.718068],[-74.02639,40.700102],[-74.034495,40.6866935],[-74.035443,40.685125]]]]}},{"type":"Feature","properties":{"name":"Queens","osm_id":9691819,"source":"OpenStreetMap (ODbL) via Nominatim, relation 9691819 (Queens borough / Queens County), simplified (polygon_threshold=0.00005)","url":"../queens/index.html"},"geometry":{"type":"Polygon","coordinates":[[[-74.04378,40.507828],[-73.977874,40.519095],[-73.90214,40.492121],[-73.894613,40.504089],[-73.893458,40.505019],[-73.890828,40.50571],[-73.880367,40.506659],[-73.874538,40.508179],[-73.869582,40.509806],[-73.86295,40.511795],[-73.859452,40.512724],[-73.853158,40.515212],[-73.842826,40.518744],[-73.812558,40.529976],[-73.808429,40.530952],[-73.800523,40.532397],[-73.793103,40.53423],[-73.783646,40.536351],[-73.782261,40.536179],[-73.777586,40.534868],[-73.768666,40.532882],[-73.757153,40.531218],[-73.756531,40.58617],[-73.748665,40.59234],[-73.744774,40.593791],[-73.737586,40.593507],[-73.738552,40.596214],[-73.738117,40.602627],[-73.739156,40.604057],[-73.739935,40.604253],[-73.740423,40.604684],[-73.741654,40.606094],[-73.743749,40.607649],[-73.743059,40.607997],[-73.745486,40.611902],[-73.746682,40.611449],[-73.747183,40.612158],[-73.747647,40.612035],[-73.747935,40.612369],[-73.748864,40.612027],[-73.748959,40.612188],[-73.755248,40.610179],[-73.755161,40.610726],[-73.759791,40.611408],[-73.765355,40.614874],[-73.766453,40.61487],[-73.76729,40.620372],[-73.76708,40.624042],[-73.763703,40.627968],[-73.745502,40.63497],[-73.744392,40.6372],[-73.744057,40.637577],[-73.74334,40.637962],[-73.742597,40.638098],[-73.741872,40.637998],[-73.741344,40.637766],[-73.741162,40.637556],[-73.741328,40.63718],[-73.74245,40.635836],[-73.742633,40.635302],[-73.742491,40.634998],[-73.741715,40.634913],[-73.739438,40.635287],[-73.7397,40.636208],[-73.740447,40.637943],[-73.740838,40.638517],[-73.742719,40.64067],[-73.741885,40.64119],[-73.742179,40.641809],[-73.741033,40.646967],[-73.741137,40.647258],[-73.740411,40.647886],[-73.739008,40.648154],[-73.737587,40.648816],[-73.735034,40.64979],[-73.730328,40.650362],[-73.724804,40.652333],[-73.724799,40.653991],[-73.724902,40.654374],[-73.725384,40.655356],[-73.725629,40.655603],[-73.725918,40.657318],[-73.726357,40.658643],[-73.727894,40.661469],[-73.728276,40.663128],[-73.72777,40.66313],[-73.727706,40.665029],[-73.728429,40.665968],[-73.727575,40.673998],[-73.726273,40.677166],[-73.725627,40.679704],[-73.725907,40.682657],[-73.725829,40.683256],[-73.725913,40.683302],[-73.726429,40.692683],[-73.726845,40.703252],[-73.727259,40.711051],[-73.729515,40.719638],[-73.730287,40.722161],[-73.729501,40.722582],[-73.725866,40.723944],[-73.717571,40.726226],[-73.716545,40.726438],[-73.71071,40.727184],[-73.707954,40.727768],[-73.700233,40.739303],[-73.701582,40.752467],[-73.750298,40.782509],[-73.779665,40.812135],[-73.781594,40.804621],[-73.784067,40.801777],[-73.787674,40.800075],[-73.790179,40.79976],[-73.7944,40.800114],[-73.807192,40.804163],[-73.810129,40.80482],[-73.815556,40.805582],[-73.818335,40.80547],[-73.821256,40.804901],[-73.830178,40.802389],[-73.850391,40.800419],[-73.862928,40.797265],[-73.870591,40.790308],[-73.871064,40.786902],[-73.87364,40.786028],[-73.879583,40.785739],[-73.888732,40.787176],[-73.889106,40.787386],[-73.889298,40.787632],[-73.889571,40.788194],[-73.890205,40.790082],[-73.890431,40.790262],[-73.891793,40.790272],[-73.892194,40.790356],[-73.912528,40.796118],[-73.909837,40.790964],[-73.912113,40.78957],[-73.912615,40.789424],[-73.914732,40.787465],[-73.915632,40.786446],[-73.922345,40.780811],[-73.928236,40.777132],[-73.928695,40.776757],[-73.930038,40.776398],[-73.930643,40.776672],[-73.93115,40.777623],[-73.931708,40.777998],[-73.933184,40.778206],[-73.934558,40.77825],[-73.935903,40.777506],[-73.936347,40.777138],[-73.937062,40.776185],[-73.937838,40.774832],[-73.937879,40.773831],[-73.937517,40.772523],[-73.935557,40.771599],[-73.935045,40.771186],[-73.935226,40.770609],[-73.935903,40.770001],[-73.939826,40.768073],[-73.941379,40.767089],[-73.943339,40.765003],[-73.945698,40.761809],[-73.950901,40.755152],[-73.952027,40.75383],[-73.954547,40.751243],[-73.954537,40.751035],[-73.954758,40.75078],[-73.956155,40.749788],[-73.957271,40.749167],[-73.959334,40.746173],[-73.959855,40.745177],[-73.960747,40.744171],[-73.962166,40.741353],[-73.962978,40.738393],[-73.962547,40.736437],[-73.957176,40.739246],[-73.955248,40.739434],[-73.953823,40.739409],[-73.952264,40.739155],[-73.950077,40.738554],[-73.942161,40.735728],[-73.941287,40.734948],[-73.940838,40.734252],[-73.939496,40.731271],[-73.938361,40.730354],[-73.936871,40.729494],[-73.934938,40.728904],[-73.92989,40.728178],[-73.929206,40.727742],[-73.927425,40.725851],[-73.925499,40.721605],[-73.924438,40.720405],[-73.924392,40.71839],[-73.923139,40.717302],[-73.922804,40.716745],[-73.922727,40.716199],[-73.923993,40.715727],[-73.924558,40.715216],[-73.924055,40.714014],[-73.923863,40.713821],[-73.922365,40.712945],[-73.921442,40.71093],[-73.920744,40.710528],[-73.921898,40.709393],[-73.911806,40.703433],[-73.912903,40.70236],[-73.910678,40.701044],[-73.911819,40.699939],[-73.904459,40.695804],[-73.905974,40.694229],[-73.901664,40.691779],[-73.902111,40.691259],[-73.900667,40.688047],[-73.901216,40.687841],[-73.896477,40.682316],[-73.895974,40.683264],[-73.894148,40.685287],[-73.892737,40.683499],[-73.890314,40.684899],[-73.88973,40.684227],[-73.888584,40.685042],[-73.887753,40.686132],[-73.883971,40.687933],[-73.879121,40.691649],[-73.874301,40.694302],[-73.869071,40.695297],[-73.867453,40.688361],[-73.866591,40.685257],[-73.866315,40.683248],[-73.866026,40.681917],[-73.864101,40.682371],[-73.863297,40.679114],[-73.862345,40.679163],[-73.860382,40.671241],[-73.857633,40.671655],[-73.855698,40.663712],[-73.85841,40.663271],[-73.857572,40.659913],[-73.860342,40.659529],[-73.861617,40.659103],[-73.863538,40.658296],[-73.856693,40.649302],[-73.855139,40.642871],[-73.84803,40.643834],[-73.832945,40.628979],[-73.83424,40.60679],[-73.849784,40.588196],[-73.867356,40.579983],[-73.878953,40.574447],[-73.89155,40.572346],[-73.90557,40.571408],[-73.999394,40.556568],[-74.038053,40.550339],[-74.04378,40.507828]]]}},{"type":"Feature","properties":{"name":"Brooklyn","osm_id":9691750,"source":"OpenStreetMap (ODbL) via Nominatim, relation 9691750 (Brooklyn borough / Kings County), simplified (polygon_threshold=0.00005)","url":"../brooklyn/index.html"},"geometry":{"type":"Polygon","coordinates":[[[-74.056688,40.627039],[-74.055414,40.625132],[-74.052469,40.620324],[-74.041565,40.602996],[-74.035112,40.578188],[-74.034613,40.576095],[-74.036339,40.562691],[-74.038053,40.550339],[-73.999394,40.556568],[-73.90557,40.571408],[-73.89155,40.572346],[-73.878953,40.574447],[-73.867356,40.579983],[-73.849784,40.588196],[-73.83424,40.60679],[-73.832945,40.628979],[-73.84803,40.643834],[-73.855139,40.642871],[-73.856693,40.649302],[-73.863538,40.658296],[-73.861617,40.659103],[-73.860342,40.659529],[-73.857572,40.659913],[-73.85841,40.663271],[-73.855698,40.663712],[-73.856714,40.668102],[-73.857633,40.671655],[-73.860382,40.671241],[-73.862345,40.679163],[-73.863297,40.679114],[-73.864101,40.682371],[-73.866026,40.681917],[-73.866315,40.683248],[-73.866591,40.685257],[-73.867453,40.688361],[-73.869071,40.695297],[-73.874301,40.694302],[-73.879121,40.691649],[-73.882465,40.689152],[-73.883971,40.687933],[-73.887753,40.686132],[-73.888584,40.685042],[-73.88973,40.684227],[-73.890314,40.684899],[-73.892737,40.683499],[-73.894148,40.685287],[-73.894712,40.68474],[-73.895974,40.683264],[-73.896477,40.682316],[-73.901216,40.687841],[-73.900667,40.688047],[-73.902111,40.691259],[-73.901664,40.691779],[-73.905974,40.694229],[-73.904459,40.695804],[-73.911819,40.699939],[-73.910678,40.701044],[-73.912903,40.70236],[-73.911806,40.703433],[-73.921898,40.709393],[-73.920744,40.710528],[-73.921442,40.71093],[-73.922365,40.712945],[-73.923863,40.713821],[-73.924055,40.714014],[-73.924558,40.715216],[-73.923993,40.715727],[-73.922727,40.716199],[-73.922804,40.716745],[-73.923139,40.717302],[-73.924392,40.71839],[-73.924438,40.720405],[-73.925499,40.721605],[-73.927425,40.725851],[-73.929206,40.727742],[-73.92989,40.728178],[-73.934938,40.728904],[-73.936871,40.729494],[-73.938361,40.730354],[-73.939496,40.731271],[-73.940838,40.734252],[-73.941287,40.734948],[-73.942161,40.735728],[-73.950077,40.738554],[-73.952264,40.739155],[-73.953823,40.739409],[-73.955248,40.739434],[-73.957176,40.739246],[-73.962547,40.736437],[-73.962112,40.734528],[-73.962413,40.73399],[-73.962406,40.732926],[-73.961465,40.730764],[-73.9613803,40.729069],[-73.9619238,40.7275427],[-73.961741,40.726686],[-73.961758,40.725784],[-73.961933,40.725286],[-73.9621293,40.7251589],[-73.961722,40.72487],[-73.9627691,40.7227582],[-73.9633389,40.7218977],[-73.9635168,40.7217312],[-73.9649308,40.7214952],[-73.966666,40.7194968],[-73.9679043,40.7173184],[-73.9673055,40.7170152],[-73.9677402,40.7157309],[-73.9689119,40.7131879],[-73.969061,40.711744],[-73.9700064,40.7105491],[-73.9701914,40.7092385],[-73.9704007,40.7086318],[-73.9692715,40.7070286],[-73.969312,40.705475],[-73.970129,40.705383],[-73.970087,40.705752],[-73.970288,40.705753],[-73.970159,40.706916],[-73.97226,40.709102],[-73.977116,40.706533],[-73.97912,40.706065],[-73.9824381,40.7058529],[-73.9827564,40.7056796],[-73.9834159,40.7057302],[-73.9864168,40.705454],[-73.990749,40.7049],[-73.9935158,40.7046716],[-73.9943578,40.7044439],[-73.9950772,40.7040197],[-73.9951925,40.7038071],[-73.9957569,40.7038774],[-73.9959947,40.7037725],[-73.9963451,40.7033735],[-73.9995497,40.7004296],[-74.0002365,40.6994949],[-74.0015556,40.6972918],[-74.0033816,40.6946775],[-74.0036039,40.6941589],[-74.0041318,40.6935657],[-74.0050007,40.6922553],[-74.0054419,40.691317],[-74.0060025,40.6905979],[-74.0069664,40.6889994],[-74.0074623,40.6886621],[-74.0080914,40.6875085],[-74.0082907,40.6864417],[-74.019577,40.679654],[-74.035443,40.685125],[-74.055766,40.651475],[-74.056688,40.627039]]]}}]}