{"type":"FeatureCollection","features":[{"type":"Feature","properties":{"name":"Princeton","osm_id":961744,"source":"OpenStreetMap (ODbL) via Nominatim, relation 961744","url":"princeton/index.html"},"geometry":{"type":"Polygon","coordinates":[[[-74.7221219,40.3750605],[-74.7218857,40.3746188],[-74.7218584,40.3745674],[-74.721763,40.374388],[-74.7212976,40.3734626],[-74.7212577,40.3733831],[-74.7207384,40.3724175],[-74.7205491,40.3720215],[-74.720492,40.371902],[-74.7203339,40.3715726],[-74.720313,40.371529],[-74.7201345,40.3711602],[-74.719952,40.370783],[-74.7199129,40.3707068],[-74.719666,40.370225],[-74.719366,40.36967],[-74.7192269,40.3694247],[-74.7191558,40.3692994],[-74.719054,40.36912],[-74.718814,40.3686913],[-74.7184753,40.3680169],[-74.7180777,40.3673432],[-74.7178459,40.3669354],[-74.7177614,40.3667771],[-74.7175793,40.3664763],[-74.7174873,40.366314],[-74.7161614,40.3638696],[-74.7155841,40.3629508],[-74.7150738,40.361999],[-74.7148823,40.3616543],[-74.7148734,40.3616408],[-74.7147722,40.3614886],[-74.71465,40.361267],[-74.714279,40.360502],[-74.7141759,40.3603053],[-74.7141202,40.3601991],[-74.7137429,40.359488],[-74.713669,40.3593488],[-74.7131124,40.3583002],[-74.7130368,40.3581578],[-74.712875,40.357853],[-74.7126956,40.3575134],[-74.71265,40.357427],[-74.712136,40.356436],[-74.7120316,40.3562345],[-74.711962,40.356102],[-74.7117116,40.3556576],[-74.7114297,40.3551574],[-74.711354,40.355023],[-74.7098155,40.3522211],[-74.7096716,40.3519717],[-74.7095599,40.3517902],[-74.7091966,40.3511195],[-74.7089785,40.3507168],[-74.708586,40.349992],[-74.7085676,40.349957],[-74.7083265,40.3494978],[-74.7081164,40.3490976],[-74.7080038,40.3488832],[-74.707748,40.348396],[-74.7076804,40.3482751],[-74.7076526,40.3482252],[-74.7073337,40.3476546],[-74.707078,40.347197],[-74.7069652,40.3469952],[-74.706808,40.346714],[-74.7066661,40.3464526],[-74.7064765,40.3461031],[-74.70642,40.345999],[-74.7057419,40.3447534],[-74.705248,40.343838],[-74.7047032,40.3428202],[-74.704655,40.342722],[-74.7044345,40.3423072],[-74.7044311,40.3423008],[-74.7040303,40.3415469],[-74.703983,40.341458],[-74.7037597,40.3410592],[-74.7035848,40.3407469],[-74.7027417,40.3392413],[-74.7024494,40.3387192],[-74.702442,40.338706],[-74.702268,40.338388],[-74.7022457,40.3383451],[-74.702106,40.338076],[-74.7020353,40.3379324],[-74.701951,40.337761],[-74.7018567,40.3375581],[-74.7016899,40.3371989],[-74.7016213,40.3370513],[-74.701447,40.336676],[-74.7013152,40.3364475],[-74.7011251,40.3361179],[-74.7007781,40.3355179],[-74.695153,40.325056],[-74.6845521,40.3048856],[-74.678061,40.309048],[-74.6773615,40.3095306],[-74.6766481,40.3100805],[-74.676178,40.310689],[-74.67585,40.311083],[-74.675562,40.311482],[-74.674906,40.312218],[-74.674362,40.312898],[-74.674094,40.313194],[-74.673511,40.3139],[-74.672935,40.31455],[-74.672137,40.315485],[-74.671628,40.315996],[-74.671407,40.316165],[-74.670683,40.316646],[-74.668403,40.317893],[-74.66666,40.318798],[-74.666267,40.31898],[-74.666024,40.319094],[-74.664972,40.319631],[-74.664066,40.320086],[-74.663215,40.320545],[-74.662358,40.321134],[-74.660943,40.322208],[-74.660323,40.322708],[-74.659783,40.323143],[-74.658168,40.324401],[-74.657517,40.324938],[-74.65643,40.325644],[-74.656025,40.326077],[-74.6554796,40.3266128],[-74.6547225,40.3276],[-74.654614,40.327739],[-74.654399,40.328194],[-74.653708,40.329381],[-74.653131,40.330398],[-74.652856,40.33095],[-74.65243,40.331732],[-74.6523895,40.3318068],[-74.65238,40.331824],[-74.652341,40.331895],[-74.652132,40.332279],[-74.652103,40.332328],[-74.651962,40.332573],[-74.65111,40.33404],[-74.651099,40.334059],[-74.65109,40.334077],[-74.651051,40.334148],[-74.650569,40.335081],[-74.649863,40.336161],[-74.649749,40.336333],[-74.649213,40.337131],[-74.64794,40.338659],[-74.647708,40.338909],[-74.6476388,40.3389839],[-74.647578,40.339049],[-74.647564,40.339065],[-74.647362,40.339283],[-74.646853,40.339763],[-74.645981,40.340356],[-74.64533,40.340781],[-74.644713,40.341123],[-74.644496,40.341196],[-74.643949,40.341378],[-74.643225,40.341516],[-74.643034,40.341541],[-74.641726,40.341708],[-74.641232,40.341771],[-74.640213,40.341884],[-74.639577,40.341924],[-74.637981,40.342097],[-74.637303,40.34215],[-74.6372484,40.342155],[-74.637064,40.342168],[-74.636203,40.342235],[-74.635728,40.342265],[-74.6345,40.342377],[-74.633407,40.342433],[-74.63251,40.342544],[-74.631883,40.342659],[-74.630945,40.342969],[-74.630643,40.343121],[-74.630436,40.343225],[-74.630331,40.343255],[-74.630001,40.343407],[-74.630001,40.343424],[-74.630001,40.343467],[-74.630001,40.343587],[-74.630001,40.343647],[-74.630001,40.343707],[-74.630001,40.343968],[-74.630001,40.344615],[-74.630001,40.344748],[-74.630001,40.344969],[-74.630001,40.345008],[-74.630001,40.345029],[-74.630001,40.345092],[-74.630001,40.345112],[-74.630001,40.345118],[-74.630001,40.34525],[-74.630001,40.345407],[-74.629928,40.345652],[-74.629914,40.345698],[-74.629889,40.345783],[-74.629884,40.345801],[-74.629871,40.345843],[-74.629868,40.345854],[-74.629863,40.345871],[-74.629854,40.3459],[-74.629845,40.345929],[-74.629837,40.345957],[-74.629457,40.347239],[-74.628267,40.351253],[-74.62787,40.35259],[-74.627854,40.352645],[-74.627785,40.352878],[-74.627528,40.353743],[-74.627505,40.353817],[-74.627443,40.354031],[-74.627426,40.354086],[-74.627378,40.354248],[-74.627362,40.354302],[-74.627345,40.354358],[-74.627304,40.354494],[-74.627295,40.354526],[-74.627279,40.354582],[-74.627271,40.354611],[-74.627246,40.354694],[-74.627238,40.354721],[-74.627225,40.354764],[-74.6271951,40.3548608],[-74.627145,40.355035],[-74.627108,40.35516],[-74.627101,40.355182],[-74.627065,40.355302],[-74.626736,40.356413],[-74.626718,40.356474],[-74.626588,40.356912],[-74.626501,40.357206],[-74.626495,40.357239],[-74.626228,40.358606],[-74.625233,40.363706],[-74.6250386,40.3642573],[-74.6250409,40.3647863],[-74.6249978,40.3650781],[-74.624901,40.365406],[-74.624626,40.366094],[-74.624501,40.366406],[-74.623879,40.366605],[-74.622706,40.36698],[-74.62236,40.367091],[-74.622227,40.367134],[-74.62216,40.367155],[-74.622001,40.367206],[-74.621696,40.367731],[-74.6209,40.3691],[-74.620867,40.369161],[-74.620787,40.369312],[-74.62075,40.369383],[-74.62057,40.369759],[-74.62056,40.369869],[-74.620511,40.370004],[-74.6204229,40.3701943],[-74.620339,40.370767],[-74.62033,40.370814],[-74.620295,40.370981],[-74.6202,40.371445],[-74.619778,40.37349],[-74.619673,40.374],[-74.619604,40.374334],[-74.6195908,40.3743939],[-74.619527,40.374545],[-74.61951,40.374583],[-74.619438,40.374654],[-74.619393,40.374698],[-74.619366,40.374724],[-74.619312,40.374777],[-74.619258,40.37483],[-74.619252,40.374859],[-74.619233,40.374875],[-74.61919,40.374912],[-74.619155,40.374921],[-74.619149,40.374928],[-74.619005,40.37511],[-74.618912,40.375267],[-74.618697,40.375601],[-74.61864,40.375693],[-74.618531,40.37587],[-74.618444,40.375998],[-74.618439,40.376006],[-74.618426,40.376024],[-74.618227,40.376289],[-74.617865,40.376801],[-74.617834,40.376861],[-74.617692,40.377133],[-74.617592,40.377324],[-74.617531,40.377523],[-74.617508,40.377596],[-74.617525,40.377862],[-74.617564,40.378003],[-74.617655,40.378227],[-74.617719,40.378422],[-74.617914,40.379139],[-74.618074,40.379515],[-74.618148,40.37969],[-74.618429,40.380116],[-74.618495,40.380217],[-74.618777,40.380552],[-74.618781,40.380556],[-74.618785,40.380561],[-74.618789,40.380566],[-74.618793,40.380571],[-74.618797,40.380576],[-74.618801,40.380581],[-74.618805,40.380586],[-74.618809,40.380591],[-74.618813,40.380596],[-74.618817,40.380601],[-74.618821,40.380606],[-74.619315,40.381196],[-74.6196,40.381522],[-74.620385,40.38242],[-74.621105,40.383187],[-74.621161,40.383247],[-74.621174,40.383263],[-74.621178,40.383267],[-74.621374,40.383496],[-74.621702,40.383745],[-74.621892,40.383876],[-74.622292,40.384077],[-74.622426,40.384144],[-74.622457,40.38416],[-74.622545,40.384211],[-74.622572,40.384227],[-74.622644,40.384283],[-74.622744,40.384421],[-74.622863,40.38446],[-74.623001,40.384506],[-74.623103,40.38454],[-74.623353,40.384623],[-74.623403,40.38464],[-74.623601,40.384706],[-74.624601,40.384961],[-74.62875,40.38602],[-74.628802,40.386033],[-74.629025,40.38609],[-74.629399,40.386186],[-74.630826,40.38655],[-74.631214,40.386649],[-74.63132,40.386676],[-74.631369,40.386689],[-74.631403,40.386698],[-74.631583,40.386744],[-74.6317703,40.3867918],[-74.632179,40.386896],[-74.633977,40.387355],[-74.645039,40.390176],[-74.645444,40.390281],[-74.64555,40.39031],[-74.647372,40.390773],[-74.647502,40.390806],[-74.6511347,40.3917207],[-74.6512414,40.3916913],[-74.6517097,40.391586],[-74.6525401,40.3914001],[-74.6527703,40.39135],[-74.6531704,40.3912726],[-74.6533724,40.3912232],[-74.6536089,40.3911547],[-74.6538259,40.3910924],[-74.654111,40.3910077],[-74.6543904,40.3909211],[-74.6547026,40.3908251],[-74.6549789,40.3907408],[-74.6552634,40.3906544],[-74.6556512,40.3905476],[-74.6561292,40.3904138],[-74.6563443,40.3903506],[-74.6565028,40.3903054],[-74.6570451,40.390142],[-74.6576008,40.389965],[-74.657793,40.3899023],[-74.6581965,40.3897642],[-74.6586261,40.3896104],[-74.6594824,40.3893146],[-74.6602066,40.3890596],[-74.6606743,40.3889156],[-74.6610013,40.3888238],[-74.6613388,40.3887342],[-74.6614118,40.3887152],[-74.6626992,40.3883826],[-74.6628662,40.3883399],[-74.6631315,40.388274],[-74.6633221,40.3882212],[-74.6635641,40.3881485],[-74.6643509,40.387903],[-74.6644823,40.3878606],[-74.6664276,40.3872524],[-74.666524,40.3872236],[-74.6676813,40.3868627],[-74.6679801,40.3867762],[-74.6680686,40.3867504],[-74.6685248,40.3866189],[-74.6690738,40.3864642],[-74.6696374,40.3863028],[-74.6699726,40.3862094],[-74.670269,40.3861311],[-74.6706807,40.3860274],[-74.6709355,40.3859637],[-74.6710585,40.3859281],[-74.6711873,40.3858819],[-74.6713126,40.3858293],[-74.6714035,40.3857881],[-74.6714962,40.3857404],[-74.6715635,40.3857021],[-74.6716432,40.3856517],[-74.6717202,40.3856008],[-74.6717916,40.3855483],[-74.6718777,40.3854793],[-74.6719455,40.385421],[-74.6722169,40.3851683],[-74.672299,40.3850993],[-74.6723856,40.3850333],[-74.67247,40.384976],[-74.6725538,40.3849249],[-74.6726263,40.3848865],[-74.6727059,40.3848498],[-74.672816,40.384804],[-74.6732533,40.3846572],[-74.673727,40.3845045],[-74.6739622,40.3844371],[-74.674083,40.3844021],[-74.6743279,40.3843408],[-74.6745313,40.3842961],[-74.6747678,40.3842502],[-74.6750396,40.3842039],[-74.6752939,40.384169],[-74.6755197,40.3841457],[-74.6761984,40.3840762],[-74.6764287,40.3840485],[-74.6773027,40.3839238],[-74.6774304,40.3839063],[-74.6783436,40.383773],[-74.6786424,40.3837292],[-74.6788992,40.3836882],[-74.679159,40.3836426],[-74.6795667,40.3835664],[-74.6800297,40.383488],[-74.6801909,40.3834664],[-74.6803343,40.3834516],[-74.6805504,40.3834351],[-74.6820438,40.3833445],[-74.6835151,40.3831474],[-74.6839834,40.3830396],[-74.6842708,40.3829714],[-74.684401,40.38295],[-74.6848,40.382884],[-74.685532,40.3828022],[-74.6859038,40.3827679],[-74.6860344,40.3827558],[-74.6869377,40.3826723],[-74.687631,40.382602],[-74.687643,40.382601],[-74.687655,40.3826],[-74.688037,40.382562],[-74.688371,40.382498],[-74.688378,40.382497],[-74.689639,40.382257],[-74.6897575,40.3822277],[-74.689867,40.382211],[-74.690531,40.382075],[-74.690889,40.381975],[-74.6910372,40.3819338],[-74.6911379,40.3819058],[-74.6918159,40.3817492],[-74.6922433,40.3816515],[-74.6924145,40.3816196],[-74.6925485,40.3815985],[-74.6927039,40.3815741],[-74.6929655,40.3815262],[-74.693475,40.381453],[-74.693484,40.381452],[-74.693493,40.381451],[-74.693503,40.38145],[-74.693518,40.381448],[-74.6938596,40.3814042],[-74.694423,40.381332],[-74.695595,40.381129],[-74.69573,40.381103],[-74.6963594,40.3810198],[-74.6969127,40.3809467],[-74.697175,40.380912],[-74.697444,40.380887],[-74.697453,40.380886],[-74.6977514,40.3808576],[-74.69781,40.380852],[-74.6978639,40.3808289],[-74.6979786,40.3808197],[-74.6983226,40.3808105],[-74.6988364,40.3807928],[-74.6995311,40.3807571],[-74.7002678,40.3807064],[-74.7004956,40.3806862],[-74.7007224,40.3806637],[-74.7009032,40.3806393],[-74.701042,40.380615],[-74.7011874,40.3805838],[-74.7013976,40.3805326],[-74.7014598,40.3805176],[-74.7016609,40.3804667],[-74.7019548,40.3803907],[-74.7020026,40.3803776],[-74.7023033,40.3802977],[-74.7028248,40.3801558],[-74.7031815,40.3800609],[-74.7033099,40.3800303],[-74.7041387,40.3798218],[-74.7043617,40.3797657],[-74.7046323,40.3797032],[-74.7054067,40.3795252],[-74.7056094,40.3794793],[-74.7058203,40.3794377],[-74.7060312,40.3794019],[-74.7061284,40.3793862],[-74.7063959,40.3793529],[-74.7066324,40.3793283],[-74.7067505,40.3793172],[-74.7068701,40.3793098],[-74.7069773,40.3793104],[-74.7070642,40.3793162],[-74.7071317,40.3793235],[-74.7071992,40.3793331],[-74.7072714,40.3793459],[-74.7073446,40.3793594],[-74.707413,40.3793732],[-74.7074592,40.3793815],[-74.7075282,40.379392],[-74.707576,40.3793985],[-74.7076316,40.3794024],[-74.707685,40.3794032],[-74.7077399,40.3793964],[-74.7078191,40.379379],[-74.7078695,40.3793647],[-74.7083199,40.3791921],[-74.7083847,40.3791671],[-74.7098261,40.3786166],[-74.7107474,40.3782585],[-74.7108458,40.3782226],[-74.7109944,40.3781761],[-74.7110721,40.3781558],[-74.7111517,40.3781418],[-74.7112289,40.3781301],[-74.7113166,40.3781217],[-74.7114279,40.3781164],[-74.7115056,40.3781167],[-74.7117364,40.3781315],[-74.711824,40.3781404],[-74.711899,40.3781448],[-74.7119862,40.3781508],[-74.7120628,40.3781528],[-74.7121213,40.3781513],[-74.7121792,40.3781483],[-74.7122355,40.378143],[-74.7122984,40.3781362],[-74.7123421,40.3781305],[-74.7123883,40.3781229],[-74.7124383,40.378113],[-74.7124894,40.3781],[-74.7125762,40.3780757],[-74.7126673,40.3780457],[-74.7128108,40.3779949],[-74.7132103,40.377835],[-74.7137512,40.3776184],[-74.7138576,40.3775777],[-74.7139603,40.3775439],[-74.7141283,40.3774961],[-74.7142102,40.377476],[-74.714352,40.3774496],[-74.7144591,40.377432],[-74.7146405,40.3774027],[-74.715074,40.3773358],[-74.7158786,40.3772083],[-74.7163467,40.3771322],[-74.7171393,40.3770027],[-74.7174109,40.3769592],[-74.7175926,40.3769251],[-74.7177417,40.3768943],[-74.7178667,40.3768658],[-74.7178677,40.3768645],[-74.7179449,40.3768465],[-74.7180453,40.3768188],[-74.7182634,40.3767463],[-74.7183698,40.3767095],[-74.7184777,40.3766699],[-74.7185733,40.3766307],[-74.718802,40.3765329],[-74.7191901,40.376366],[-74.7194384,40.3762672],[-74.7199542,40.376071],[-74.7201998,40.3759732],[-74.72049,40.3758579],[-74.7207781,40.3757403],[-74.7213507,40.3755004],[-74.7218041,40.3753118],[-74.7220946,40.375189],[-74.7221037,40.375146],[-74.722104,40.3751449],[-74.7221219,40.3750605]]]}},{"type":"Feature","properties":{"name":"Holgate","url":"../lbi/holgate/index.html","osm_id":15790370,"source":"OpenStreetMap (ODbL) via Nominatim, relation 15790370"},"geometry":{"type":"Polygon","coordinates":[[[-74.2663102,39.5419034],[-74.2570332,39.5380362],[-74.2568877,39.5381797],[-74.2557951,39.5395189],[-74.2553601,39.540083],[-74.2551337,39.5403875],[-74.2548754,39.5407115],[-74.2543667,39.5412619],[-74.2540563,39.5415977],[-74.2537449,39.5419049],[-74.2535952,39.5420526],[-74.2533177,39.5423402],[-74.2521374,39.5435261],[-74.2519784,39.5436735],[-74.2513168,39.5444201],[-74.2510986,39.5446663],[-74.2505465,39.5453614],[-74.2500199,39.5460038],[-74.2498005,39.5462713],[-74.2493832,39.5467905],[-74.2505671,39.5473123],[-74.251193,39.5475792],[-74.2612713,39.5517544],[-74.2617849,39.5508572],[-74.2620785,39.550292],[-74.262682,39.5492182],[-74.263242,39.5481602],[-74.2640055,39.5466836],[-74.2642723,39.5461008],[-74.264823,39.54497],[-74.2663102,39.5419034]]]}},{"type":"Feature","properties":{"name":"Beach Haven","url":"../lbi/beach-haven/index.html","osm_id":170323,"source":"OpenStreetMap (ODbL) via Nominatim, relation 170323"},"geometry":{"type":"Polygon","coordinates":[[[-74.266843,39.581615],[-74.26655,39.579467],[-74.264243,39.57633],[-74.264159,39.576329],[-74.26366,39.575955],[-74.262862,39.575461],[-74.261324,39.574572],[-74.25968,39.573738],[-74.257989,39.572765],[-74.255865,39.571322],[-74.254808,39.570144],[-74.254249,39.569089],[-74.253842,39.567529],[-74.253845,39.566629],[-74.253849,39.565177],[-74.255156,39.562359],[-74.256354,39.559991],[-74.257661,39.556874],[-74.258575,39.555487],[-74.259763,39.554032],[-74.2612713,39.5517544],[-74.251193,39.5475792],[-74.2505671,39.5473123],[-74.2493832,39.5467905],[-74.2487437,39.5475122],[-74.2476976,39.5485588],[-74.2466086,39.549568],[-74.2460346,39.5501058],[-74.2440542,39.5517529],[-74.2436287,39.5521408],[-74.243457,39.5522752],[-74.2433658,39.5522649],[-74.2432371,39.5522256],[-74.2431727,39.5522509],[-74.2431358,39.5523037],[-74.2431452,39.5524621],[-74.242313,39.5532095],[-74.242027,39.5534697],[-74.241827,39.5536568],[-74.2416135,39.5538863],[-74.2413535,39.5541706],[-74.2410229,39.5546701],[-74.2406166,39.5550278],[-74.2400801,39.5556358],[-74.2396402,39.5560287],[-74.2393168,39.5562834],[-74.2387927,39.5569593],[-74.2384846,39.5573691],[-74.2382757,39.5576634],[-74.2380577,39.5578527],[-74.2378351,39.5581091],[-74.2375391,39.5584254],[-74.2371682,39.5587916],[-74.2364954,39.559699],[-74.2362694,39.5599959],[-74.235455,39.5608715],[-74.2351293,39.5612866],[-74.2348328,39.5617344],[-74.2345746,39.5620261],[-74.2342702,39.5623535],[-74.2340842,39.5626777],[-74.2338792,39.562994],[-74.2335672,39.5633863],[-74.2325987,39.5647555],[-74.2323527,39.5651831],[-74.2321542,39.5655202],[-74.2318994,39.5658448],[-74.2316619,39.5660695],[-74.2315344,39.5664112],[-74.2312962,39.566775],[-74.2311275,39.5670394],[-74.2307059,39.5675033],[-74.2305396,39.5677003],[-74.2303443,39.5679969],[-74.2301935,39.5682176],[-74.2299394,39.5685469],[-74.2298329,39.5689389],[-74.2296089,39.5692279],[-74.2293674,39.569383],[-74.2293325,39.5694115],[-74.2296232,39.5695452],[-74.2299182,39.5696809],[-74.2303137,39.5698628],[-74.231325,39.570263],[-74.232838,39.570908],[-74.2343027,39.5715476],[-74.2345682,39.5716648],[-74.2359835,39.5722658],[-74.249841,39.578109],[-74.266612,39.585295],[-74.266651,39.584836],[-74.266735,39.583261],[-74.266843,39.581615]]]}},{"type":"Feature","properties":{"name":"Ship Bottom","url":"../lbi/ship-bottom/index.html","osm_id":170306,"source":"OpenStreetMap (ODbL) via Nominatim, relation 170306"},"geometry":{"type":"Polygon","coordinates":[[[-74.200164,39.641792],[-74.194254,39.639429],[-74.192053,39.63856],[-74.190015,39.637491],[-74.188565,39.63717],[-74.1873798,39.6366452],[-74.1865446,39.6362874],[-74.1865674,39.6362709],[-74.186458,39.636222],[-74.1863355,39.6361801],[-74.1855059,39.6358352],[-74.1853274,39.6357603],[-74.184706,39.635493],[-74.1828203,39.6347599],[-74.1826648,39.6350284],[-74.1825093,39.635266],[-74.1822839,39.6355201],[-74.1815972,39.6363691],[-74.1811788,39.6369887],[-74.1807765,39.637534],[-74.1805726,39.6380297],[-74.1803259,39.6383148],[-74.1798806,39.6388436],[-74.1794407,39.6397772],[-74.1793442,39.6400746],[-74.1788936,39.6404546],[-74.1783464,39.6411362],[-74.1774022,39.6424747],[-74.177075,39.6430777],[-74.1767854,39.6435858],[-74.1764528,39.6440154],[-74.1757339,39.6446598],[-74.1751438,39.6453414],[-74.1746128,39.645961],[-74.1743767,39.6464608],[-74.1737813,39.6468367],[-74.1732395,39.6473818],[-74.1715094,39.6496805],[-74.1709328,39.6504797],[-74.1707075,39.6508267],[-74.1703037,39.6513904],[-74.170119,39.6515555],[-74.1712457,39.6521108],[-74.1716026,39.6522867],[-74.173038,39.65295],[-74.173585,39.65322],[-74.174115,39.653496],[-74.175602,39.654108],[-74.175617,39.654198],[-74.176527,39.654679],[-74.177394,39.655069],[-74.180044,39.65636],[-74.180232,39.656453],[-74.180649,39.656695],[-74.181186,39.656548],[-74.182118,39.656382],[-74.183532,39.655672],[-74.185035,39.654681],[-74.1854162,39.6542818],[-74.185562,39.654129],[-74.185638,39.654049],[-74.185911,39.653763],[-74.18646,39.652534],[-74.186747,39.651359],[-74.186767,39.648566],[-74.18695,39.64734],[-74.188225,39.645894],[-74.189231,39.645196],[-74.189732,39.644966],[-74.190296,39.644708],[-74.190453,39.644637],[-74.192215,39.64419],[-74.194481,39.643587],[-74.196789,39.64292],[-74.19808,39.642564],[-74.199571,39.642121],[-74.200164,39.641792]]]}},{"type":"Feature","properties":{"name":"Surf City","url":"../lbi/surf-city/index.html","osm_id":170303,"source":"OpenStreetMap (ODbL) via Nominatim, relation 170303"},"geometry":{"type":"Polygon","coordinates":[[[-74.181616,39.661166],[-74.180408,39.660059],[-74.179912,39.659391],[-74.179535,39.658523],[-74.179469,39.657771],[-74.179721,39.657225],[-74.179894,39.657103],[-74.180367,39.656773],[-74.180649,39.656695],[-74.180232,39.656453],[-74.180044,39.65636],[-74.177394,39.655069],[-74.176527,39.654679],[-74.175617,39.654198],[-74.175602,39.654108],[-74.174115,39.653496],[-74.173585,39.65322],[-74.173038,39.65295],[-74.1716026,39.6522867],[-74.1712457,39.6521108],[-74.170119,39.6515555],[-74.1699296,39.6518592],[-74.1695756,39.652392],[-74.1692215,39.6528877],[-74.1689801,39.6530942],[-74.1684115,39.6535485],[-74.1680896,39.6539863],[-74.1677948,39.6544126],[-74.167028,39.6555405],[-74.1664589,39.6563569],[-74.1660405,39.6568319],[-74.1649944,39.6580626],[-74.1640743,39.6592417],[-74.163495,39.6597765],[-74.1633797,39.660078],[-74.1629451,39.660557],[-74.1624838,39.6613582],[-74.1619957,39.662023],[-74.1618616,39.662279],[-74.1615102,39.6626456],[-74.1613831,39.6627708],[-74.1613305,39.6628025],[-74.1612627,39.6628479],[-74.1613255,39.6628992],[-74.1613445,39.6629088],[-74.1613445,39.6629285],[-74.1613347,39.6629407],[-74.1612874,39.662975],[-74.1612446,39.6630709],[-74.1611641,39.6631682],[-74.1608571,39.6634922],[-74.1604038,39.6641075],[-74.1602093,39.6644698],[-74.1599759,39.6647568],[-74.1597506,39.6650707],[-74.1596125,39.6652049],[-74.1595025,39.665338],[-74.1594623,39.6653907],[-74.1592062,39.6656849],[-74.1588923,39.6660865],[-74.1586295,39.6665139],[-74.1577189,39.6678136],[-74.1576786,39.6678477],[-74.157625,39.6678817],[-74.1575848,39.6678931],[-74.1575633,39.6679365],[-74.1575673,39.6679829],[-74.1575123,39.6680335],[-74.1573152,39.6684402],[-74.1570519,39.6688305],[-74.156718,39.6692624],[-74.1573149,39.6695375],[-74.157677,39.6697045],[-74.1588742,39.6702508],[-74.158971,39.670295],[-74.1591678,39.6703919],[-74.159375,39.670494],[-74.160035,39.670819],[-74.1608037,39.6712208],[-74.161873,39.671792],[-74.162488,39.672108],[-74.174017,39.66602],[-74.175384,39.665299],[-74.180292,39.662709],[-74.181616,39.661166]]]}},{"type":"Feature","properties":{"name":"Harvey Cedars","url":"../lbi/harvey-cedars/index.html","osm_id":170883,"source":"OpenStreetMap (ODbL) via Nominatim, relation 170883"},"geometry":{"type":"Polygon","coordinates":[[[-74.159402,39.690486],[-74.151705,39.687422],[-74.149671,39.686955],[-74.1483731,39.686322],[-74.147274,39.685924],[-74.146852,39.685762],[-74.144884,39.684974],[-74.1446552,39.684893],[-74.1439229,39.6857768],[-74.1432524,39.6867098],[-74.143129,39.6871226],[-74.1427803,39.6877419],[-74.1425604,39.6881299],[-74.1419756,39.6893105],[-74.1413051,39.690293],[-74.140876,39.6910401],[-74.1402751,39.6919813],[-74.1396582,39.6930421],[-74.1391942,39.6936056],[-74.1387784,39.6942144],[-74.1384083,39.6947428],[-74.1379764,39.6955951],[-74.1376197,39.6961462],[-74.136917,39.6968437],[-74.136461,39.6974299],[-74.1361499,39.6979541],[-74.1359568,39.6979891],[-74.1357046,39.69818],[-74.1356084,39.6982961],[-74.135391,39.6989981],[-74.134798,39.6999187],[-74.1340095,39.7012643],[-74.1334302,39.7025065],[-74.1325665,39.7041492],[-74.1319769,39.705445],[-74.1314226,39.706556],[-74.130669,39.707876],[-74.1296722,39.7096669],[-74.1295782,39.7102326],[-74.1291907,39.710961],[-74.1299921,39.71123],[-74.1302905,39.711375],[-74.1309853,39.7115616],[-74.1310108,39.7115121],[-74.131581,39.711668],[-74.1315182,39.7117786],[-74.1317363,39.7118425],[-74.1318798,39.7119242],[-74.1335213,39.7124772],[-74.13391,39.71255],[-74.134259,39.71271],[-74.141795,39.715049],[-74.1433073,39.7075157],[-74.1499494,39.6994239],[-74.1519215,39.6944601],[-74.1533293,39.6930911],[-74.159402,39.690486]]]}},{"type":"Feature","properties":{"name":"Barnegat Light","url":"../lbi/barnegat-light/index.html","osm_id":170884,"source":"OpenStreetMap (ODbL) via Nominatim, relation 170884"},"geometry":{"type":"Polygon","coordinates":[[[-74.123036,39.742174],[-74.122336,39.741798],[-74.121809,39.741516],[-74.120363,39.740975],[-74.117177,39.739782],[-74.114823,39.7389],[-74.1147035,39.7388541],[-74.114423,39.738752],[-74.1138878,39.738531],[-74.1137213,39.7387836],[-74.1133082,39.7392415],[-74.1124606,39.7403841],[-74.111656,39.7413906],[-74.1108923,39.7421367],[-74.109714,39.7435025],[-74.1083622,39.7450699],[-74.1078633,39.7454494],[-74.1068709,39.7462826],[-74.1052882,39.7475497],[-74.1041453,39.7483664],[-74.1032077,39.7490322],[-74.1025774,39.7498933],[-74.1021161,39.7510981],[-74.1009572,39.753237],[-74.1005373,39.7542878],[-74.10023,39.7546937],[-74.0999227,39.7550479],[-74.0994751,39.7556401],[-74.0991069,39.7560649],[-74.0987892,39.7563732],[-74.0985186,39.7565623],[-74.0978687,39.757014],[-74.0970111,39.7576099],[-74.0963781,39.7579625],[-74.0956056,39.7582347],[-74.0948249,39.7582944],[-74.094752,39.7583192],[-74.0946972,39.7583428],[-74.0946571,39.7583201],[-74.0946187,39.7582979],[-74.0946048,39.7582744],[-74.0945742,39.7582573],[-74.0945076,39.7582253],[-74.0944798,39.7582082],[-74.0944521,39.7581869],[-74.0944243,39.7581719],[-74.0943938,39.7581591],[-74.0943688,39.7581335],[-74.0943438,39.7581122],[-74.0943188,39.7580887],[-74.094291,39.7580737],[-74.0942577,39.7580567],[-74.0942271,39.7580439],[-74.0941883,39.7580353],[-74.0941605,39.7580161],[-74.0941272,39.7579926],[-74.094105,39.7579627],[-74.0940522,39.7579115],[-74.093932,39.7578403],[-74.0939157,39.7578326],[-74.0938932,39.7578201],[-74.0938581,39.7577999],[-74.0938369,39.7577883],[-74.0938219,39.7577797],[-74.0937981,39.7577652],[-74.0937793,39.7577547],[-74.0937493,39.7577345],[-74.0937343,39.7577248],[-74.0937218,39.7577162],[-74.0937042,39.7577046],[-74.0936917,39.7576969],[-74.093678,39.7576873],[-74.0936592,39.7576767],[-74.0936417,39.7576681],[-74.0936229,39.7576585],[-74.0936016,39.7576488],[-74.0935816,39.7576402],[-74.0934815,39.7575834],[-74.0934064,39.7575401],[-74.0933464,39.7575026],[-74.0932788,39.7574507],[-74.0931524,39.7573679],[-74.0930348,39.7572939],[-74.0929459,39.757241],[-74.0928646,39.7571919],[-74.0928233,39.7571669],[-74.0927808,39.7571477],[-74.0927457,39.7571496],[-74.0927295,39.7571659],[-74.0927194,39.7572044],[-74.0927295,39.7572506],[-74.09274,39.757261],[-74.094276,39.760235],[-74.095134,39.76075],[-74.098118,39.762755],[-74.098923,39.763296],[-74.099055,39.763386],[-74.099709,39.763848],[-74.101299,39.764913],[-74.101494,39.765044],[-74.103339,39.766283],[-74.103525,39.766408],[-74.104381,39.766982],[-74.105171,39.766434],[-74.105173,39.766245],[-74.10514,39.765054],[-74.10528,39.764941],[-74.105962,39.764998],[-74.106307,39.765027],[-74.106803,39.764915],[-74.107421,39.764778],[-74.108687,39.764036],[-74.10937,39.763564],[-74.109998,39.762713],[-74.110127,39.762075],[-74.110208,39.761808],[-74.110389,39.761218],[-74.110504,39.761201],[-74.111012,39.760956],[-74.111437,39.760703],[-74.1115523,39.7604968],[-74.111871,39.759845],[-74.112175,39.759278],[-74.11249,39.758763],[-74.112701,39.758409],[-74.113161,39.756791],[-74.113474,39.755941],[-74.114519,39.753116],[-74.11509,39.751572],[-74.115439,39.751001],[-74.115705,39.750565],[-74.115895,39.750426],[-74.116235,39.750176],[-74.117118,39.74953],[-74.117269,39.749419],[-74.1178064,39.7492215],[-74.120067,39.744872],[-74.123036,39.742174]]]}},{"type":"Feature","properties":{"name":"Sea Bright","url":"../sea-bright/index.html","osm_id":170373,"source":"OpenStreetMap (ODbL) via Nominatim, relation 170373"},"geometry":{"type":"Polygon","coordinates":[[[-73.992048,40.349444],[-73.991818,40.349302],[-73.990172,40.348211],[-73.98833,40.347043],[-73.987379,40.346419],[-73.986468,40.34582],[-73.986281,40.345727],[-73.986219,40.345724],[-73.986065,40.345717],[-73.984951,40.345729],[-73.984321,40.345735],[-73.982201,40.345732],[-73.981812,40.345732],[-73.981119,40.345732],[-73.980708,40.345733],[-73.979636,40.345733],[-73.978924,40.345734],[-73.97783,40.345736],[-73.977728,40.345736],[-73.977536,40.345814],[-73.975733,40.345839],[-73.971881,40.34581],[-73.971981,40.34821],[-73.971381,40.34801],[-73.971081,40.357109],[-73.970981,40.359709],[-73.971025,40.361009],[-73.971041,40.3615],[-73.971379,40.371703],[-73.972179,40.372603],[-73.972778,40.3779],[-73.973077,40.384096],[-73.973576,40.389294],[-73.974176,40.393791],[-73.974875,40.399487],[-73.976626,40.399421],[-73.976984,40.399371],[-73.978357,40.39919],[-73.978288,40.397742],[-73.978173,40.396264],[-73.978173,40.396224],[-73.978167,40.396155],[-73.978094,40.394375],[-73.978009,40.39234],[-73.97788,40.389209],[-73.978102,40.388916],[-73.978097,40.388884],[-73.978058,40.388652],[-73.978038,40.388312],[-73.977824,40.386344],[-73.97757,40.384156],[-73.977528,40.383546],[-73.977499,40.383391],[-73.977457,40.383161],[-73.977386,40.382501],[-73.977195,40.381023],[-73.977089,40.379984],[-73.977033,40.379559],[-73.976967,40.379055],[-73.976838,40.377898],[-73.976681,40.376487],[-73.97664,40.375449],[-73.97664,40.375066],[-73.976562,40.374477],[-73.97641,40.373044],[-73.976354,40.372406],[-73.97631,40.371905],[-73.97617,40.370493],[-73.976141,40.370264],[-73.975962,40.368844],[-73.975887,40.367722],[-73.975782,40.366913],[-73.975726,40.366486],[-73.9755264,40.3662406],[-73.975661,40.366057],[-73.975686,40.365878],[-73.975706,40.365739],[-73.975724,40.365612],[-73.975843,40.365014],[-73.975957,40.364408],[-73.976077,40.363907],[-73.976254,40.363291],[-73.976489,40.362772],[-73.976548,40.362642],[-73.976903,40.361932],[-73.977122,40.361428],[-73.977289,40.361063],[-73.977359,40.3607],[-73.977373,40.360535],[-73.977365,40.360244],[-73.977255,40.359925],[-73.977176,40.359645],[-73.977089,40.359299],[-73.977016,40.358952],[-73.976908,40.358612],[-73.976776,40.358035],[-73.976754,40.357534],[-73.976695,40.357128],[-73.976701,40.356924],[-73.976765,40.356633],[-73.976971,40.356237],[-73.977144,40.356022],[-73.977241,40.355939],[-73.977452,40.355758],[-73.977917,40.355482],[-73.978762,40.355013],[-73.979365,40.354688],[-73.979851,40.354473],[-73.980339,40.354269],[-73.980926,40.354048],[-73.981528,40.353805],[-73.982359,40.353551],[-73.982927,40.353391],[-73.983629,40.353192],[-73.984475,40.352987],[-73.9855,40.352727],[-73.986396,40.352505],[-73.987114,40.352372],[-73.987334,40.352324],[-73.98788,40.352206],[-73.98849,40.352089],[-73.988699,40.35199],[-73.989292,40.351687],[-73.989557,40.351521],[-73.989736,40.351384],[-73.990009,40.351191],[-73.990724,40.350596],[-73.990821,40.350508],[-73.991174,40.350188],[-73.991791,40.349676],[-73.992048,40.349444]]]}},{"type":"Feature","properties":{"name":"Montgomery Township","osm_id":963379,"source":"OpenStreetMap (ODbL) via Nominatim, relation 963379","url":"montgomery/index.html"},"geometry":{"type":"Polygon","coordinates":[[[-74.7520249,40.4313843],[-74.7519188,40.4311835],[-74.7516057,40.4306061],[-74.751462,40.430343],[-74.7514,40.430228],[-74.7511334,40.4297305],[-74.7509991,40.4294813],[-74.7503714,40.4283085],[-74.7502964,40.4281624],[-74.7502257,40.4280281],[-74.7500209,40.4276551],[-74.7498343,40.4273072],[-74.749535,40.426753],[-74.7494566,40.4266055],[-74.7492962,40.4263068],[-74.749284,40.4262845],[-74.749073,40.4258829],[-74.748985,40.425719],[-74.7488958,40.4255584],[-74.7487968,40.4253606],[-74.7486466,40.4250874],[-74.748562,40.4249374],[-74.74841,40.4246456],[-74.7481727,40.4242291],[-74.7410147,40.4113696],[-74.7350175,40.3991308],[-74.7225393,40.376034],[-74.7221208,40.3752611],[-74.7220946,40.375189],[-74.7218041,40.3753118],[-74.7213507,40.3755004],[-74.7207781,40.3757403],[-74.72049,40.3758579],[-74.7201998,40.3759732],[-74.7199542,40.376071],[-74.7194384,40.3762672],[-74.7191901,40.376366],[-74.718802,40.3765329],[-74.7185733,40.3766307],[-74.7184777,40.3766699],[-74.7183698,40.3767095],[-74.7182634,40.3767463],[-74.7180453,40.3768188],[-74.7179449,40.3768465],[-74.7178677,40.3768645],[-74.7178667,40.3768658],[-74.7177417,40.3768943],[-74.7175926,40.3769251],[-74.7174109,40.3769592],[-74.7171393,40.3770027],[-74.7163467,40.3771322],[-74.7158786,40.3772083],[-74.715074,40.3773358],[-74.7146405,40.3774027],[-74.7144591,40.377432],[-74.714352,40.3774496],[-74.7142102,40.377476],[-74.7141283,40.3774961],[-74.7139603,40.3775439],[-74.7138576,40.3775777],[-74.7137512,40.3776184],[-74.7132103,40.377835],[-74.7128108,40.3779949],[-74.7126673,40.3780457],[-74.7125762,40.3780757],[-74.7124894,40.3781],[-74.7124383,40.378113],[-74.7123883,40.3781229],[-74.7123421,40.3781305],[-74.7122984,40.3781362],[-74.7122355,40.378143],[-74.7121792,40.3781483],[-74.7121213,40.3781513],[-74.7120628,40.3781528],[-74.7119862,40.3781508],[-74.711899,40.3781448],[-74.711824,40.3781404],[-74.7117364,40.3781315],[-74.7115056,40.3781167],[-74.7114279,40.3781164],[-74.7113166,40.3781217],[-74.7112289,40.3781301],[-74.7111517,40.3781418],[-74.7110721,40.3781558],[-74.7109944,40.3781761],[-74.7108458,40.3782226],[-74.7107474,40.3782585],[-74.7098261,40.3786166],[-74.7083847,40.3791671],[-74.7083199,40.3791921],[-74.7078695,40.3793647],[-74.7078191,40.379379],[-74.7077399,40.3793964],[-74.707685,40.3794032],[-74.7076316,40.3794024],[-74.707576,40.3793985],[-74.7075282,40.379392],[-74.7074592,40.3793815],[-74.707413,40.3793732],[-74.7073446,40.3793594],[-74.7072714,40.3793459],[-74.7071992,40.3793331],[-74.7071317,40.3793235],[-74.7070642,40.3793162],[-74.7069773,40.3793104],[-74.7068701,40.3793098],[-74.7067505,40.3793172],[-74.7066324,40.3793283],[-74.7063959,40.3793529],[-74.7061284,40.3793862],[-74.7060312,40.3794019],[-74.7058203,40.3794377],[-74.7056094,40.3794793],[-74.7054067,40.3795252],[-74.7046323,40.3797032],[-74.7043617,40.3797657],[-74.7041387,40.3798218],[-74.7033099,40.3800303],[-74.7031815,40.3800609],[-74.7028248,40.3801558],[-74.7023033,40.3802977],[-74.7020026,40.3803776],[-74.7019548,40.3803907],[-74.7016609,40.3804667],[-74.7014598,40.3805176],[-74.7013976,40.3805326],[-74.7011874,40.3805838],[-74.701042,40.380615],[-74.7009032,40.3806393],[-74.7007224,40.3806637],[-74.7004956,40.3806862],[-74.7002678,40.3807064],[-74.6995311,40.3807571],[-74.6988364,40.3807928],[-74.6983226,40.3808105],[-74.6979786,40.3808197],[-74.6978639,40.3808289],[-74.69781,40.380852],[-74.6977514,40.3808576],[-74.697453,40.380886],[-74.697444,40.380887],[-74.697175,40.380912],[-74.6969127,40.3809467],[-74.6963594,40.3810198],[-74.69573,40.381103],[-74.695595,40.381129],[-74.694423,40.381332],[-74.6938596,40.3814042],[-74.693518,40.381448],[-74.693503,40.38145],[-74.693493,40.381451],[-74.693484,40.381452],[-74.693475,40.381453],[-74.6929655,40.3815262],[-74.6927039,40.3815741],[-74.6925485,40.3815985],[-74.6924145,40.3816196],[-74.6922433,40.3816515],[-74.6918159,40.3817492],[-74.6911379,40.3819058],[-74.6910372,40.3819338],[-74.690889,40.381975],[-74.690531,40.382075],[-74.689867,40.382211],[-74.6897575,40.3822277],[-74.689639,40.382257],[-74.688378,40.382497],[-74.688371,40.382498],[-74.688037,40.382562],[-74.687655,40.3826],[-74.687643,40.382601],[-74.687631,40.382602],[-74.6869377,40.3826723],[-74.6860344,40.3827558],[-74.6859038,40.3827679],[-74.685532,40.3828022],[-74.6848,40.382884],[-74.684401,40.38295],[-74.6842708,40.3829714],[-74.6839834,40.3830396],[-74.6835151,40.3831474],[-74.6820438,40.3833445],[-74.6805504,40.3834351],[-74.6803343,40.3834516],[-74.6801909,40.3834664],[-74.6800297,40.383488],[-74.6795667,40.3835664],[-74.679159,40.3836426],[-74.6788992,40.3836882],[-74.6786424,40.3837292],[-74.6783436,40.383773],[-74.6774304,40.3839063],[-74.6773027,40.3839238],[-74.6764287,40.3840485],[-74.6761984,40.3840762],[-74.6755197,40.3841457],[-74.6752939,40.384169],[-74.6750396,40.3842039],[-74.6747678,40.3842502],[-74.6745313,40.3842961],[-74.6743279,40.3843408],[-74.674083,40.3844021],[-74.6739622,40.3844371],[-74.673727,40.3845045],[-74.6732533,40.3846572],[-74.672816,40.384804],[-74.6727059,40.3848498],[-74.6726263,40.3848865],[-74.6725538,40.3849249],[-74.67247,40.384976],[-74.6723856,40.3850333],[-74.672299,40.3850993],[-74.6722169,40.3851683],[-74.6719455,40.385421],[-74.6718777,40.3854793],[-74.6717916,40.3855483],[-74.6717202,40.3856008],[-74.6716432,40.3856517],[-74.6715635,40.3857021],[-74.6714962,40.3857404],[-74.6714035,40.3857881],[-74.6713126,40.3858293],[-74.6711873,40.3858819],[-74.6710585,40.3859281],[-74.6709355,40.3859637],[-74.6706807,40.3860274],[-74.670269,40.3861311],[-74.6699726,40.3862094],[-74.6696374,40.3863028],[-74.6690738,40.3864642],[-74.6685248,40.3866189],[-74.6680686,40.3867504],[-74.6679801,40.3867762],[-74.6676813,40.3868627],[-74.666524,40.3872236],[-74.6664276,40.3872524],[-74.6644823,40.3878606],[-74.6643509,40.387903],[-74.6635641,40.3881485],[-74.6633221,40.3882212],[-74.6631315,40.388274],[-74.6628662,40.3883399],[-74.6626992,40.3883826],[-74.6614118,40.3887152],[-74.6613388,40.3887342],[-74.6610013,40.3888238],[-74.6606743,40.3889156],[-74.6602066,40.3890596],[-74.6594824,40.3893146],[-74.6586261,40.3896104],[-74.6581965,40.3897642],[-74.657793,40.3899023],[-74.6576008,40.389965],[-74.6570451,40.390142],[-74.6565028,40.3903054],[-74.6563443,40.3903506],[-74.6561292,40.3904138],[-74.6556512,40.3905476],[-74.6552634,40.3906544],[-74.6549789,40.3907408],[-74.6547026,40.3908251],[-74.6543904,40.3909211],[-74.654111,40.3910077],[-74.6538259,40.3910924],[-74.6536089,40.3911547],[-74.6533724,40.3912232],[-74.6531704,40.3912726],[-74.6527703,40.39135],[-74.6525401,40.3914001],[-74.6517097,40.391586],[-74.6512414,40.3916913],[-74.6511347,40.3917207],[-74.647502,40.390806],[-74.647372,40.390773],[-74.64555,40.39031],[-74.645444,40.390281],[-74.645039,40.390176],[-74.633977,40.387355],[-74.632179,40.386896],[-74.6317703,40.3867918],[-74.631583,40.386744],[-74.631403,40.386698],[-74.631369,40.386689],[-74.63132,40.386676],[-74.631214,40.386649],[-74.630826,40.38655],[-74.629399,40.386186],[-74.629025,40.38609],[-74.628802,40.386033],[-74.62875,40.38602],[-74.624601,40.384961],[-74.623601,40.384706],[-74.623403,40.38464],[-74.623353,40.384623],[-74.623103,40.38454],[-74.623001,40.384506],[-74.622863,40.38446],[-74.622744,40.384421],[-74.622916,40.384659],[-74.623454,40.385443],[-74.62389,40.386064],[-74.624281,40.386671],[-74.624301,40.386815],[-74.62434,40.387096],[-74.624418,40.388212],[-74.624446,40.388311],[-74.624576,40.388759],[-74.624596,40.388827],[-74.624885,40.388772],[-74.625116,40.388739],[-74.625411,40.388728],[-74.625618,40.388747],[-74.625698,40.388754],[-74.625957,40.388902],[-74.626058,40.389127],[-74.626081,40.389314],[-74.626067,40.389544],[-74.626032,40.38983],[-74.62601,40.390138],[-74.626027,40.390472],[-74.626036,40.390807],[-74.62611,40.39137],[-74.626157,40.391572],[-74.626261,40.392414],[-74.626275,40.392544],[-74.62629,40.392673],[-74.626315,40.392893],[-74.626331,40.393058],[-74.626373,40.393344],[-74.626448,40.393618],[-74.626541,40.393766],[-74.626722,40.394167],[-74.626822,40.394402],[-74.626867,40.394507],[-74.627038,40.395047],[-74.627151,40.395385],[-74.627228,40.395657],[-74.627249,40.395752],[-74.627296,40.395901],[-74.627348,40.396057],[-74.627448,40.396356],[-74.627665,40.397043],[-74.627891,40.39786],[-74.628008,40.398176],[-74.628095,40.398448],[-74.62816,40.398557],[-74.628232,40.398662],[-74.628355,40.398777],[-74.628377,40.398785],[-74.628556,40.398853],[-74.628906,40.399067],[-74.629139,40.399209],[-74.629217,40.399104],[-74.629323,40.399035],[-74.629512,40.398922],[-74.62954,40.398909],[-74.629949,40.398729],[-74.63035,40.398569],[-74.630579,40.398382],[-74.630794,40.398195],[-74.630952,40.39803],[-74.63154,40.397765],[-74.632207,40.397528],[-74.632493,40.397463],[-74.632644,40.397428],[-74.6330212,40.3973436],[-74.633176,40.397312],[-74.633584,40.397207],[-74.6338,40.397102],[-74.634029,40.396981],[-74.634172,40.396865],[-74.63433,40.396678],[-74.634602,40.396457],[-74.634845,40.396276],[-74.635196,40.39605],[-74.63539,40.395973],[-74.635597,40.395797],[-74.635734,40.395632],[-74.635941,40.395434],[-74.636113,40.39534],[-74.636172,40.395319],[-74.636364,40.395251],[-74.636895,40.395042],[-74.637117,40.394942],[-74.637662,40.394672],[-74.637877,40.394458],[-74.638084,40.394287],[-74.6381,40.394272],[-74.638335,40.394044],[-74.63865,40.393885],[-74.638829,40.393846],[-74.639059,40.393807],[-74.639246,40.393829],[-74.639382,40.393889],[-74.639699,40.394009],[-74.640023,40.394162],[-74.640426,40.394359],[-74.641066,40.394687],[-74.641382,40.39484],[-74.641605,40.394862],[-74.641763,40.394839],[-74.641957,40.394784],[-74.642602,40.394508],[-74.643054,40.394326],[-74.643384,40.394237],[-74.643642,40.394185],[-74.643872,40.394159],[-74.644094,40.394148],[-74.644519,40.394175],[-74.645043,40.394234],[-74.645452,40.394321],[-74.645762,40.394419],[-74.645894,40.39447],[-74.64592,40.394438],[-74.646003,40.394468],[-74.650074,40.395389],[-74.650067,40.395411],[-74.647611,40.4026291],[-74.646372,40.40561],[-74.640403,40.407462],[-74.636774,40.407327],[-74.636749,40.407326],[-74.636829,40.407518],[-74.636988,40.407899],[-74.637166,40.408336],[-74.637211,40.408461],[-74.637267,40.408611],[-74.63737,40.408857],[-74.637413,40.409011],[-74.637463,40.409289],[-74.63743,40.409554],[-74.637415,40.409622],[-74.637331,40.410098],[-74.637253,40.410301],[-74.63711,40.410549],[-74.636933,40.410828],[-74.636846,40.410994],[-74.636767,40.411197],[-74.636682,40.411384],[-74.636582,40.411692],[-74.636526,40.411945],[-74.636319,40.412286],[-74.636169,40.412478],[-74.635954,40.412709],[-74.635698,40.41301],[-74.635339,40.413419],[-74.635203,40.413597],[-74.634992,40.413871],[-74.63491,40.41398],[-74.634781,40.414134],[-74.634696,40.414255],[-74.634609,40.414348],[-74.634474,40.414431],[-74.634237,40.414536],[-74.634007,40.414597],[-74.63385,40.414647],[-74.633548,40.414658],[-74.633361,40.414686],[-74.63321,40.414747],[-74.633081,40.414884],[-74.633025,40.414956],[-74.632981,40.415038],[-74.632946,40.415192],[-74.632969,40.415357],[-74.633013,40.415492],[-74.633063,40.415725],[-74.633073,40.415815],[-74.633078,40.415862],[-74.633064,40.415961],[-74.632958,40.416057],[-74.632771,40.416236],[-74.6326,40.416445],[-74.632506,40.416549],[-74.632427,40.416731],[-74.632342,40.416907],[-74.632299,40.417093],[-74.632235,40.417264],[-74.632214,40.417429],[-74.632202,40.417477],[-74.63213,40.417705],[-74.632142,40.41774],[-74.63213,40.418158],[-74.632196,40.418346],[-74.632254,40.418472],[-74.632326,40.418593],[-74.632406,40.418763],[-74.6325,40.418927],[-74.63258,40.419097],[-74.632666,40.419229],[-74.632739,40.419399],[-74.632818,40.419519],[-74.632858,40.419627],[-74.632927,40.419783],[-74.632943,40.41985],[-74.632921,40.420024],[-74.632871,40.42014],[-74.632763,40.420272],[-74.63272,40.420338],[-74.632491,40.420552],[-74.63237,40.420657],[-74.63219,40.420784],[-74.632004,40.420867],[-74.631808,40.420887],[-74.63169,40.420918],[-74.631525,40.420933],[-74.63148,40.4209],[-74.631351,40.420857],[-74.631027,40.420698],[-74.630875,40.420633],[-74.630702,40.420572],[-74.630516,40.420485],[-74.630412,40.420465],[-74.630307,40.420398],[-74.630091,40.420305],[-74.62983,40.420223],[-74.629739,40.420177],[-74.629376,40.419967],[-74.629225,40.41986],[-74.629043,40.419751],[-74.628831,40.419605],[-74.628619,40.419514],[-74.628525,40.419512],[-74.628249,40.419507],[-74.628143,40.41951],[-74.628055,40.419513],[-74.627868,40.419541],[-74.627718,40.419579],[-74.62762,40.419652],[-74.62753,40.419713],[-74.62743,40.41977],[-74.627374,40.419816],[-74.627238,40.419943],[-74.627173,40.420086],[-74.627073,40.420245],[-74.627023,40.420333],[-74.626923,40.420454],[-74.626795,40.420624],[-74.626688,40.420839],[-74.626623,40.420954],[-74.626552,40.421168],[-74.626474,40.421344],[-74.626396,40.421548],[-74.626332,40.421751],[-74.626189,40.422059],[-74.626083,40.422389],[-74.625989,40.422548],[-74.625889,40.422674],[-74.625337,40.423016],[-74.625043,40.423209],[-74.624584,40.423747],[-74.624449,40.424211],[-74.624164,40.425181],[-74.623858,40.426026],[-74.623588,40.427078],[-74.623459,40.427818],[-74.623282,40.428362],[-74.623025,40.428668],[-74.622021,40.429512],[-74.621458,40.43002],[-74.620847,40.430527],[-74.620284,40.430936],[-74.619938,40.431205],[-74.619457,40.431376],[-74.619111,40.431474],[-74.618581,40.431504],[-74.61846,40.43151],[-74.617898,40.431474],[-74.617634,40.431474],[-74.617416,40.431474],[-74.617273,40.431522],[-74.617111,40.431577],[-74.616989,40.431715],[-74.616853,40.432048],[-74.616724,40.432421],[-74.61633,40.433271],[-74.615936,40.434012],[-74.6158109,40.4342572],[-74.61559,40.43469],[-74.615332,40.435265],[-74.615108,40.435876],[-74.615067,40.436415],[-74.615195,40.436855],[-74.615459,40.437125],[-74.615846,40.437296],[-74.616287,40.437296],[-74.617412,40.437058],[-74.61782,40.436995],[-74.618021,40.43698],[-74.618192,40.436991],[-74.618416,40.437059],[-74.618633,40.43723],[-74.618714,40.437468],[-74.618713,40.437739],[-74.618713,40.437774],[-74.618544,40.438141],[-74.6183342,40.438547],[-74.618279,40.438654],[-74.618056,40.438985],[-74.61796,40.439128],[-74.6179504,40.439144],[-74.617947,40.439147],[-74.617892,40.439229],[-74.61782,40.439351],[-74.617546,40.439816],[-74.617026,40.440482],[-74.616107,40.44154],[-74.615544,40.442115],[-74.61515,40.442592],[-74.614675,40.443198],[-74.614153,40.443772],[-74.6138,40.444114],[-74.61306,40.444622],[-74.61245,40.444982],[-74.611453,40.445533],[-74.610584,40.44604],[-74.609627,40.446516],[-74.608671,40.446951],[-74.607979,40.447189],[-74.607833,40.447245],[-74.607746,40.447279],[-74.606589,40.447732],[-74.605772,40.448],[-74.605455,40.448106],[-74.604716,40.448306],[-74.604106,40.448404],[-74.60315,40.448611],[-74.602633,40.448732],[-74.602465,40.448765],[-74.602206,40.448832],[-74.602144,40.448846],[-74.601847,40.448916],[-74.601108,40.449283],[-74.600632,40.449692],[-74.600531,40.449799],[-74.600018,40.450338],[-74.599514,40.450887],[-74.59937,40.451044],[-74.5988,40.45152],[-74.597802,40.452183],[-74.596587,40.452923],[-74.596105,40.453332],[-74.595671,40.453871],[-74.594936,40.455014],[-74.595024,40.455029],[-74.5967634,40.4553229],[-74.597655,40.455507],[-74.600387,40.456071],[-74.600943,40.456179],[-74.6025159,40.4565119],[-74.6027122,40.4565525],[-74.60283,40.4565772],[-74.6040644,40.4568349],[-74.6044751,40.4569161],[-74.6058597,40.4571741],[-74.6064016,40.4572751],[-74.607028,40.4574193],[-74.6076267,40.4575416],[-74.6082411,40.4576814],[-74.6087278,40.4577979],[-74.610577,40.458182],[-74.611381,40.458342],[-74.6129926,40.4586849],[-74.6145825,40.4590049],[-74.6155639,40.4592115],[-74.6157203,40.4592525],[-74.6158323,40.4592865],[-74.6161288,40.4594091],[-74.6164196,40.4595757],[-74.61654,40.4596357],[-74.616841,40.4597632],[-74.6170501,40.4598226],[-74.6189556,40.4602114],[-74.6204625,40.4605394],[-74.6221697,40.4608924],[-74.6235099,40.4611716],[-74.6249893,40.4614673],[-74.625706,40.4616095],[-74.6265525,40.4617837],[-74.6269215,40.4618624],[-74.6271052,40.4618999],[-74.6284566,40.4621682],[-74.6286075,40.4622008],[-74.6292129,40.4623204],[-74.6297119,40.4624316],[-74.6298826,40.4624664],[-74.6300117,40.4624923],[-74.630759,40.462643],[-74.6315557,40.4628346],[-74.6331575,40.4632529],[-74.634531,40.463599],[-74.6360498,40.4639932],[-74.6362416,40.464041],[-74.6367303,40.4641781],[-74.636053,40.465564],[-74.638528,40.466008],[-74.640116,40.466285],[-74.6403051,40.4663198],[-74.641655,40.466568],[-74.6418133,40.4666114],[-74.642819,40.466804],[-74.64472,40.467261],[-74.6459949,40.4675671],[-74.646347,40.467622],[-74.6486114,40.4680952],[-74.6501441,40.4683936],[-74.6524406,40.4688813],[-74.6568282,40.4698583],[-74.6572369,40.4699479],[-74.6577134,40.470052],[-74.6591614,40.470346],[-74.662161,40.4710067],[-74.665188,40.471637],[-74.6760255,40.4706514],[-74.691391,40.469614],[-74.706297,40.468406],[-74.70911,40.459402],[-74.71075,40.453942],[-74.711396,40.451792],[-74.712804,40.447104],[-74.714477,40.442201],[-74.71471,40.44214],[-74.7166649,40.4418548],[-74.7168847,40.4418221],[-74.7170564,40.441771],[-74.7178318,40.4414445],[-74.7179075,40.4414328],[-74.7180052,40.4414355],[-74.7182328,40.4414846],[-74.7184997,40.4415628],[-74.7186838,40.4415985],[-74.7187178,40.4416049],[-74.7189218,40.4416228],[-74.7194899,40.4415742],[-74.720062,40.441498],[-74.7203158,40.4414763],[-74.7224831,40.4412381],[-74.723017,40.441198],[-74.724164,40.441073],[-74.725484,40.440945],[-74.7263214,40.4408707],[-74.728705,40.440635],[-74.729518,40.440559],[-74.733554,40.440134],[-74.7338054,40.4401107],[-74.7346372,40.4400275],[-74.7348535,40.4400047],[-74.736554,40.439817],[-74.737448,40.439723],[-74.7381283,40.4396658],[-74.7382744,40.4396544],[-74.7387401,40.4396444],[-74.7389,40.439641],[-74.7389888,40.4396597],[-74.7390676,40.4397038],[-74.7391581,40.4397651],[-74.7392932,40.4398567],[-74.7393785,40.4397764],[-74.7394753,40.4396978],[-74.7395104,40.4396686],[-74.7395703,40.4396376],[-74.7402204,40.4394324],[-74.7403873,40.4393376],[-74.7411934,40.4387708],[-74.74233,40.438009],[-74.743413,40.437291],[-74.7445,40.436557],[-74.745188,40.436116],[-74.7456611,40.435811],[-74.7458939,40.4356554],[-74.7467994,40.4350491],[-74.7471755,40.4348087],[-74.747861,40.434327],[-74.748113,40.434145],[-74.7484492,40.4339131],[-74.748622,40.4338052],[-74.748862,40.433677],[-74.748937,40.433659],[-74.7520249,40.4313843]]]}}]}