{"type":"FeatureCollection","features":[{"type":"Feature","properties":{"name":"New Canaan","osm_id":11052088,"source":"OpenStreetMap (ODbL) via Nominatim, relation 11052088"},"geometry":{"type":"Polygon","coordinates":[[[-73.5548725,41.1798973],[-73.554638,41.179929],[-73.554434,41.179798],[-73.554216,41.179704],[-73.554136,41.179699],[-73.55402,41.179649],[-73.553737,41.179441],[-73.553621,41.179282],[-73.553599,41.179199],[-73.553642,41.178771],[-73.553603,41.178671],[-73.55357,41.178584],[-73.553381,41.178392],[-73.552842,41.177276],[-73.552303,41.176159],[-73.552265,41.17608],[-73.552297,41.176004],[-73.553052,41.17417],[-73.553023,41.174138],[-73.551242,41.17215],[-73.549462,41.170161],[-73.549354,41.170041],[-73.549247,41.169921],[-73.547366,41.167821],[-73.545486,41.16572],[-73.544695,41.165215],[-73.544645,41.165183],[-73.544626,41.165191],[-73.544533,41.165175],[-73.544396,41.165153],[-73.544281,41.164984],[-73.544229,41.164907],[-73.544225,41.164886],[-73.544201,41.164864],[-73.544133,41.164764],[-73.543988,41.164048],[-73.543746,41.163657],[-73.542368,41.16338],[-73.541987,41.163129],[-73.541772,41.162823],[-73.541567,41.162261],[-73.541319,41.161964],[-73.541248,41.161873],[-73.540955,41.161495],[-73.540942,41.160957],[-73.540442,41.160281],[-73.540178,41.16012],[-73.540021,41.160067],[-73.539769,41.160083],[-73.539324,41.160191],[-73.538834,41.160014],[-73.538724,41.160052],[-73.538369,41.15949],[-73.537455,41.158891],[-73.537242,41.158563],[-73.536468,41.158243],[-73.53613,41.158015],[-73.535784,41.157795],[-73.535549,41.157438],[-73.535476,41.156983],[-73.53515,41.15658],[-73.53499,41.155896],[-73.534917,41.1558],[-73.534868,41.155717],[-73.534601,41.155524],[-73.534295,41.155369],[-73.533978,41.155327],[-73.533477,41.155282],[-73.533337,41.155224],[-73.533082,41.155006],[-73.532602,41.154791],[-73.53233,41.154598],[-73.532327,41.154389],[-73.532883,41.154182],[-73.533056,41.153956],[-73.533048,41.153657],[-73.533047,41.15359],[-73.532741,41.153434],[-73.532641,41.153231],[-73.532725,41.15298],[-73.53299,41.152199],[-73.533054,41.151972],[-73.533469,41.151731],[-73.534215,41.151626],[-73.534351,41.151521],[-73.534369,41.151483],[-73.534359,41.151199],[-73.534134,41.15024],[-73.534096,41.15003],[-73.534057,41.149819],[-73.534021,41.149728],[-73.533438,41.148264],[-73.533319,41.147963],[-73.533282,41.14787],[-73.533245,41.147776],[-73.533192,41.147636],[-73.53314,41.147496],[-73.532418,41.14557],[-73.53176,41.143813],[-73.530105,41.1394],[-73.529938,41.138954],[-73.529112,41.136749],[-73.528915,41.136223],[-73.528326,41.134647],[-73.52813,41.134122],[-73.528101,41.134045],[-73.528014,41.133814],[-73.527986,41.133737],[-73.527414,41.132209],[-73.525701,41.127627],[-73.52513,41.1261],[-73.524603,41.124657],[-73.523025,41.12033],[-73.5225,41.118888],[-73.52247,41.118793],[-73.522434,41.118679],[-73.522236,41.118052],[-73.52217,41.117844],[-73.5212669,41.1144981],[-73.517043,41.114353],[-73.515722,41.114307],[-73.51474,41.114344],[-73.511794,41.114458],[-73.510813,41.114496],[-73.509497,41.114393],[-73.508441,41.114311],[-73.508252,41.114297],[-73.508051,41.114248],[-73.50784,41.114196],[-73.504634,41.114295],[-73.502652,41.114355],[-73.502193,41.11437],[-73.500756,41.114414],[-73.5006061,41.114429],[-73.4999593,41.1144308],[-73.498272,41.1144061],[-73.497701,41.114399],[-73.496849,41.114278],[-73.495812,41.114141],[-73.495602,41.11417],[-73.494858,41.114273],[-73.494274,41.114353],[-73.493416,41.114472],[-73.493237,41.114426],[-73.493119,41.114404],[-73.492957,41.114375],[-73.492615,41.114343],[-73.492227,41.114329],[-73.492212,41.114328],[-73.491909,41.114312],[-73.491491,41.114264],[-73.491361,41.114259],[-73.49018,41.11422],[-73.489711,41.114219],[-73.48915,41.114272],[-73.488482,41.114241],[-73.488306,41.114249],[-73.488207,41.114254],[-73.487982,41.114251],[-73.487651,41.114253],[-73.487219,41.114234],[-73.486814,41.114235],[-73.486638,41.114236],[-73.486318,41.114208],[-73.486209,41.114198],[-73.486166,41.114182],[-73.485999,41.114121],[-73.485746,41.113988],[-73.48561,41.113916],[-73.485606,41.113902],[-73.485596,41.113862],[-73.485593,41.113849],[-73.484811,41.113942],[-73.482468,41.114222],[-73.481687,41.114316],[-73.481154,41.114374],[-73.479559,41.114548],[-73.479027,41.114607],[-73.478134,41.114624],[-73.47773,41.114633],[-73.475457,41.114678],[-73.4745657,41.1147043],[-73.4744087,41.1149093],[-73.4739417,41.1155243],[-73.4737867,41.1157303],[-73.4732457,41.1164213],[-73.4729107,41.1168503],[-73.4716227,41.1184973],[-73.4710827,41.1191893],[-73.4709007,41.1194583],[-73.4703587,41.1202673],[-73.4701777,41.1205373],[-73.4698607,41.1209403],[-73.4689117,41.1221493],[-73.4687127,41.1224033],[-73.4686537,41.1224783],[-73.4685957,41.1225533],[-73.4685447,41.1226223],[-73.4684947,41.1226913],[-73.4683357,41.1229073],[-73.4675577,41.1239723],[-73.4673787,41.1242173],[-73.4672987,41.1243273],[-73.4670747,41.1246123],[-73.4667297,41.1250543],[-73.4664217,41.1254833],[-73.4662262,41.1257523],[-73.4662107,41.1257783],[-73.4659977,41.1260493],[-73.4659787,41.1260743],[-73.4657237,41.1263983],[-73.4653587,41.1268613],[-73.4651467,41.1271333],[-73.4650597,41.1272443],[-73.4648017,41.1275793],[-73.4647157,41.1276913],[-73.4643617,41.1281193],[-73.4633017,41.1294053],[-73.4629487,41.1298343],[-73.4622597,41.1307123],[-73.4601937,41.1333463],[-73.4595057,41.1342253],[-73.4593687,41.1343623],[-73.4589597,41.1347733],[-73.4588237,41.1349113],[-73.4587117,41.1350753],[-73.4586177,41.1352123],[-73.4580027,41.1361193],[-73.4577977,41.1364223],[-73.4574257,41.1370733],[-73.4563107,41.1390283],[-73.4559397,41.1396803],[-73.4557737,41.1399223],[-73.4552787,41.1406503],[-73.4552757,41.1406563],[-73.4551147,41.1408933],[-73.4547437,41.1415813],[-73.4536317,41.1436493],[-73.4532617,41.1443383],[-73.4530327,41.1446883],[-73.4523467,41.1457413],[-73.4521187,41.1460923],[-73.4518177,41.1466163],[-73.4512847,41.1475473],[-73.4510857,41.1478953],[-73.4509157,41.1481903],[-73.4506157,41.1487153],[-73.4504377,41.1489373],[-73.4499077,41.1496063],[-73.4497307,41.1498293],[-73.4496837,41.1498843],[-73.4495447,41.1500523],[-73.4494987,41.1501083],[-73.4494787,41.1502243],[-73.4493787,41.1507963],[-73.4490187,41.1528633],[-73.4488987,41.1535523],[-73.4488607,41.1535923],[-73.4488357,41.1536203],[-73.4488137,41.1536473],[-73.4488717,41.1537193],[-73.4489071,41.1537623],[-73.4489111,41.1537983],[-73.4490121,41.1539783],[-73.4490811,41.1541343],[-73.4491301,41.1541893],[-73.4491491,41.1542683],[-73.4491631,41.1543273],[-73.4491901,41.1544693],[-73.4492251,41.1545923],[-73.4492581,41.1550203],[-73.4492961,41.1552513],[-73.4494781,41.1560303],[-73.4497101,41.1568293],[-73.4497401,41.1568683],[-73.4497361,41.1569173],[-73.4498131,41.1571813],[-73.4501431,41.1576423],[-73.4504031,41.1580053],[-73.4508791,41.1585123],[-73.4514141,41.1587433],[-73.4519671,41.1589483],[-73.4521971,41.1592253],[-73.4525431,41.1596403],[-73.4528751,41.1597563],[-73.4529751,41.1597913],[-73.4534871,41.1594953],[-73.4541001,41.1593723],[-73.4542951,41.1592513],[-73.4544361,41.1591653],[-73.4546291,41.1590893],[-73.4548891,41.1591713],[-73.4553881,41.1594413],[-73.4563371,41.1598103],[-73.4570441,41.1601223],[-73.4574611,41.1602073],[-73.4577161,41.1601553],[-73.4579511,41.1601083],[-73.4583081,41.1600303],[-73.4584061,41.1600093],[-73.4586571,41.1600733],[-73.4587872,41.1601063],[-73.4593542,41.1604693],[-73.4598872,41.1607793],[-73.4600102,41.1608163],[-73.4603892,41.1609313],[-73.4605222,41.1609133],[-73.4611232,41.1608353],[-73.4616452,41.1608683],[-73.4620962,41.1609783],[-73.4622162,41.1610083],[-73.4626202,41.1610623],[-73.4629812,41.1611103],[-73.4633292,41.1611153],[-73.4635702,41.1612633],[-73.4640232,41.1612693],[-73.4642952,41.1615233],[-73.4640272,41.1618223],[-73.4642812,41.1621423],[-73.4641962,41.1623403],[-73.4640972,41.1625743],[-73.4640815,41.1627266],[-73.4640742,41.1627973],[-73.4641812,41.1630043],[-73.4643552,41.1631493],[-73.4646272,41.1636433],[-73.4646372,41.1636683],[-73.4647282,41.1638863],[-73.4650092,41.1641063],[-73.4652732,41.1640643],[-73.4654762,41.1640763],[-73.4656842,41.1643583],[-73.4658132,41.1644503],[-73.4661602,41.1644283],[-73.4662792,41.1644473],[-73.4664652,41.1646483],[-73.4665002,41.1647823],[-73.4665862,41.1651013],[-73.4666562,41.1652773],[-73.4666872,41.1653553],[-73.4668352,41.1655103],[-73.4668132,41.1655853],[-73.4665532,41.1664563],[-73.4657102,41.1692953],[-73.4654292,41.1702423],[-73.4653962,41.1713843],[-73.4652992,41.1748133],[-73.4652672,41.1759563],[-73.4653972,41.1760103],[-73.4655502,41.1761523],[-73.4656002,41.1762243],[-73.4658522,41.1764583],[-73.4658842,41.1764873],[-73.4662112,41.1765973],[-73.4663782,41.1767013],[-73.4666332,41.1770313],[-73.4668872,41.1772833],[-73.4669672,41.1774753],[-73.4671632,41.1775963],[-73.4674472,41.1776013],[-73.4677032,41.1775403],[-73.4682102,41.1774203],[-73.4684712,41.1774013],[-73.4685072,41.1773983],[-73.4687472,41.1774313],[-73.4688562,41.1774913],[-73.4690672,41.1776613],[-73.4693512,41.1779583],[-73.4694822,41.1782053],[-73.4694892,41.1783143],[-73.4695382,41.1784403],[-73.4695842,41.1785563],[-73.4697872,41.1787543],[-73.4698962,41.1789793],[-73.4699912,41.1791383],[-73.4702742,41.1792863],[-73.4709852,41.1795353],[-73.4710632,41.1796093],[-73.4713502,41.1798843],[-73.4714232,41.1799233],[-73.4722512,41.1802133],[-73.4727382,41.1804993],[-73.4730072,41.1806963],[-73.4732182,41.1810043],[-73.4732532,41.1811763],[-73.4732842,41.1813223],[-73.4732552,41.1815863],[-73.4732982,41.1816573],[-73.4733852,41.1817173],[-73.4734582,41.1818113],[-73.4735022,41.1819093],[-73.4733782,41.1820523],[-73.4733282,41.1821183],[-73.4730952,41.1823103],[-73.4729042,41.1823873],[-73.4728682,41.1824013],[-73.4727602,41.1824443],[-73.4727392,41.1824533],[-73.4727242,41.1824543],[-73.4723032,41.1824863],[-73.4722522,41.1825193],[-73.4722092,41.1826893],[-73.4723762,41.1828603],[-73.4724052,41.1829313],[-73.4724562,41.1831833],[-73.4726022,41.1834473],[-73.4727252,41.1836063],[-73.4727762,41.1836833],[-73.4727772,41.1836993],[-73.4728132,41.1841393],[-73.4728132,41.1844193],[-73.4728562,41.1845174],[-73.4728202,41.1850014],[-73.4724792,41.1854234],[-73.4723852,41.1855664],[-73.4723342,41.1857144],[-73.4723702,41.1858414],[-73.4722112,41.1862744],[-73.4713162,41.1870844],[-73.4706622,41.1884824],[-73.4701412,41.1895984],[-73.4707012,41.1898444],[-73.4708972,41.1900144],[-73.4718422,41.1905134],[-73.4722272,41.1907934],[-73.4725042,41.1910514],[-73.4726842,41.1912414],[-73.4728532,41.1914194],[-73.4729472,41.1918964],[-73.4728172,41.1924564],[-73.4720342,41.1943884],[-73.4731092,41.1950864],[-73.4731602,41.1952014],[-73.4731752,41.1954924],[-73.4731022,41.1960854],[-73.4731312,41.1961514],[-73.4732112,41.1962724],[-73.4733642,41.1963324],[-73.4735752,41.1963494],[-73.4736772,41.1963764],[-73.4737572,41.1964144],[-73.4740042,41.1966124],[-73.4741572,41.1968314],[-73.4742432,41.1970944],[-73.4742732,41.1971834],[-73.4743732,41.1973154],[-73.4756912,41.1990604],[-73.4759872,41.1997114],[-73.4764082,41.2006354],[-73.4764432,41.2007114],[-73.4764572,41.2007404],[-73.4768772,41.2016654],[-73.4771742,41.2023174],[-73.4774882,41.2029084],[-73.4777612,41.2034234],[-73.4778282,41.2035544],[-73.4784122,41.2046934],[-73.4787192,41.2052894],[-73.4787112,41.2054334],[-73.4787312,41.2055324],[-73.4788282,41.2060204],[-73.4788392,41.2062014],[-73.4788782,41.2062964],[-73.4789172,41.2063944],[-73.4791092,41.2066034],[-73.4792522,41.2067804],[-73.4802622,41.2079194],[-73.4814932,41.2080964],[-73.4822912,41.2076244],[-73.4826902,41.2076554],[-73.4827842,41.2076994],[-73.4834752,41.2079074],[-73.4836712,41.2080124],[-73.4837662,41.2081214],[-73.4837812,41.2082154],[-73.4842122,41.2090044],[-73.4844072,41.2090304],[-73.4848002,41.2112654],[-73.4848392,41.2114588],[-73.492248,41.208287],[-73.512454,41.199401],[-73.514174,41.19857],[-73.517826,41.19687],[-73.523655,41.194091],[-73.530529,41.190863],[-73.535806,41.188504],[-73.5358714,41.1884739],[-73.540143,41.186507],[-73.55155,41.181404],[-73.5548725,41.1798973]]]}}]}