{"type":"FeatureCollection","features":[{"type":"Feature","properties":{"name":"Princeton","osm_id":961744,"source":"OpenStreetMap (ODbL) via Nominatim, relation 961744"},"geometry":{"type":"Polygon","coordinates":[[[-74.7221219,40.3750605],[-74.7218857,40.3746188],[-74.7218584,40.3745674],[-74.721763,40.374388],[-74.7212976,40.3734626],[-74.7212577,40.3733831],[-74.7207384,40.3724175],[-74.7205491,40.3720215],[-74.720492,40.371902],[-74.7203339,40.3715726],[-74.720313,40.371529],[-74.7201345,40.3711602],[-74.719952,40.370783],[-74.7199129,40.3707068],[-74.719666,40.370225],[-74.719366,40.36967],[-74.7192269,40.3694247],[-74.7191558,40.3692994],[-74.719054,40.36912],[-74.718814,40.3686913],[-74.7184753,40.3680169],[-74.7180777,40.3673432],[-74.7178459,40.3669354],[-74.7177614,40.3667771],[-74.7175793,40.3664763],[-74.7174873,40.366314],[-74.7161614,40.3638696],[-74.7155841,40.3629508],[-74.7150738,40.361999],[-74.7148823,40.3616543],[-74.7148734,40.3616408],[-74.7147722,40.3614886],[-74.71465,40.361267],[-74.714279,40.360502],[-74.7141759,40.3603053],[-74.7141202,40.3601991],[-74.7137429,40.359488],[-74.713669,40.3593488],[-74.7131124,40.3583002],[-74.7130368,40.3581578],[-74.712875,40.357853],[-74.7126956,40.3575134],[-74.71265,40.357427],[-74.712136,40.356436],[-74.7120316,40.3562345],[-74.711962,40.356102],[-74.7117116,40.3556576],[-74.7114297,40.3551574],[-74.711354,40.355023],[-74.7098155,40.3522211],[-74.7096716,40.3519717],[-74.7095599,40.3517902],[-74.7091966,40.3511195],[-74.7089785,40.3507168],[-74.708586,40.349992],[-74.7085676,40.349957],[-74.7083265,40.3494978],[-74.7081164,40.3490976],[-74.7080038,40.3488832],[-74.707748,40.348396],[-74.7076804,40.3482751],[-74.7076526,40.3482252],[-74.7073337,40.3476546],[-74.707078,40.347197],[-74.7069652,40.3469952],[-74.706808,40.346714],[-74.7066661,40.3464526],[-74.7064765,40.3461031],[-74.70642,40.345999],[-74.7057419,40.3447534],[-74.705248,40.343838],[-74.7047032,40.3428202],[-74.704655,40.342722],[-74.7044345,40.3423072],[-74.7044311,40.3423008],[-74.7040303,40.3415469],[-74.703983,40.341458],[-74.7037597,40.3410592],[-74.7035848,40.3407469],[-74.7027417,40.3392413],[-74.7024494,40.3387192],[-74.702442,40.338706],[-74.702268,40.338388],[-74.7022457,40.3383451],[-74.702106,40.338076],[-74.7020353,40.3379324],[-74.701951,40.337761],[-74.7018567,40.3375581],[-74.7016899,40.3371989],[-74.7016213,40.3370513],[-74.701447,40.336676],[-74.7013152,40.3364475],[-74.7011251,40.3361179],[-74.7007781,40.3355179],[-74.695153,40.325056],[-74.6845521,40.3048856],[-74.678061,40.309048],[-74.6773615,40.3095306],[-74.6766481,40.3100805],[-74.676178,40.310689],[-74.67585,40.311083],[-74.675562,40.311482],[-74.674906,40.312218],[-74.674362,40.312898],[-74.674094,40.313194],[-74.673511,40.3139],[-74.672935,40.31455],[-74.672137,40.315485],[-74.671628,40.315996],[-74.671407,40.316165],[-74.670683,40.316646],[-74.668403,40.317893],[-74.66666,40.318798],[-74.666267,40.31898],[-74.666024,40.319094],[-74.664972,40.319631],[-74.664066,40.320086],[-74.663215,40.320545],[-74.662358,40.321134],[-74.660943,40.322208],[-74.660323,40.322708],[-74.659783,40.323143],[-74.658168,40.324401],[-74.657517,40.324938],[-74.65643,40.325644],[-74.656025,40.326077],[-74.6554796,40.3266128],[-74.6547225,40.3276],[-74.654614,40.327739],[-74.654399,40.328194],[-74.653708,40.329381],[-74.653131,40.330398],[-74.652856,40.33095],[-74.65243,40.331732],[-74.6523895,40.3318068],[-74.65238,40.331824],[-74.652341,40.331895],[-74.652132,40.332279],[-74.652103,40.332328],[-74.651962,40.332573],[-74.65111,40.33404],[-74.651099,40.334059],[-74.65109,40.334077],[-74.651051,40.334148],[-74.650569,40.335081],[-74.649863,40.336161],[-74.649749,40.336333],[-74.649213,40.337131],[-74.64794,40.338659],[-74.647708,40.338909],[-74.6476388,40.3389839],[-74.647578,40.339049],[-74.647564,40.339065],[-74.647362,40.339283],[-74.646853,40.339763],[-74.645981,40.340356],[-74.64533,40.340781],[-74.644713,40.341123],[-74.644496,40.341196],[-74.643949,40.341378],[-74.643225,40.341516],[-74.643034,40.341541],[-74.641726,40.341708],[-74.641232,40.341771],[-74.640213,40.341884],[-74.639577,40.341924],[-74.637981,40.342097],[-74.637303,40.34215],[-74.6372484,40.342155],[-74.637064,40.342168],[-74.636203,40.342235],[-74.635728,40.342265],[-74.6345,40.342377],[-74.633407,40.342433],[-74.63251,40.342544],[-74.631883,40.342659],[-74.630945,40.342969],[-74.630643,40.343121],[-74.630436,40.343225],[-74.630331,40.343255],[-74.630001,40.343407],[-74.630001,40.343424],[-74.630001,40.343467],[-74.630001,40.343587],[-74.630001,40.343647],[-74.630001,40.343707],[-74.630001,40.343968],[-74.630001,40.344615],[-74.630001,40.344748],[-74.630001,40.344969],[-74.630001,40.345008],[-74.630001,40.345029],[-74.630001,40.345092],[-74.630001,40.345112],[-74.630001,40.345118],[-74.630001,40.34525],[-74.630001,40.345407],[-74.629928,40.345652],[-74.629914,40.345698],[-74.629889,40.345783],[-74.629884,40.345801],[-74.629871,40.345843],[-74.629868,40.345854],[-74.629863,40.345871],[-74.629854,40.3459],[-74.629845,40.345929],[-74.629837,40.345957],[-74.629457,40.347239],[-74.628267,40.351253],[-74.62787,40.35259],[-74.627854,40.352645],[-74.627785,40.352878],[-74.627528,40.353743],[-74.627505,40.353817],[-74.627443,40.354031],[-74.627426,40.354086],[-74.627378,40.354248],[-74.627362,40.354302],[-74.627345,40.354358],[-74.627304,40.354494],[-74.627295,40.354526],[-74.627279,40.354582],[-74.627271,40.354611],[-74.627246,40.354694],[-74.627238,40.354721],[-74.627225,40.354764],[-74.6271951,40.3548608],[-74.627145,40.355035],[-74.627108,40.35516],[-74.627101,40.355182],[-74.627065,40.355302],[-74.626736,40.356413],[-74.626718,40.356474],[-74.626588,40.356912],[-74.626501,40.357206],[-74.626495,40.357239],[-74.626228,40.358606],[-74.625233,40.363706],[-74.6250386,40.3642573],[-74.6250409,40.3647863],[-74.6249978,40.3650781],[-74.624901,40.365406],[-74.624626,40.366094],[-74.624501,40.366406],[-74.623879,40.366605],[-74.622706,40.36698],[-74.62236,40.367091],[-74.622227,40.367134],[-74.62216,40.367155],[-74.622001,40.367206],[-74.621696,40.367731],[-74.6209,40.3691],[-74.620867,40.369161],[-74.620787,40.369312],[-74.62075,40.369383],[-74.62057,40.369759],[-74.62056,40.369869],[-74.620511,40.370004],[-74.6204229,40.3701943],[-74.620339,40.370767],[-74.62033,40.370814],[-74.620295,40.370981],[-74.6202,40.371445],[-74.619778,40.37349],[-74.619673,40.374],[-74.619604,40.374334],[-74.6195908,40.3743939],[-74.619527,40.374545],[-74.61951,40.374583],[-74.619438,40.374654],[-74.619393,40.374698],[-74.619366,40.374724],[-74.619312,40.374777],[-74.619258,40.37483],[-74.619252,40.374859],[-74.619233,40.374875],[-74.61919,40.374912],[-74.619155,40.374921],[-74.619149,40.374928],[-74.619005,40.37511],[-74.618912,40.375267],[-74.618697,40.375601],[-74.61864,40.375693],[-74.618531,40.37587],[-74.618444,40.375998],[-74.618439,40.376006],[-74.618426,40.376024],[-74.618227,40.376289],[-74.617865,40.376801],[-74.617834,40.376861],[-74.617692,40.377133],[-74.617592,40.377324],[-74.617531,40.377523],[-74.617508,40.377596],[-74.617525,40.377862],[-74.617564,40.378003],[-74.617655,40.378227],[-74.617719,40.378422],[-74.617914,40.379139],[-74.618074,40.379515],[-74.618148,40.37969],[-74.618429,40.380116],[-74.618495,40.380217],[-74.618777,40.380552],[-74.618781,40.380556],[-74.618785,40.380561],[-74.618789,40.380566],[-74.618793,40.380571],[-74.618797,40.380576],[-74.618801,40.380581],[-74.618805,40.380586],[-74.618809,40.380591],[-74.618813,40.380596],[-74.618817,40.380601],[-74.618821,40.380606],[-74.619315,40.381196],[-74.6196,40.381522],[-74.620385,40.38242],[-74.621105,40.383187],[-74.621161,40.383247],[-74.621174,40.383263],[-74.621178,40.383267],[-74.621374,40.383496],[-74.621702,40.383745],[-74.621892,40.383876],[-74.622292,40.384077],[-74.622426,40.384144],[-74.622457,40.38416],[-74.622545,40.384211],[-74.622572,40.384227],[-74.622644,40.384283],[-74.622744,40.384421],[-74.622863,40.38446],[-74.623001,40.384506],[-74.623103,40.38454],[-74.623353,40.384623],[-74.623403,40.38464],[-74.623601,40.384706],[-74.624601,40.384961],[-74.62875,40.38602],[-74.628802,40.386033],[-74.629025,40.38609],[-74.629399,40.386186],[-74.630826,40.38655],[-74.631214,40.386649],[-74.63132,40.386676],[-74.631369,40.386689],[-74.631403,40.386698],[-74.631583,40.386744],[-74.6317703,40.3867918],[-74.632179,40.386896],[-74.633977,40.387355],[-74.645039,40.390176],[-74.645444,40.390281],[-74.64555,40.39031],[-74.647372,40.390773],[-74.647502,40.390806],[-74.6511347,40.3917207],[-74.6512414,40.3916913],[-74.6517097,40.391586],[-74.6525401,40.3914001],[-74.6527703,40.39135],[-74.6531704,40.3912726],[-74.6533724,40.3912232],[-74.6536089,40.3911547],[-74.6538259,40.3910924],[-74.654111,40.3910077],[-74.6543904,40.3909211],[-74.6547026,40.3908251],[-74.6549789,40.3907408],[-74.6552634,40.3906544],[-74.6556512,40.3905476],[-74.6561292,40.3904138],[-74.6563443,40.3903506],[-74.6565028,40.3903054],[-74.6570451,40.390142],[-74.6576008,40.389965],[-74.657793,40.3899023],[-74.6581965,40.3897642],[-74.6586261,40.3896104],[-74.6594824,40.3893146],[-74.6602066,40.3890596],[-74.6606743,40.3889156],[-74.6610013,40.3888238],[-74.6613388,40.3887342],[-74.6614118,40.3887152],[-74.6626992,40.3883826],[-74.6628662,40.3883399],[-74.6631315,40.388274],[-74.6633221,40.3882212],[-74.6635641,40.3881485],[-74.6643509,40.387903],[-74.6644823,40.3878606],[-74.6664276,40.3872524],[-74.666524,40.3872236],[-74.6676813,40.3868627],[-74.6679801,40.3867762],[-74.6680686,40.3867504],[-74.6685248,40.3866189],[-74.6690738,40.3864642],[-74.6696374,40.3863028],[-74.6699726,40.3862094],[-74.670269,40.3861311],[-74.6706807,40.3860274],[-74.6709355,40.3859637],[-74.6710585,40.3859281],[-74.6711873,40.3858819],[-74.6713126,40.3858293],[-74.6714035,40.3857881],[-74.6714962,40.3857404],[-74.6715635,40.3857021],[-74.6716432,40.3856517],[-74.6717202,40.3856008],[-74.6717916,40.3855483],[-74.6718777,40.3854793],[-74.6719455,40.385421],[-74.6722169,40.3851683],[-74.672299,40.3850993],[-74.6723856,40.3850333],[-74.67247,40.384976],[-74.6725538,40.3849249],[-74.6726263,40.3848865],[-74.6727059,40.3848498],[-74.672816,40.384804],[-74.6732533,40.3846572],[-74.673727,40.3845045],[-74.6739622,40.3844371],[-74.674083,40.3844021],[-74.6743279,40.3843408],[-74.6745313,40.3842961],[-74.6747678,40.3842502],[-74.6750396,40.3842039],[-74.6752939,40.384169],[-74.6755197,40.3841457],[-74.6761984,40.3840762],[-74.6764287,40.3840485],[-74.6773027,40.3839238],[-74.6774304,40.3839063],[-74.6783436,40.383773],[-74.6786424,40.3837292],[-74.6788992,40.3836882],[-74.679159,40.3836426],[-74.6795667,40.3835664],[-74.6800297,40.383488],[-74.6801909,40.3834664],[-74.6803343,40.3834516],[-74.6805504,40.3834351],[-74.6820438,40.3833445],[-74.6835151,40.3831474],[-74.6839834,40.3830396],[-74.6842708,40.3829714],[-74.684401,40.38295],[-74.6848,40.382884],[-74.685532,40.3828022],[-74.6859038,40.3827679],[-74.6860344,40.3827558],[-74.6869377,40.3826723],[-74.687631,40.382602],[-74.687643,40.382601],[-74.687655,40.3826],[-74.688037,40.382562],[-74.688371,40.382498],[-74.688378,40.382497],[-74.689639,40.382257],[-74.6897575,40.3822277],[-74.689867,40.382211],[-74.690531,40.382075],[-74.690889,40.381975],[-74.6910372,40.3819338],[-74.6911379,40.3819058],[-74.6918159,40.3817492],[-74.6922433,40.3816515],[-74.6924145,40.3816196],[-74.6925485,40.3815985],[-74.6927039,40.3815741],[-74.6929655,40.3815262],[-74.693475,40.381453],[-74.693484,40.381452],[-74.693493,40.381451],[-74.693503,40.38145],[-74.693518,40.381448],[-74.6938596,40.3814042],[-74.694423,40.381332],[-74.695595,40.381129],[-74.69573,40.381103],[-74.6963594,40.3810198],[-74.6969127,40.3809467],[-74.697175,40.380912],[-74.697444,40.380887],[-74.697453,40.380886],[-74.6977514,40.3808576],[-74.69781,40.380852],[-74.6978639,40.3808289],[-74.6979786,40.3808197],[-74.6983226,40.3808105],[-74.6988364,40.3807928],[-74.6995311,40.3807571],[-74.7002678,40.3807064],[-74.7004956,40.3806862],[-74.7007224,40.3806637],[-74.7009032,40.3806393],[-74.701042,40.380615],[-74.7011874,40.3805838],[-74.7013976,40.3805326],[-74.7014598,40.3805176],[-74.7016609,40.3804667],[-74.7019548,40.3803907],[-74.7020026,40.3803776],[-74.7023033,40.3802977],[-74.7028248,40.3801558],[-74.7031815,40.3800609],[-74.7033099,40.3800303],[-74.7041387,40.3798218],[-74.7043617,40.3797657],[-74.7046323,40.3797032],[-74.7054067,40.3795252],[-74.7056094,40.3794793],[-74.7058203,40.3794377],[-74.7060312,40.3794019],[-74.7061284,40.3793862],[-74.7063959,40.3793529],[-74.7066324,40.3793283],[-74.7067505,40.3793172],[-74.7068701,40.3793098],[-74.7069773,40.3793104],[-74.7070642,40.3793162],[-74.7071317,40.3793235],[-74.7071992,40.3793331],[-74.7072714,40.3793459],[-74.7073446,40.3793594],[-74.707413,40.3793732],[-74.7074592,40.3793815],[-74.7075282,40.379392],[-74.707576,40.3793985],[-74.7076316,40.3794024],[-74.707685,40.3794032],[-74.7077399,40.3793964],[-74.7078191,40.379379],[-74.7078695,40.3793647],[-74.7083199,40.3791921],[-74.7083847,40.3791671],[-74.7098261,40.3786166],[-74.7107474,40.3782585],[-74.7108458,40.3782226],[-74.7109944,40.3781761],[-74.7110721,40.3781558],[-74.7111517,40.3781418],[-74.7112289,40.3781301],[-74.7113166,40.3781217],[-74.7114279,40.3781164],[-74.7115056,40.3781167],[-74.7117364,40.3781315],[-74.711824,40.3781404],[-74.711899,40.3781448],[-74.7119862,40.3781508],[-74.7120628,40.3781528],[-74.7121213,40.3781513],[-74.7121792,40.3781483],[-74.7122355,40.378143],[-74.7122984,40.3781362],[-74.7123421,40.3781305],[-74.7123883,40.3781229],[-74.7124383,40.378113],[-74.7124894,40.3781],[-74.7125762,40.3780757],[-74.7126673,40.3780457],[-74.7128108,40.3779949],[-74.7132103,40.377835],[-74.7137512,40.3776184],[-74.7138576,40.3775777],[-74.7139603,40.3775439],[-74.7141283,40.3774961],[-74.7142102,40.377476],[-74.714352,40.3774496],[-74.7144591,40.377432],[-74.7146405,40.3774027],[-74.715074,40.3773358],[-74.7158786,40.3772083],[-74.7163467,40.3771322],[-74.7171393,40.3770027],[-74.7174109,40.3769592],[-74.7175926,40.3769251],[-74.7177417,40.3768943],[-74.7178667,40.3768658],[-74.7178677,40.3768645],[-74.7179449,40.3768465],[-74.7180453,40.3768188],[-74.7182634,40.3767463],[-74.7183698,40.3767095],[-74.7184777,40.3766699],[-74.7185733,40.3766307],[-74.718802,40.3765329],[-74.7191901,40.376366],[-74.7194384,40.3762672],[-74.7199542,40.376071],[-74.7201998,40.3759732],[-74.72049,40.3758579],[-74.7207781,40.3757403],[-74.7213507,40.3755004],[-74.7218041,40.3753118],[-74.7220946,40.375189],[-74.7221037,40.375146],[-74.722104,40.3751449],[-74.7221219,40.3750605]]]}}]}