{"type":"FeatureCollection","features":[{"type":"Feature","properties":{"name":"Long Island City","url":"#long-island-city","source":"NYC Dept of City Planning 2020 Neighborhood Tabulation Areas (NTA2020) via NYC Open Data (dataset 9nt8-h7nd) — QN0201 (Long Island City-Hunters Point). OSM maps this neighborhood as a place node, not a boundary relation, so the official city NTA polygon is used as the documented fallback."},"geometry":{"type":"MultiPolygon","coordinates":[[[[-73.936864,40.748421],[-73.936637,40.748204],[-73.940327,40.745413],[-73.942723,40.744577],[-73.943427,40.744231],[-73.94401,40.743639],[-73.944196,40.742882],[-73.940316,40.744404],[-73.937697,40.745239],[-73.937261,40.745176],[-73.93868,40.738208],[-73.941462,40.739249],[-73.940509,40.740114],[-73.940362,40.740335],[-73.940561,40.740418],[-73.939109,40.742617],[-73.93867,40.742534],[-73.938588,40.742931],[-73.940019,40.743208],[-73.940149,40.742832],[-73.939653,40.742731],[-73.941188,40.74029],[-73.941595,40.739864],[-73.942597,40.739395],[-73.94279,40.739194],[-73.942706,40.739115],[-73.942901,40.739004],[-73.94329,40.739009],[-73.943823,40.738872],[-73.945482,40.738207],[-73.947151,40.7379],[-73.951381,40.739336],[-73.953809,40.73982],[-73.955494,40.73978],[-73.957415,40.739557],[-73.959783,40.738512],[-73.960068,40.738484],[-73.960285,40.738244],[-73.960726,40.73808],[-73.962165,40.738273],[-73.962131,40.738451],[-73.962608,40.738796],[-73.962431,40.739671],[-73.962209,40.740006],[-73.96179,40.740013],[-73.961247,40.740424],[-73.961826,40.740632],[-73.961937,40.740795],[-73.961804,40.741098],[-73.961219,40.741108],[-73.961074,40.741695],[-73.961109,40.741794],[-73.961365,40.741837],[-73.961108,40.741828],[-73.961553,40.741993],[-73.96119,40.742645],[-73.961095,40.742782],[-73.960972,40.742754],[-73.960543,40.743466],[-73.960211,40.74355],[-73.959775,40.743505],[-73.959706,40.743859],[-73.960016,40.74392],[-73.959947,40.743785],[-73.960124,40.743939],[-73.960058,40.743804],[-73.960213,40.743981],[-73.960569,40.74403],[-73.960517,40.744105],[-73.959632,40.743935],[-73.959362,40.744214],[-73.959391,40.744283],[-73.959729,40.744272],[-73.960155,40.744369],[-73.960126,40.744444],[-73.959802,40.744329],[-73.959234,40.74431],[-73.958775,40.744556],[-73.959442,40.744604],[-73.959389,40.74471],[-73.958879,40.744624],[-73.958759,40.744945],[-73.959666,40.74517],[-73.958494,40.744988],[-73.958453,40.745119],[-73.959251,40.745316],[-73.959338,40.745508],[-73.959059,40.745753],[-73.958502,40.745765],[-73.9586,40.745896],[-73.959144,40.746001],[-73.95872,40.746646],[-73.958407,40.746887],[-73.958308,40.747068],[-73.958453,40.747098],[-73.957041,40.74892],[-73.954854,40.748041],[-73.954393,40.747956],[-73.954306,40.747995],[-73.954366,40.748045],[-73.954152,40.748014],[-73.954365,40.747951],[-73.953184,40.747735],[-73.953054,40.748087],[-73.954784,40.748428],[-73.956322,40.749082],[-73.956012,40.749374],[-73.956222,40.749517],[-73.956001,40.749384],[-73.95576,40.749597],[-73.956201,40.749686],[-73.956088,40.749769],[-73.955464,40.749674],[-73.955349,40.750014],[-73.955132,40.749926],[-73.955203,40.749677],[-73.955067,40.749633],[-73.954516,40.750587],[-73.95465,40.750831],[-73.954476,40.751097],[-73.954499,40.751226],[-73.95293,40.752764],[-73.950839,40.755218],[-73.944879,40.752606],[-73.944085,40.752281],[-73.944018,40.75235],[-73.938117,40.749833],[-73.937989,40.749689],[-73.938046,40.749453],[-73.936864,40.748421]]]]}},{"type":"Feature","properties":{"name":"Astoria","url":"#astoria","source":"NYC Dept of City Planning 2020 Neighborhood Tabulation Areas (NTA2020) via NYC Open Data (dataset 9nt8-h7nd) — QN0101 (Astoria (North)-Ditmars-Steinway) + QN0102 (Old Astoria-Hallets Point) + QN0103 (Astoria (Central)) + QN0191 (Astoria Park). OSM maps this neighborhood as a place node, not a boundary relation, so the official city NTA polygon is used as the documented fallback."},"geometry":{"type":"MultiPolygon","coordinates":[[[[-73.906473,40.790181],[-73.902512,40.789472],[-73.902399,40.789552],[-73.902063,40.789494],[-73.902034,40.789415],[-73.900326,40.789008],[-73.899616,40.7884],[-73.897255,40.786751],[-73.89694,40.786625],[-73.896512,40.786069],[-73.896353,40.786179],[-73.896304,40.786119],[-73.896503,40.786057],[-73.896379,40.785909],[-73.896218,40.786016],[-73.896044,40.7858],[-73.896243,40.78574],[-73.89614,40.785607],[-73.89598,40.785712],[-73.89593,40.785649],[-73.896126,40.785593],[-73.895829,40.785222],[-73.896832,40.784428],[-73.896756,40.784322],[-73.896859,40.784404],[-73.897155,40.784195],[-73.897061,40.784073],[-73.897193,40.784169],[-73.897422,40.783996],[-73.897316,40.783872],[-73.897454,40.783971],[-73.897614,40.783845],[-73.897722,40.783743],[-73.897599,40.78365],[-73.89781,40.783684],[-73.897675,40.783584],[-73.898762,40.782749],[-73.901146,40.782711],[-73.902178,40.781781],[-73.902677,40.780594],[-73.902677,40.780353],[-73.902579,40.780289],[-73.902343,40.780187],[-73.902183,40.780359],[-73.902036,40.781203],[-73.901291,40.781858],[-73.900346,40.782066],[-73.90035,40.782164],[-73.899479,40.78217],[-73.898654,40.781995],[-73.897186,40.782807],[-73.897114,40.782723],[-73.894677,40.784091],[-73.894442,40.784135],[-73.894378,40.784243],[-73.894274,40.784206],[-73.894295,40.784118],[-73.894541,40.784066],[-73.894557,40.783973],[-73.896064,40.783157],[-73.894774,40.782254],[-73.895422,40.781718],[-73.895358,40.781658],[-73.894601,40.782253],[-73.895344,40.781586],[-73.895285,40.781541],[-73.894165,40.782472],[-73.893817,40.782383],[-73.893061,40.781848],[-73.892308,40.782466],[-73.892815,40.782913],[-73.892749,40.782966],[-73.891655,40.782195],[-73.891717,40.782142],[-73.892142,40.782432],[-73.892242,40.782411],[-73.89301,40.781798],[-73.892279,40.7813],[-73.892111,40.781395],[-73.892218,40.781205],[-73.891929,40.781038],[-73.891869,40.780893],[-73.891671,40.780855],[-73.891592,40.780581],[-73.892535,40.779771],[-73.89254,40.779552],[-73.891818,40.779589],[-73.891669,40.779493],[-73.891507,40.779098],[-73.891297,40.778916],[-73.891196,40.778563],[-73.892523,40.777405],[-73.892132,40.777091],[-73.891772,40.776594],[-73.891416,40.776339],[-73.891401,40.776045],[-73.89153,40.775606],[-73.891766,40.775357],[-73.891832,40.77488],[-73.891444,40.775623],[-73.891358,40.776049],[-73.891452,40.776513],[-73.891104,40.777023],[-73.89112,40.777125],[-73.890949,40.777284],[-73.890563,40.777404],[-73.890352,40.7778],[-73.890174,40.777851],[-73.890087,40.777784],[-73.890024,40.777247],[-73.889516,40.775937],[-73.889471,40.775536],[-73.889789,40.774237],[-73.889887,40.774017],[-73.890068,40.773962],[-73.890192,40.773647],[-73.889852,40.773753],[-73.889455,40.773533],[-73.888688,40.768978],[-73.888744,40.768918],[-73.888406,40.768814],[-73.888221,40.768621],[-73.88773,40.766914],[-73.888365,40.76677],[-73.888342,40.766597],[-73.888773,40.766511],[-73.889185,40.766298],[-73.89089,40.765858],[-73.89109,40.766337],[-73.892464,40.766285],[-73.89386,40.766421],[-73.894324,40.766146],[-73.902266,40.767457],[-73.904136,40.76752],[-73.905774,40.768029],[-73.917257,40.769854],[-73.918079,40.770062],[-73.917702,40.770393],[-73.922167,40.773547],[-73.923981,40.774615],[-73.923026,40.775384],[-73.923758,40.776547],[-73.917966,40.781256],[-73.919965,40.782635],[-73.91909,40.783368],[-73.918189,40.783933],[-73.917171,40.784193],[-73.917182,40.784552],[-73.916833,40.785191],[-73.915752,40.786108],[-73.915417,40.786064],[-73.91526,40.786192],[-73.915587,40.78643],[-73.914239,40.787856],[-73.9126,40.789376],[-73.912408,40.789274],[-73.912667,40.789004],[-73.911951,40.789402],[-73.91208,40.789522],[-73.911838,40.789681],[-73.911693,40.789573],[-73.91125,40.789744],[-73.910943,40.789755],[-73.910905,40.790041],[-73.910222,40.790465],[-73.909859,40.790945],[-73.90678,40.790375],[-73.906473,40.790181]]],[[[-73.928277,40.776899],[-73.923981,40.774615],[-73.927807,40.769889],[-73.926473,40.769271],[-73.930365,40.764491],[-73.936184,40.767692],[-73.935932,40.767784],[-73.935771,40.76905],[-73.934717,40.77003],[-73.934246,40.771029],[-73.934527,40.771177],[-73.934435,40.771462],[-73.934826,40.771577],[-73.934807,40.771734],[-73.937466,40.772531],[-73.937813,40.773563],[-73.937858,40.774088],[-73.937655,40.775086],[-73.93638,40.776921],[-73.936089,40.777184],[-73.935855,40.777212],[-73.935082,40.777944],[-73.934744,40.778076],[-73.933811,40.7781],[-73.932775,40.777922],[-73.932722,40.778035],[-73.931788,40.777871],[-73.93105,40.777442],[-73.931074,40.777261],[-73.930629,40.776591],[-73.929881,40.776222],[-73.928605,40.776593],[-73.928277,40.776899]]],[[[-73.91194,40.76901],[-73.914499,40.765856],[-73.913701,40.76548],[-73.914992,40.763892],[-73.915791,40.764268],[-73.924157,40.753961],[-73.932152,40.75771],[-73.929651,40.760798],[-73.93055,40.761221],[-73.929434,40.76238],[-73.931336,40.763276],[-73.926473,40.769271],[-73.927807,40.769889],[-73.923981,40.774615],[-73.922167,40.773547],[-73.917702,40.770393],[-73.918079,40.770062],[-73.917257,40.769854],[-73.91194,40.76901]]],[[[-73.923981,40.774615],[-73.928277,40.776899],[-73.926318,40.778242],[-73.924873,40.778626],[-73.924234,40.779101],[-73.922957,40.780441],[-73.9221,40.780852],[-73.919965,40.782635],[-73.917966,40.781256],[-73.923758,40.776547],[-73.923026,40.775384],[-73.923981,40.774615]]]]}},{"type":"Feature","properties":{"name":"Sunnyside","url":"#sunnyside","source":"NYC Dept of City Planning 2020 Neighborhood Tabulation Areas (NTA2020) via NYC Open Data (dataset 9nt8-h7nd) — QN0202 (Sunnyside). OSM maps this neighborhood as a place node, not a boundary relation, so the official city NTA polygon is used as the documented fallback."},"geometry":{"type":"MultiPolygon","coordinates":[[[[-73.909711,40.749755],[-73.91015,40.748522],[-73.911642,40.748685],[-73.91191,40.748105],[-73.912449,40.74592],[-73.911247,40.745784],[-73.911987,40.742189],[-73.913828,40.742414],[-73.914435,40.740531],[-73.915735,40.740792],[-73.916301,40.739069],[-73.916512,40.738945],[-73.917177,40.736898],[-73.916515,40.736757],[-73.916897,40.735445],[-73.917493,40.735421],[-73.918351,40.733153],[-73.918814,40.733208],[-73.919022,40.732088],[-73.917315,40.731442],[-73.917607,40.730572],[-73.918364,40.725931],[-73.922169,40.726487],[-73.926452,40.728124],[-73.926528,40.727955],[-73.927909,40.728253],[-73.928486,40.727759],[-73.929235,40.72826],[-73.93044,40.728563],[-73.934532,40.729105],[-73.936481,40.729687],[-73.938045,40.73051],[-73.939111,40.73138],[-73.93991,40.733276],[-73.940032,40.733245],[-73.940165,40.733486],[-73.940018,40.73354],[-73.940067,40.733762],[-73.940865,40.73507],[-73.941625,40.735841],[-73.942642,40.73635],[-73.945944,40.737513],[-73.944911,40.737931],[-73.944639,40.738138],[-73.944479,40.738113],[-73.942579,40.738816],[-73.942804,40.738862],[-73.942556,40.739021],[-73.941462,40.739249],[-73.93868,40.738208],[-73.937261,40.745176],[-73.937697,40.745239],[-73.933264,40.746288],[-73.926771,40.747592],[-73.920798,40.746891],[-73.920342,40.749159],[-73.915406,40.750111],[-73.91445,40.750215],[-73.913484,40.750199],[-73.909711,40.749755]]]]}},{"type":"Feature","properties":{"name":"Jackson Heights","url":"#jackson-heights","source":"NYC Dept of City Planning 2020 Neighborhood Tabulation Areas (NTA2020) via NYC Open Data (dataset 9nt8-h7nd) — QN0301 (Jackson Heights). OSM maps this neighborhood as a place node, not a boundary relation, so the official city NTA polygon is used as the documented fallback."},"geometry":{"type":"MultiPolygon","coordinates":[[[[-73.873657,40.756803],[-73.870842,40.751545],[-73.869425,40.749157],[-73.89175,40.746812],[-73.896359,40.74877],[-73.897265,40.750341],[-73.897678,40.752385],[-73.897932,40.752939],[-73.898738,40.754154],[-73.898542,40.75417],[-73.898863,40.754712],[-73.899592,40.756556],[-73.899742,40.757512],[-73.89945,40.758598],[-73.898555,40.759924],[-73.898773,40.759916],[-73.896456,40.763205],[-73.895097,40.764357],[-73.894606,40.765709],[-73.894324,40.766146],[-73.89386,40.766421],[-73.892464,40.766285],[-73.89109,40.766337],[-73.89089,40.765858],[-73.889185,40.766298],[-73.888773,40.766511],[-73.888342,40.766597],[-73.888365,40.76677],[-73.88773,40.766914],[-73.88709,40.765013],[-73.886397,40.761216],[-73.878954,40.761984],[-73.876014,40.761444],[-73.875139,40.756634],[-73.873657,40.756803]]]]}},{"type":"Feature","properties":{"name":"Elmhurst","url":"#elmhurst","source":"NYC Dept of City Planning 2020 Neighborhood Tabulation Areas (NTA2020) via NYC Open Data (dataset 9nt8-h7nd) — QN0401 (Elmhurst). OSM maps this neighborhood as a place node, not a boundary relation, so the official city NTA polygon is used as the documented fallback."},"geometry":{"type":"MultiPolygon","coordinates":[[[[-73.864622,40.734282],[-73.864572,40.734188],[-73.868788,40.732932],[-73.874837,40.730837],[-73.87664,40.730299],[-73.880053,40.728991],[-73.881403,40.728732],[-73.885277,40.728407],[-73.887205,40.727869],[-73.887236,40.728933],[-73.88756,40.730197],[-73.88806,40.730087],[-73.888523,40.734531],[-73.889362,40.735838],[-73.889608,40.735939],[-73.891379,40.735918],[-73.891369,40.736061],[-73.887535,40.736763],[-73.887253,40.738836],[-73.894691,40.740232],[-73.890887,40.740687],[-73.89169,40.742145],[-73.895645,40.748474],[-73.89175,40.746812],[-73.869425,40.749157],[-73.868529,40.747588],[-73.867491,40.743302],[-73.867563,40.740942],[-73.86583,40.736643],[-73.864622,40.734282]]]]}},{"type":"Feature","properties":{"name":"Corona","url":"#corona","source":"NYC Dept of City Planning 2020 Neighborhood Tabulation Areas (NTA2020) via NYC Open Data (dataset 9nt8-h7nd) — QN0402 (Corona) + QN0303 (North Corona) + QN8191 (Flushing Meadows-Corona Park). OSM maps this neighborhood as a place node, not a boundary relation, so the official city NTA polygon is used as the documented fallback."},"geometry":{"type":"MultiPolygon","coordinates":[[[[-73.847556,40.739064],[-73.849609,40.738183],[-73.851912,40.737423],[-73.856323,40.736506],[-73.858771,40.735785],[-73.858866,40.735939],[-73.864622,40.734282],[-73.86583,40.736643],[-73.867563,40.740942],[-73.867491,40.743302],[-73.868529,40.747588],[-73.869425,40.749157],[-73.861117,40.750024],[-73.852205,40.752661],[-73.850864,40.749996],[-73.854426,40.748852],[-73.853606,40.747497],[-73.850116,40.740724],[-73.848095,40.740027],[-73.847942,40.739816],[-73.847792,40.739831],[-73.847778,40.739345],[-73.847556,40.739064]]],[[[-73.852205,40.752661],[-73.861117,40.750024],[-73.869425,40.749157],[-73.870842,40.751545],[-73.873657,40.756803],[-73.865674,40.75763],[-73.858561,40.757912],[-73.85464,40.758466],[-73.854075,40.757663],[-73.853595,40.756696],[-73.852617,40.753405],[-73.852205,40.752661]]],[[[-73.846709,40.761345],[-73.845966,40.7607],[-73.843244,40.755337],[-73.842,40.755716],[-73.838619,40.757045],[-73.838211,40.755253],[-73.837917,40.754541],[-73.837682,40.754135],[-73.837432,40.754104],[-73.836842,40.753338],[-73.835592,40.751377],[-73.832295,40.751942],[-73.832223,40.75142],[-73.833086,40.747989],[-73.834114,40.747357],[-73.834625,40.746881],[-73.835438,40.745524],[-73.835676,40.744851],[-73.835951,40.743731],[-73.835861,40.743228],[-73.8361,40.742429],[-73.836993,40.742093],[-73.837065,40.741865],[-73.837107,40.741396],[-73.836695,40.739541],[-73.836624,40.739365],[-73.836275,40.739568],[-73.835646,40.738491],[-73.835398,40.736912],[-73.835605,40.735135],[-73.836048,40.734266],[-73.835848,40.733834],[-73.834899,40.732968],[-73.834483,40.732164],[-73.834004,40.731568],[-73.833863,40.730553],[-73.833071,40.729919],[-73.83248,40.728941],[-73.831705,40.72804],[-73.830732,40.726549],[-73.829799,40.725897],[-73.828051,40.725325],[-73.827555,40.724961],[-73.827309,40.724646],[-73.825568,40.719721],[-73.825399,40.717415],[-73.825189,40.717323],[-73.822894,40.717489],[-73.821705,40.71736],[-73.819523,40.71734],[-73.819305,40.717136],[-73.819982,40.716576],[-73.820116,40.716514],[-73.821573,40.716651],[-73.823405,40.71655],[-73.823579,40.716324],[-73.823919,40.716178],[-73.825179,40.716015],[-73.825426,40.715828],[-73.825944,40.715647],[-73.829896,40.714571],[-73.830978,40.714314],[-73.831459,40.714554],[-73.830505,40.714857],[-73.830104,40.715177],[-73.829833,40.715568],[-73.834884,40.719303],[-73.83538,40.720722],[-73.837315,40.723572],[-73.839064,40.72688],[-73.839854,40.728178],[-73.840327,40.728807],[-73.841468,40.729998],[-73.842856,40.731141],[-73.844189,40.732642],[-73.845426,40.73495],[-73.846055,40.737099],[-73.846894,40.738671],[-73.847214,40.738644],[-73.847757,40.739299],[-73.847792,40.739831],[-73.847942,40.739816],[-73.848095,40.740027],[-73.850116,40.740724],[-73.853606,40.747497],[-73.854369,40.748739],[-73.854426,40.748852],[-73.850864,40.749996],[-73.852617,40.753405],[-73.853008,40.754555],[-73.853351,40.756013],[-73.854075,40.757663],[-73.855251,40.759148],[-73.85577,40.759538],[-73.856382,40.759907],[-73.858109,40.760637],[-73.859124,40.761275],[-73.859756,40.761836],[-73.859563,40.761972],[-73.860937,40.763729],[-73.860433,40.763869],[-73.859413,40.762483],[-73.859079,40.762523],[-73.858921,40.762406],[-73.858992,40.762247],[-73.858923,40.762122],[-73.858645,40.762514],[-73.858887,40.762134],[-73.858691,40.762221],[-73.858844,40.762059],[-73.858619,40.761936],[-73.857655,40.76308],[-73.858415,40.763453],[-73.858501,40.763376],[-73.858343,40.763563],[-73.858395,40.763477],[-73.857639,40.763099],[-73.856839,40.764],[-73.856964,40.764074],[-73.856675,40.76393],[-73.856803,40.763981],[-73.857583,40.763073],[-73.85669,40.762636],[-73.856587,40.762723],[-73.856782,40.762508],[-73.856712,40.762616],[-73.857604,40.763053],[-73.858176,40.762396],[-73.856612,40.76165],[-73.858194,40.762374],[-73.858585,40.761917],[-73.857121,40.761189],[-73.855303,40.76065],[-73.854664,40.760171],[-73.853724,40.760246],[-73.852794,40.759972],[-73.852778,40.760121],[-73.852991,40.760192],[-73.852701,40.760128],[-73.852775,40.759964],[-73.852689,40.759928],[-73.852548,40.76007],[-73.852242,40.759922],[-73.852494,40.76001],[-73.852665,40.759918],[-73.851586,40.759355],[-73.85022,40.759567],[-73.849709,40.759839],[-73.849301,40.760243],[-73.849875,40.761104],[-73.851974,40.760249],[-73.852072,40.760393],[-73.849812,40.761271],[-73.849167,40.760297],[-73.848687,40.760138],[-73.846709,40.761345]]]]}},{"type":"Feature","properties":{"name":"Flushing","url":"#flushing","source":"NYC Dept of City Planning 2020 Neighborhood Tabulation Areas (NTA2020) via NYC Open Data (dataset 9nt8-h7nd) — QN0707 (Flushing-Willets Point). OSM maps this neighborhood as a place node, not a boundary relation, so the official city NTA polygon is used as the documented fallback."},"geometry":{"type":"MultiPolygon","coordinates":[[[[-73.820636,40.758872],[-73.817892,40.757086],[-73.820301,40.755515],[-73.818408,40.75383],[-73.820849,40.752242],[-73.821918,40.753173],[-73.825766,40.750969],[-73.825726,40.750314],[-73.825844,40.749348],[-73.827239,40.74986],[-73.827656,40.749861],[-73.829225,40.749256],[-73.830963,40.748936],[-73.831266,40.748618],[-73.831255,40.748106],[-73.833003,40.747834],[-73.833086,40.747989],[-73.832223,40.75142],[-73.832295,40.751942],[-73.835592,40.751377],[-73.836842,40.753338],[-73.837432,40.754104],[-73.837682,40.754135],[-73.837917,40.754541],[-73.838211,40.755253],[-73.838619,40.757045],[-73.842,40.755716],[-73.843244,40.755337],[-73.845966,40.7607],[-73.846709,40.761345],[-73.844745,40.762756],[-73.843594,40.763371],[-73.843688,40.763613],[-73.843436,40.763433],[-73.84307,40.763593],[-73.842983,40.763832],[-73.843042,40.764321],[-73.842728,40.764629],[-73.840526,40.765388],[-73.840465,40.765303],[-73.839928,40.76535],[-73.839578,40.765252],[-73.839458,40.765446],[-73.839359,40.76541],[-73.839053,40.765959],[-73.839256,40.766034],[-73.838723,40.766903],[-73.838205,40.767648],[-73.837219,40.768743],[-73.836269,40.76961],[-73.835216,40.770377],[-73.831593,40.77256],[-73.831502,40.772488],[-73.831517,40.771658],[-73.830585,40.771639],[-73.830546,40.770224],[-73.830113,40.77053],[-73.829571,40.770711],[-73.826566,40.770641],[-73.826558,40.770137],[-73.824669,40.770408],[-73.823482,40.764652],[-73.820807,40.758942],[-73.820636,40.758872]]]]}},{"type":"Feature","properties":{"name":"Forest Hills","url":"#forest-hills","osm_id":21089477,"source":"OpenStreetMap (ODbL) via Overpass API, relation 21089477 (boundary=place), ring assembled from member ways — the only one of these ten neighborhoods with a real boundary=place relation in OSM"},"geometry":{"type":"Polygon","coordinates":[[[-73.854639,40.7365],[-73.853266,40.736651],[-73.849706,40.737674],[-73.846889,40.738668],[-73.84611,40.737185],[-73.845711,40.735661],[-73.84512,40.734287],[-73.843571,40.731799],[-73.840853,40.729387],[-73.839961,40.728348],[-73.839433,40.727543],[-73.837635,40.724093],[-73.835343,40.72069],[-73.835057,40.719644],[-73.834704,40.719128],[-73.828867,40.715371],[-73.829431,40.715003],[-73.830984,40.714526],[-73.83256,40.713796],[-73.834658,40.712614],[-73.835346,40.713297],[-73.835212,40.713375],[-73.836108,40.714244],[-73.838379,40.716198],[-73.839757,40.717158],[-73.841619,40.718198],[-73.844993,40.719594],[-73.849075,40.72108],[-73.850071,40.720763],[-73.850398,40.720214],[-73.850596,40.719384],[-73.849624,40.71903],[-73.848863,40.717952],[-73.849924,40.716275],[-73.845536,40.71472],[-73.844902,40.71413],[-73.844902,40.713996],[-73.843947,40.712996],[-73.844356,40.71235],[-73.844052,40.711911],[-73.840878,40.710742],[-73.841103,40.710372],[-73.84072,40.710144],[-73.842182,40.709628],[-73.844489,40.708639],[-73.845961,40.708332],[-73.846695,40.708283],[-73.848601,40.70841],[-73.849416,40.708361],[-73.855915,40.706402],[-73.856665,40.707869],[-73.858591,40.721577],[-73.857117,40.721751],[-73.8539,40.72684],[-73.853506,40.727184],[-73.851944,40.727645],[-73.851682,40.727985],[-73.85173,40.728478],[-73.853259,40.731087],[-73.854203,40.733035],[-73.854639,40.7365]]]}},{"type":"Feature","properties":{"name":"Ridgewood","url":"#ridgewood","source":"NYC Dept of City Planning 2020 Neighborhood Tabulation Areas (NTA2020) via NYC Open Data (dataset 9nt8-h7nd) — QN0502 (Ridgewood). OSM maps this neighborhood as a place node, not a boundary relation, so the official city NTA polygon is used as the documented fallback. OSM way 325933623 (place=neighbourhood) was evaluated but is a rough tracing that excludes NRHP-listed Ridgewood blocks (Stockholm Street Historic District, Fresh Pond Road corridor), so the city polygon is used instead."},"geometry":{"type":"MultiPolygon","coordinates":[[[[-73.895065,40.71248],[-73.88842,40.71227],[-73.887311,40.710559],[-73.888131,40.710342],[-73.887852,40.709891],[-73.888622,40.709668],[-73.888216,40.708899],[-73.889381,40.708547],[-73.889299,40.7079],[-73.885532,40.706446],[-73.885549,40.706155],[-73.886528,40.706225],[-73.889119,40.705599],[-73.889843,40.704972],[-73.892797,40.701972],[-73.892717,40.701862],[-73.893058,40.701677],[-73.893875,40.700735],[-73.895003,40.699712],[-73.89485,40.69859],[-73.89578,40.698511],[-73.895585,40.697128],[-73.896772,40.696799],[-73.898382,40.696136],[-73.90003,40.693437],[-73.900202,40.693398],[-73.90075,40.692483],[-73.900584,40.692398],[-73.901398,40.69159],[-73.905796,40.694127],[-73.90426,40.6957],[-73.911807,40.699947],[-73.910679,40.701046],[-73.912904,40.702362],[-73.911807,40.703435],[-73.921892,40.709396],[-73.920749,40.710534],[-73.921546,40.711043],[-73.922235,40.712856],[-73.92404,40.714008],[-73.906078,40.712903],[-73.895065,40.71248]]]]}},{"type":"Feature","properties":{"name":"Rockaway Beach","url":"#rockaway-beach","source":"NYC Dept of City Planning 2020 Neighborhood Tabulation Areas (NTA2020) via NYC Open Data (dataset 9nt8-h7nd) — QN1402 (Rockaway Beach-Arverne-Edgemere). OSM maps this neighborhood as a place node, not a boundary relation, so the official city NTA polygon is used as the documented fallback."},"geometry":{"type":"MultiPolygon","coordinates":[[[[-73.786315,40.603123],[-73.786169,40.603047],[-73.786467,40.602723],[-73.787178,40.602306],[-73.787664,40.60137],[-73.788072,40.600854],[-73.789284,40.60002],[-73.789535,40.599972],[-73.790051,40.599376],[-73.790299,40.599265],[-73.790428,40.598666],[-73.791241,40.596787],[-73.790931,40.595961],[-73.791018,40.595448],[-73.790875,40.595034],[-73.790651,40.594783],[-73.79042,40.594753],[-73.790457,40.59496],[-73.79057,40.594952],[-73.790714,40.596086],[-73.790806,40.596093],[-73.790594,40.596108],[-73.790682,40.596089],[-73.790539,40.594981],[-73.790425,40.594989],[-73.790407,40.594856],[-73.790319,40.594862],[-73.790412,40.594828],[-73.790379,40.594752],[-73.79015,40.59482],[-73.790316,40.596048],[-73.790425,40.596054],[-73.790178,40.596071],[-73.790282,40.596051],[-73.790131,40.594823],[-73.789906,40.594809],[-73.789867,40.594716],[-73.789896,40.594821],[-73.789846,40.59472],[-73.789823,40.594834],[-73.789775,40.594733],[-73.789674,40.594844],[-73.789874,40.596204],[-73.789999,40.596209],[-73.789699,40.596228],[-73.789841,40.596207],[-73.789674,40.59486],[-73.78946,40.594997],[-73.789402,40.59495],[-73.789353,40.595194],[-73.789173,40.595192],[-73.789163,40.596077],[-73.788238,40.59611],[-73.788373,40.597506],[-73.782091,40.597856],[-73.781952,40.596456],[-73.779801,40.596611],[-73.779684,40.596688],[-73.779755,40.597275],[-73.779671,40.597372],[-73.779044,40.597649],[-73.778768,40.597966],[-73.77823,40.598185],[-73.777422,40.598812],[-73.777199,40.599577],[-73.776988,40.599787],[-73.776318,40.601041],[-73.776002,40.601394],[-73.7756,40.601648],[-73.774972,40.601744],[-73.77471,40.601034],[-73.77473,40.600715],[-73.774116,40.599867],[-73.774184,40.599302],[-73.774118,40.59925],[-73.774223,40.599005],[-73.773744,40.59867],[-73.773715,40.598235],[-73.773001,40.59788],[-73.771715,40.597974],[-73.771097,40.598301],[-73.770662,40.596002],[-73.773883,40.595769],[-73.773675,40.593893],[-73.772808,40.594074],[-73.772701,40.593123],[-73.771332,40.593445],[-73.770231,40.593975],[-73.769645,40.590769],[-73.770826,40.590553],[-73.771534,40.590581],[-73.77593,40.590181],[-73.775837,40.590325],[-73.776662,40.590066],[-73.777614,40.590053],[-73.779185,40.589593],[-73.78043,40.589597],[-73.781422,40.589271],[-73.78289,40.588999],[-73.784533,40.588478],[-73.787684,40.587923],[-73.788784,40.58745],[-73.789415,40.587628],[-73.791125,40.587273],[-73.792008,40.587217],[-73.793844,40.586786],[-73.794607,40.586721],[-73.795052,40.586533],[-73.795829,40.586447],[-73.79609,40.586326],[-73.796715,40.586365],[-73.799741,40.585769],[-73.800613,40.585482],[-73.801829,40.585352],[-73.803258,40.584893],[-73.803721,40.585018],[-73.805843,40.584458],[-73.806792,40.58442],[-73.807992,40.584004],[-73.808937,40.584009],[-73.809524,40.583823],[-73.813524,40.583473],[-73.815888,40.582716],[-73.821342,40.581262],[-73.822599,40.583154],[-73.824043,40.58563],[-73.824656,40.585453],[-73.824901,40.585954],[-73.825249,40.586901],[-73.824764,40.587039],[-73.824813,40.587151],[-73.824744,40.587045],[-73.822937,40.587492],[-73.82146,40.58677],[-73.819297,40.587895],[-73.818837,40.588251],[-73.817416,40.588917],[-73.817638,40.589286],[-73.81742,40.589359],[-73.817368,40.589255],[-73.817166,40.589366],[-73.816742,40.589319],[-73.815248,40.589989],[-73.814701,40.590611],[-73.814448,40.59068],[-73.814058,40.590624],[-73.813632,40.590794],[-73.813257,40.591046],[-73.813589,40.591698],[-73.813235,40.591071],[-73.81313,40.591247],[-73.812546,40.591381],[-73.812144,40.591359],[-73.811513,40.591783],[-73.811574,40.592829],[-73.811494,40.592901],[-73.811335,40.591745],[-73.811008,40.591768],[-73.810909,40.592058],[-73.810818,40.59209],[-73.81095,40.592503],[-73.811386,40.592442],[-73.811408,40.592871],[-73.811073,40.593022],[-73.811374,40.592861],[-73.811373,40.592703],[-73.81075,40.592792],[-73.811373,40.592684],[-73.811358,40.592463],[-73.81094,40.592547],[-73.810805,40.592092],[-73.809899,40.592271],[-73.810039,40.593078],[-73.809903,40.593081],[-73.809731,40.592404],[-73.809807,40.59271],[-73.80971,40.59244],[-73.809487,40.592766],[-73.809701,40.593534],[-73.809617,40.593576],[-73.809507,40.59357],[-73.809354,40.593368],[-73.809044,40.593358],[-73.806875,40.592265],[-73.806646,40.592263],[-73.806028,40.592009],[-73.805933,40.591856],[-73.805779,40.590759],[-73.805824,40.591889],[-73.804303,40.591319],[-73.804166,40.591855],[-73.807012,40.593049],[-73.807314,40.593066],[-73.807826,40.59337],[-73.808047,40.59365],[-73.807811,40.593907],[-73.807805,40.594021],[-73.807978,40.594158],[-73.807533,40.594606],[-73.807447,40.594866],[-73.807113,40.595284],[-73.806868,40.595409],[-73.806041,40.595555],[-73.804853,40.595056],[-73.804115,40.594319],[-73.804009,40.593768],[-73.804038,40.59355],[-73.804126,40.593514],[-73.804031,40.593212],[-73.803751,40.592994],[-73.803809,40.592891],[-73.803617,40.592941],[-73.803032,40.592577],[-73.802438,40.59264],[-73.802493,40.593286],[-73.802377,40.593287],[-73.80251,40.593948],[-73.803142,40.593848],[-73.803135,40.593758],[-73.803181,40.593945],[-73.803143,40.593867],[-73.802513,40.593967],[-73.802568,40.594272],[-73.80324,40.594188],[-73.803243,40.594087],[-73.803288,40.594282],[-73.80324,40.594204],[-73.802604,40.594288],[-73.80271,40.594306],[-73.802337,40.594405],[-73.802345,40.594496],[-73.802774,40.594482],[-73.802777,40.594556],[-73.803042,40.594536],[-73.803186,40.594663],[-73.803471,40.594503],[-73.80344,40.594434],[-73.803509,40.594506],[-73.803197,40.594678],[-73.803378,40.594869],[-73.803655,40.594731],[-73.803725,40.594817],[-73.803652,40.594753],[-73.8032,40.594873],[-73.803385,40.59495],[-73.803207,40.59501],[-73.803391,40.595007],[-73.803208,40.595026],[-73.803215,40.595146],[-73.80364,40.595133],[-73.803908,40.595005],[-73.803652,40.59515],[-73.803315,40.59518],[-73.803685,40.595198],[-73.80464,40.59631],[-73.805112,40.597151],[-73.804702,40.597683],[-73.803933,40.597943],[-73.802979,40.598844],[-73.802657,40.598936],[-73.801671,40.598896],[-73.801235,40.599123],[-73.800949,40.599152],[-73.800915,40.599391],[-73.800777,40.599162],[-73.800495,40.599204],[-73.80051,40.599329],[-73.800451,40.599183],[-73.79916,40.599258],[-73.799139,40.599373],[-73.79914,40.599258],[-73.798431,40.599174],[-73.798112,40.599301],[-73.795546,40.599497],[-73.794821,40.599413],[-73.79421,40.599484],[-73.793319,40.599978],[-73.79277,40.599957],[-73.792594,40.600067],[-73.792331,40.599969],[-73.792029,40.600236],[-73.791509,40.60038],[-73.790669,40.601106],[-73.790254,40.601251],[-73.787856,40.603113],[-73.786639,40.603256],[-73.786315,40.603123]]]]}}]}