{"type":"FeatureCollection","features":[{"type":"Feature","properties":{"name":"Queens","osm_id":9691819,"source":"OpenStreetMap (ODbL) via Nominatim, relation 9691819 (Queens borough / Queens County), simplified (polygon_threshold=0.00005)"},"geometry":{"type":"Polygon","coordinates":[[[-74.04378,40.507828],[-73.977874,40.519095],[-73.90214,40.492121],[-73.894613,40.504089],[-73.893458,40.505019],[-73.890828,40.50571],[-73.880367,40.506659],[-73.874538,40.508179],[-73.869582,40.509806],[-73.86295,40.511795],[-73.859452,40.512724],[-73.853158,40.515212],[-73.842826,40.518744],[-73.812558,40.529976],[-73.808429,40.530952],[-73.800523,40.532397],[-73.793103,40.53423],[-73.783646,40.536351],[-73.782261,40.536179],[-73.777586,40.534868],[-73.768666,40.532882],[-73.757153,40.531218],[-73.756531,40.58617],[-73.748665,40.59234],[-73.744774,40.593791],[-73.737586,40.593507],[-73.738552,40.596214],[-73.738117,40.602627],[-73.739156,40.604057],[-73.739935,40.604253],[-73.740423,40.604684],[-73.741654,40.606094],[-73.743749,40.607649],[-73.743059,40.607997],[-73.745486,40.611902],[-73.746682,40.611449],[-73.747183,40.612158],[-73.747647,40.612035],[-73.747935,40.612369],[-73.748864,40.612027],[-73.748959,40.612188],[-73.755248,40.610179],[-73.755161,40.610726],[-73.759791,40.611408],[-73.765355,40.614874],[-73.766453,40.61487],[-73.76729,40.620372],[-73.76708,40.624042],[-73.763703,40.627968],[-73.745502,40.63497],[-73.744392,40.6372],[-73.744057,40.637577],[-73.74334,40.637962],[-73.742597,40.638098],[-73.741872,40.637998],[-73.741344,40.637766],[-73.741162,40.637556],[-73.741328,40.63718],[-73.74245,40.635836],[-73.742633,40.635302],[-73.742491,40.634998],[-73.741715,40.634913],[-73.739438,40.635287],[-73.7397,40.636208],[-73.740447,40.637943],[-73.740838,40.638517],[-73.742719,40.64067],[-73.741885,40.64119],[-73.742179,40.641809],[-73.741033,40.646967],[-73.741137,40.647258],[-73.740411,40.647886],[-73.739008,40.648154],[-73.737587,40.648816],[-73.735034,40.64979],[-73.730328,40.650362],[-73.724804,40.652333],[-73.724799,40.653991],[-73.724902,40.654374],[-73.725384,40.655356],[-73.725629,40.655603],[-73.725918,40.657318],[-73.726357,40.658643],[-73.727894,40.661469],[-73.728276,40.663128],[-73.72777,40.66313],[-73.727706,40.665029],[-73.728429,40.665968],[-73.727575,40.673998],[-73.726273,40.677166],[-73.725627,40.679704],[-73.725907,40.682657],[-73.725829,40.683256],[-73.725913,40.683302],[-73.726429,40.692683],[-73.726845,40.703252],[-73.727259,40.711051],[-73.729515,40.719638],[-73.730287,40.722161],[-73.729501,40.722582],[-73.725866,40.723944],[-73.717571,40.726226],[-73.716545,40.726438],[-73.71071,40.727184],[-73.707954,40.727768],[-73.700233,40.739303],[-73.701582,40.752467],[-73.750298,40.782509],[-73.779665,40.812135],[-73.781594,40.804621],[-73.784067,40.801777],[-73.787674,40.800075],[-73.790179,40.79976],[-73.7944,40.800114],[-73.807192,40.804163],[-73.810129,40.80482],[-73.815556,40.805582],[-73.818335,40.80547],[-73.821256,40.804901],[-73.830178,40.802389],[-73.850391,40.800419],[-73.862928,40.797265],[-73.870591,40.790308],[-73.871064,40.786902],[-73.87364,40.786028],[-73.879583,40.785739],[-73.888732,40.787176],[-73.889106,40.787386],[-73.889298,40.787632],[-73.889571,40.788194],[-73.890205,40.790082],[-73.890431,40.790262],[-73.891793,40.790272],[-73.892194,40.790356],[-73.912528,40.796118],[-73.909837,40.790964],[-73.912113,40.78957],[-73.912615,40.789424],[-73.914732,40.787465],[-73.915632,40.786446],[-73.922345,40.780811],[-73.928236,40.777132],[-73.928695,40.776757],[-73.930038,40.776398],[-73.930643,40.776672],[-73.93115,40.777623],[-73.931708,40.777998],[-73.933184,40.778206],[-73.934558,40.77825],[-73.935903,40.777506],[-73.936347,40.777138],[-73.937062,40.776185],[-73.937838,40.774832],[-73.937879,40.773831],[-73.937517,40.772523],[-73.935557,40.771599],[-73.935045,40.771186],[-73.935226,40.770609],[-73.935903,40.770001],[-73.939826,40.768073],[-73.941379,40.767089],[-73.943339,40.765003],[-73.945698,40.761809],[-73.950901,40.755152],[-73.952027,40.75383],[-73.954547,40.751243],[-73.954537,40.751035],[-73.954758,40.75078],[-73.956155,40.749788],[-73.957271,40.749167],[-73.959334,40.746173],[-73.959855,40.745177],[-73.960747,40.744171],[-73.962166,40.741353],[-73.962978,40.738393],[-73.962547,40.736437],[-73.957176,40.739246],[-73.955248,40.739434],[-73.953823,40.739409],[-73.952264,40.739155],[-73.950077,40.738554],[-73.942161,40.735728],[-73.941287,40.734948],[-73.940838,40.734252],[-73.939496,40.731271],[-73.938361,40.730354],[-73.936871,40.729494],[-73.934938,40.728904],[-73.92989,40.728178],[-73.929206,40.727742],[-73.927425,40.725851],[-73.925499,40.721605],[-73.924438,40.720405],[-73.924392,40.71839],[-73.923139,40.717302],[-73.922804,40.716745],[-73.922727,40.716199],[-73.923993,40.715727],[-73.924558,40.715216],[-73.924055,40.714014],[-73.923863,40.713821],[-73.922365,40.712945],[-73.921442,40.71093],[-73.920744,40.710528],[-73.921898,40.709393],[-73.911806,40.703433],[-73.912903,40.70236],[-73.910678,40.701044],[-73.911819,40.699939],[-73.904459,40.695804],[-73.905974,40.694229],[-73.901664,40.691779],[-73.902111,40.691259],[-73.900667,40.688047],[-73.901216,40.687841],[-73.896477,40.682316],[-73.895974,40.683264],[-73.894148,40.685287],[-73.892737,40.683499],[-73.890314,40.684899],[-73.88973,40.684227],[-73.888584,40.685042],[-73.887753,40.686132],[-73.883971,40.687933],[-73.879121,40.691649],[-73.874301,40.694302],[-73.869071,40.695297],[-73.867453,40.688361],[-73.866591,40.685257],[-73.866315,40.683248],[-73.866026,40.681917],[-73.864101,40.682371],[-73.863297,40.679114],[-73.862345,40.679163],[-73.860382,40.671241],[-73.857633,40.671655],[-73.855698,40.663712],[-73.85841,40.663271],[-73.857572,40.659913],[-73.860342,40.659529],[-73.861617,40.659103],[-73.863538,40.658296],[-73.856693,40.649302],[-73.855139,40.642871],[-73.84803,40.643834],[-73.832945,40.628979],[-73.83424,40.60679],[-73.849784,40.588196],[-73.867356,40.579983],[-73.878953,40.574447],[-73.89155,40.572346],[-73.90557,40.571408],[-73.999394,40.556568],[-74.038053,40.550339],[-74.04378,40.507828]]]}}]}